{
"type": "FeatureCollection",
"name": "frontera_es_pt",
"crs": { "type": "name", "properties": { "name": "urn:ogc:def:crs:OGC:1.3:CRS84" } },
"features": [
{ "type": "Feature", "properties": { }, "geometry": { "type": "MultiLineString", "coordinates": [ [ [ -6.261085742353225, 41.484932839836965 ], [ -6.2624, 41.4866 ], [ -6.2617, 41.4874 ], [ -6.2679, 41.4943 ], [ -6.2663, 41.4977 ], [ -6.2643, 41.4988 ], [ -6.2558, 41.4971 ], [ -6.2507, 41.5009 ], [ -6.258, 41.5119 ], [ -6.2577, 41.5141 ], [ -6.2458, 41.5158 ], [ -6.2398, 41.5203 ], [ -6.2369, 41.5213 ], [ -6.2266, 41.5346 ], [ -6.2177, 41.5424 ], [ -6.2173, 41.5505 ], [ -6.2117, 41.5591 ], [ -6.2013, 41.5682 ], [ -6.188037427864782, 41.575184954657878 ], [ -6.1892, 41.575 ], [ -6.196, 41.5846 ], [ -6.1969, 41.5895 ], [ -6.2014, 41.5945 ], [ -6.2087, 41.5991 ], [ -6.2301, 41.6037 ], [ -6.2358, 41.607 ], [ -6.2544, 41.633 ], [ -6.2762, 41.6467 ], [ -6.2891, 41.6558 ], [ -6.3031, 41.662 ], [ -6.3546, 41.6764 ], [ -6.3745, 41.6737 ], [ -6.396, 41.6772 ], [ -6.406, 41.6809 ], [ -6.4137, 41.6785 ], [ -6.4256, 41.6794 ], [ -6.4343, 41.6821 ], [ -6.4362, 41.6807 ], [ -6.4404, 41.6843 ], [ -6.4479, 41.6841 ], [ -6.4512, 41.6816 ], [ -6.4525, 41.6754 ], [ -6.4573, 41.6666 ], [ -6.4694, 41.6662 ], [ -6.4887, 41.6575 ], [ -6.4995, 41.6571 ], [ -6.5125, 41.6612 ], [ -6.519, 41.6689 ], [ -6.5276, 41.6753 ], [ -6.5343, 41.6766 ], [ -6.5417, 41.6805 ], [ -6.5483, 41.6856 ], [ -6.5538, 41.6933 ], [ -6.5529, 41.6954 ], [ -6.5549, 41.6986 ], [ -6.5536, 41.7017 ], [ -6.5495, 41.7023 ], [ -6.5453, 41.6986 ], [ -6.5425, 41.7011 ], [ -6.5431, 41.704 ], [ -6.5471, 41.7042 ], [ -6.546, 41.7077 ], [ -6.5502, 41.7115 ], [ -6.5483, 41.7128 ], [ -6.5486, 41.7143 ], [ -6.5537, 41.7168 ], [ -6.5501, 41.7186 ], [ -6.5549, 41.721 ], [ -6.5488, 41.7255 ], [ -6.5517, 41.7265 ], [ -6.5553, 41.7252 ], [ -6.5577, 41.7345 ], [ -6.556, 41.7374 ], [ -6.5592, 41.7384 ], [ -6.5614, 41.7418 ], [ -6.5665, 41.7417 ], [ -6.5689, 41.7436 ], [ -6.5647, 41.7515 ], [ -6.5582, 41.7534 ], [ -6.5552, 41.7575 ], [ -6.5551, 41.7672 ], [ -6.5501, 41.773 ], [ -6.5497, 41.7768 ], [ -6.5436, 41.7785 ], [ -6.5472, 41.78 ], [ -6.5438, 41.7839 ], [ -6.5434, 41.7891 ], [ -6.547, 41.795 ], [ -6.543, 41.7964 ], [ -6.5432, 41.8003 ], [ -6.5391, 41.8013 ], [ -6.5428, 41.8052 ], [ -6.5371, 41.8075 ], [ -6.5386, 41.8127 ], [ -6.534779358233732, 41.811577853467249 ] ], [ [ -6.533979665513357, 41.811774004511868 ], [ -6.5379, 41.8131 ], [ -6.5333, 41.814 ], [ -6.5356, 41.8183 ], [ -6.5274, 41.8208 ], [ -6.5315, 41.8224 ], [ -6.5312, 41.8247 ], [ -6.5283, 41.8282 ], [ -6.5303, 41.8288 ], [ -6.5287, 41.8308 ], [ -6.532, 41.8331 ], [ -6.5322, 41.8354 ], [ -6.53, 41.8399 ], [ -6.526, 41.843 ], [ -6.5283, 41.8469 ], [ -6.5275, 41.8498 ], [ -6.5224, 41.8541 ], [ -6.5258, 41.8597 ], [ -6.5159, 41.8699 ], [ -6.5176, 41.8751 ], [ -6.5378, 41.8767 ], [ -6.5712, 41.8835 ], [ -6.5658, 41.894 ], [ -6.5613, 41.8959 ], [ -6.5569, 41.9074 ], [ -6.5577, 41.9103 ], [ -6.5488, 41.9233 ], [ -6.5501, 41.926 ], [ -6.5476, 41.9277 ], [ -6.5499, 41.9293 ], [ -6.546202113248442, 41.930562693037118 ], [ -6.5465, 41.9394 ], [ -6.5494, 41.9445 ], [ -6.5701, 41.9581 ], [ -6.5776, 41.9612 ], [ -6.5847, 41.9663 ], [ -6.589875364176776, 41.968730419641027 ] ], [ [ -6.59008579435555, 41.96839905508935 ], [ -6.5883, 41.9675 ], [ -6.5891, 41.9629 ], [ -6.5994, 41.9483 ], [ -6.6097, 41.9481 ], [ -6.6152, 41.945 ], [ -6.617, 41.9412 ], [ -6.6214, 41.9397 ], [ -6.6357, 41.942 ], [ -6.6503, 41.9399 ], [ -6.7, 41.9333 ], [ -6.7145, 41.9376 ], [ -6.7148, 41.9388 ], [ -6.7262, 41.937 ], [ -6.7506, 41.9436 ], [ -6.7673, 41.9747 ], [ -6.7686, 41.9839 ], [ -6.7855, 41.9887 ], [ -6.7979, 41.9886 ], [ -6.8054, 41.9909 ], [ -6.8113, 41.9925 ], [ -6.81, 41.9695 ], [ -6.8112, 41.9673 ], [ -6.8216, 41.946 ], [ -6.8305, 41.9435 ], [ -6.8337, 41.9443 ], [ -6.8488, 41.9424 ], [ -6.8695, 41.9484 ], [ -6.8747, 41.9438 ], [ -6.8851, 41.9403 ], [ -6.892, 41.9398 ], [ -6.9116, 41.9441 ], [ -6.9259, 41.9439 ], [ -6.9332, 41.9464 ], [ -6.9415, 41.9439 ], [ -6.9443, 41.9446 ], [ -6.9472, 41.951 ], [ -6.9503, 41.9538 ], [ -6.9578, 41.9689 ], [ -6.9793, 41.9738 ], [ -6.9834, 41.9729 ] ], [ [ -6.9834, 41.9729 ], [ -6.9999, 41.9618 ], [ -7.0062, 41.9506 ], [ -7.0108, 41.9494 ], [ -7.0364, 41.9511 ], [ -7.043, 41.955 ], [ -7.0461, 41.9546 ], [ -7.0512, 41.9495 ], [ -7.0622, 41.9505 ], [ -7.0683, 41.949 ], [ -7.0769, 41.9519 ], [ -7.0846, 41.964 ], [ -7.0875, 41.9735 ], [ -7.115, 41.9839 ], [ -7.119, 41.9866 ], [ -7.1331, 41.988 ], [ -7.1414, 41.9907 ], [ -7.1519, 41.9866 ], [ -7.1544, 41.98 ], [ -7.1584, 41.9762 ], [ -7.1649, 41.9796 ], [ -7.1774, 41.9802 ], [ -7.1797, 41.9792 ], [ -7.1848, 41.9725 ], [ -7.1869, 41.9663 ], [ -7.1853, 41.9599 ], [ -7.1877, 41.9567 ], [ -7.1833, 41.9567 ], [ -7.1821, 41.9518 ], [ -7.1874, 41.9475 ], [ -7.1838, 41.9447 ], [ -7.1895, 41.9416 ], [ -7.1871, 41.9415 ], [ -7.1858, 41.9379 ], [ -7.1833, 41.9377 ], [ -7.1852, 41.9354 ], [ -7.1838, 41.933 ], [ -7.18, 41.9317 ], [ -7.1783, 41.9253 ], [ -7.1755, 41.9226 ], [ -7.1787, 41.921 ], [ -7.1735, 41.9193 ], [ -7.182229570345409, 41.912219348497615 ], [ -7.1822, 41.9122 ], [ -7.1816, 41.9084 ], [ -7.1852, 41.8964 ], [ -7.1967, 41.88 ], [ -7.2049, 41.879 ], [ -7.2083, 41.88 ], [ -7.2195, 41.8728 ], [ -7.232, 41.8673 ], [ -7.245, 41.8688 ], [ -7.2578, 41.8659 ], [ -7.2622, 41.8628 ], [ -7.272, 41.8596 ], [ -7.2838, 41.8522 ], [ -7.301, 41.8516 ], [ -7.3051, 41.8473 ], [ -7.3153, 41.8425 ], [ -7.3349, 41.8451 ], [ -7.3564, 41.8405 ], [ -7.3638, 41.8527 ], [ -7.3658, 41.8528 ], [ -7.3696, 41.8488 ], [ -7.3726, 41.849 ], [ -7.3862, 41.8413 ], [ -7.3904, 41.8423 ], [ -7.3916, 41.835 ], [ -7.3948, 41.8332 ], [ -7.3952, 41.8295 ], [ -7.3976, 41.8264 ], [ -7.4026, 41.8255 ], [ -7.4027, 41.8218 ], [ -7.4088, 41.8167 ], [ -7.4157, 41.8135 ], [ -7.4163, 41.8116 ], [ -7.4211, 41.8113 ], [ -7.4281, 41.8074 ], [ -7.4295, 41.8124 ], [ -7.4247, 41.8165 ], [ -7.4309, 41.8229 ], [ -7.4303, 41.8248 ], [ -7.4266, 41.8259 ], [ -7.4257, 41.8294 ], [ -7.42770844238075, 41.83315939214858 ], [ -7.4437, 41.8394 ], [ -7.4475, 41.8449 ], [ -7.4488, 41.8528 ], [ -7.4463, 41.8569 ], [ -7.4456, 41.8578 ], [ -7.454065569906184, 41.867009795832004 ] ], [ [ -7.454138975518314, 41.867005398260766 ], [ -7.4526, 41.8651 ], [ -7.4742, 41.8638 ], [ -7.4852, 41.8613 ], [ -7.4913, 41.8712 ], [ -7.5022, 41.8694 ], [ -7.5113, 41.8653 ], [ -7.5133, 41.8621 ], [ -7.5076, 41.8556 ], [ -7.5056, 41.8508 ], [ -7.5214, 41.8419 ], [ -7.5385, 41.8366 ], [ -7.5406, 41.8375 ], [ -7.544, 41.8368 ], [ -7.5441, 41.8354 ], [ -7.5491, 41.8358 ], [ -7.5509, 41.8337 ], [ -7.559, 41.8344 ], [ -7.5662, 41.8329 ], [ -7.5739, 41.8297 ], [ -7.5988, 41.8331 ], [ -7.6114, 41.8292 ], [ -7.6139, 41.8297 ], [ -7.6146, 41.8318 ], [ -7.6115, 41.8467 ], [ -7.6096, 41.8487 ], [ -7.6061, 41.8487 ], [ -7.6072, 41.8526 ], [ -7.6001, 41.8604 ], [ -7.5994, 41.8647 ], [ -7.6018, 41.8664 ], [ -7.6, 41.8681 ], [ -7.5893, 41.8711 ], [ -7.5886, 41.8735 ], [ -7.5841, 41.8757 ], [ -7.584, 41.8771 ], [ -7.5833, 41.8787 ], [ -7.5861, 41.882 ], [ -7.5872, 41.8795 ], [ -7.5915, 41.8807 ], [ -7.6075, 41.8795 ], [ -7.6184, 41.8851 ], [ -7.6254, 41.8799 ], [ -7.6389, 41.8799 ], [ -7.6565, 41.8821 ], [ -7.6669, 41.8892 ], [ -7.6682, 41.8933 ], [ -7.6779, 41.8931 ], [ -7.6878, 41.9022 ], [ -7.6973, 41.9072 ], [ -7.70359813316739, 41.907772557560676 ], [ -7.7054, 41.9069 ], [ -7.7221, 41.9004 ], [ -7.7333, 41.8923 ], [ -7.745, 41.8931 ], [ -7.7498, 41.8948 ], [ -7.7532, 41.8982 ], [ -7.7635, 41.899 ], [ -7.7783, 41.8869 ], [ -7.7921, 41.883 ], [ -7.8004, 41.8832 ], [ -7.8024, 41.882 ], [ -7.8452, 41.8813 ], [ -7.8415, 41.8665 ], [ -7.8494, 41.8617 ], [ -7.8584, 41.8626 ], [ -7.859, 41.8605 ], [ -7.8663, 41.8589 ], [ -7.8719, 41.8501 ], [ -7.8728, 41.8449 ], [ -7.8816, 41.8561 ], [ -7.8879, 41.8556 ], [ -7.8918, 41.8588 ], [ -7.8922, 41.8602 ], [ -7.8882, 41.8661 ], [ -7.8884, 41.8697 ], [ -7.8848, 41.8809 ], [ -7.8844, 41.8891 ], [ -7.8874, 41.9073 ], [ -7.8837, 41.9184 ], [ -7.8847, 41.9243 ], [ -7.8879, 41.9268 ], [ -7.9031, 41.9264 ], [ -7.907706416448405, 41.928518951566268 ] ], [ [ -7.907721824082003, 41.928503348522639 ], [ -7.9056, 41.9274 ], [ -7.9097, 41.9225 ], [ -7.9101, 41.9073 ], [ -7.9213, 41.8818 ], [ -7.9197, 41.8802 ], [ -7.9212, 41.8778 ], [ -7.9285, 41.8778 ], [ -7.9488, 41.871 ], [ -7.9561, 41.8732 ], [ -7.9567, 41.8752 ], [ -7.9692, 41.8744 ], [ -7.9715, 41.8764 ], [ -7.9806, 41.8722 ], [ -7.9877, 41.8692 ], [ -7.9899, 41.8625 ], [ -7.9894, 41.8595 ], [ -7.9956, 41.858 ], [ -7.9944, 41.8542 ], [ -7.9957, 41.8525 ], [ -8.003, 41.8503 ], [ -8.006, 41.8471 ], [ -8.0058, 41.8446 ], [ -8.0121, 41.8346 ], [ -8.0131, 41.8295 ], [ -8.0193, 41.8321 ], [ -8.0301, 41.8296 ], [ -8.0387, 41.83 ], [ -8.0416, 41.8278 ], [ -8.0413, 41.8252 ], [ -8.0457, 41.8241 ], [ -8.0512, 41.8195 ], [ -8.0534, 41.8206 ], [ -8.0552, 41.8168 ], [ -8.0576, 41.8157 ], [ -8.0655, 41.8174 ], [ -8.0734, 41.8132 ], [ -8.0789, 41.8136 ], [ -8.0839, 41.8107 ], [ -8.0873, 41.8129 ], [ -8.0904, 41.8124 ], [ -8.0933, 41.8111 ], [ -8.0939, 41.808 ], [ -8.1045, 41.8118 ], [ -8.1166, 41.8127 ], [ -8.1244, 41.8086 ], [ -8.1309, 41.8089 ], [ -8.1543, 41.818 ], [ -8.165, 41.8181 ], [ -8.1617, 41.861 ], [ -8.1664, 41.8624 ], [ -8.1693, 41.8765 ], [ -8.1717, 41.8791 ], [ -8.1829, 41.875 ], [ -8.1925, 41.8766 ], [ -8.2, 41.8737 ], [ -8.2007, 41.8782 ], [ -8.1979, 41.8795 ], [ -8.2005, 41.8828 ], [ -8.2013, 41.8881 ], [ -8.2055, 41.8937 ], [ -8.2154, 41.8988 ], [ -8.2142, 41.9008 ], [ -8.2168, 41.9053 ], [ -8.2167, 41.9136 ], [ -8.212, 41.9186 ], [ -8.2102, 41.9236 ], [ -8.2043, 41.927 ], [ -8.2025, 41.9324 ], [ -8.1978, 41.9375 ], [ -8.1979, 41.9395 ], [ -8.1801, 41.9537 ], [ -8.1749, 41.955 ], [ -8.1762, 41.9589 ], [ -8.1736, 41.9624 ], [ -8.1695, 41.963 ], [ -8.1692, 41.9662 ], [ -8.1628, 41.9756 ], [ -8.163, 41.9827 ], [ -8.1407, 41.9887 ], [ -8.1278, 42.0056 ], [ -8.1247, 42.0066 ], [ -8.115, 42.0049 ], [ -8.0946, 42.0112 ], [ -8.086, 42.0165 ], [ -8.0827, 42.0282 ], [ -8.0844, 42.0473 ], [ -8.0874, 42.0544 ], [ -8.0966, 42.0723 ], [ -8.1037, 42.0751 ], [ -8.1183, 42.0821 ], [ -8.1214, 42.0828 ], [ -8.1379, 42.0758 ], [ -8.1496, 42.0793 ], [ -8.1596, 42.0758 ], [ -8.1704, 42.0673 ], [ -8.1755, 42.0653 ], [ -8.1821, 42.0651 ], [ -8.1881, 42.0739 ], [ -8.1854, 42.0764 ], [ -8.1865, 42.0814 ], [ -8.1849, 42.0838 ], [ -8.1879, 42.0924 ], [ -8.1859, 42.0982 ], [ -8.1888, 42.1112 ], [ -8.1918, 42.1145 ], [ -8.1911, 42.1182 ], [ -8.1933, 42.1262 ], [ -8.1931, 42.1301 ], [ -8.1886, 42.1337 ], [ -8.1896, 42.1352 ], [ -8.1876, 42.1375 ], [ -8.1908, 42.1402 ], [ -8.188, 42.1436 ], [ -8.1915, 42.1428 ], [ -8.1954, 42.1482 ], [ -8.1964, 42.1527 ], [ -8.19926181946736, 42.153992434598159 ], [ -8.2005, 42.1537 ], [ -8.2003, 42.1488 ], [ -8.2066, 42.141 ], [ -8.2179, 42.1386 ], [ -8.2219, 42.1341 ], [ -8.2296, 42.1328 ], [ -8.2334, 42.1338 ], [ -8.2401, 42.1391 ], [ -8.2439, 42.1398 ], [ -8.2536, 42.1367 ], [ -8.256199114260406, 42.134286536758189 ], [ -8.2557, 42.1267 ], [ -8.2591, 42.1213 ], [ -8.263, 42.1209 ], [ -8.2736, 42.1241 ], [ -8.2891, 42.1145 ], [ -8.2907, 42.1119 ], [ -8.2949, 42.1111 ], [ -8.2963, 42.1078 ], [ -8.3012, 42.1051 ], [ -8.313, 42.103 ], [ -8.3167, 42.1047 ], [ -8.3194, 42.1021 ], [ -8.3228, 42.1015 ], [ -8.3248, 42.097 ], [ -8.3252, 42.0895 ], [ -8.3319, 42.0838 ], [ -8.3427, 42.0847 ], [ -8.3566, 42.0903 ], [ -8.3631, 42.0904 ], [ -8.3704, 42.0884 ], [ -8.369072857249005, 42.090864693680423 ] ], [ [ -8.369083395454068, 42.090861966144992 ], [ -8.3719, 42.0862 ], [ -8.3816, 42.0764 ], [ -8.3906, 42.0752 ], [ -8.3922, 42.078 ], [ -8.3936, 42.0802 ], [ -8.4051, 42.0804 ], [ -8.4194, 42.0731 ], [ -8.4289, 42.0723 ], [ -8.4316, 42.0732 ], [ -8.4342, 42.0774 ], [ -8.4407, 42.0818 ], [ -8.4538, 42.0821 ], [ -8.4782, 42.0807 ], [ -8.4861, 42.0819 ], [ -8.4968, 42.0789 ], [ -8.5037, 42.0777 ], [ -8.5211, 42.0793 ], [ -8.5264, 42.0771 ], [ -8.5282, 42.0745 ], [ -8.5253, 42.0644 ], [ -8.5272, 42.0617 ], [ -8.5478, 42.0538 ], [ -8.5552, 42.0531 ], [ -8.5812, 42.0519 ], [ -8.5865, 42.0526 ], [ -8.5919, 42.0564 ], [ -8.5953, 42.0569 ], [ -8.6009, 42.0546 ], [ -8.6317, 42.0496 ], [ -8.6399, 42.0456 ], [ -8.6464, 42.0365 ], [ -8.6563, 42.0317 ], [ -8.6589, 42.0271 ], [ -8.6587, 42.0239 ], [ -8.6576, 42.0216 ], [ -8.6613, 42.0033 ], [ -8.6703, 41.9991 ], [ -8.6773, 41.9921 ], [ -8.6887, 41.9901 ], [ -8.6987, 41.9838 ], [ -8.7161, 41.9802 ], [ -8.7352, 41.9714 ], [ -8.7459, 41.9646 ], [ -8.7488, 41.9591 ], [ -8.7466, 41.9504 ], [ -8.7482, 41.9419 ], [ -8.7579, 41.932 ], [ -8.7721, 41.9249 ], [ -8.7857, 41.9174 ], [ -8.7937, 41.915 ], [ -8.8034, 41.9151 ], [ -8.8184, 41.9113 ], [ -8.8246, 41.9059 ], [ -8.8293, 41.898 ], [ -8.843, 41.885 ], [ -8.851, 41.8771 ], [ -8.863, 41.872 ], [ -8.8654, 41.8741 ], [ -8.8733, 41.8699 ], [ -8.8751, 41.8707 ], [ -8.875118498908954, 41.870727219823173 ] ], [ [ -6.984603515644527, 41.974567728821704 ], [ -6.9834, 41.9729 ] ], [ [ -6.9834, 41.9729 ], [ -6.984497040915263, 41.974660682950429 ] ] ] } }
]
}
