{
"type": "FeatureCollection",
"name": "rios_norte",
"crs": { "type": "name", "properties": { "name": "urn:ogc:def:crs:OGC:1.3:CRS84" } },
"features": [
{ "type": "Feature", "properties": { "dissolve": "1061River", "scalerank": 9, "featurecla": "River", "name": "Mio", "name_alt": null, "rivernum": 1061, "note": null, "min_zoom": 7.1, "name_en": "Minho", "min_label": 8.1, "ne_id": 1159110433, "label": "Mio", "wikidataid": "Q14554", "name_ar": "نهر مينيو", "name_bn": "মিনিউ নদী", "name_de": "Miño", "name_es": "Miño", "name_fr": "Minho", "name_el": "Μίο", "name_hi": "मायओ", "name_hu": "Miño", "name_id": "Mio", "name_it": "Miño", "name_ja": "ミーニョ川", "name_ko": "미뉴강", "name_nl": "Miño", "name_pl": "Miño", "name_pt": "Minho", "name_ru": "Миньо", "name_sv": "Miño", "name_tr": "Mio", "name_vi": "Sông Mio", "name_zh": "米尼奧河", "name_fa": "رود مینیو", "name_he": "האי מיקלון", "name_uk": "Міню", "name_ur": "میو", "name_zht": "米尼奧河" }, "geometry": { "type": "LineString", "coordinates": [ [ -7.258398437499977, 43.194452215619116 ], [ -7.349707031249977, 43.25531647343162 ], [ -7.361572265625, 43.25995514530662 ], [ -7.377050781249977, 43.26105377811912 ], [ -7.3994140625, 43.25653717655662 ], [ -7.417333984374977, 43.24677155155662 ], [ -7.43125, 43.232538153119116 ], [ -7.441821289062489, 43.214862371869117 ], [ -7.443359375, 43.204706121869116 ], [ -7.44189453125, 43.19647858280662 ], [ -7.444873046874989, 43.18854401249412 ], [ -7.459814453124977, 43.17914459843162 ], [ -7.478076171874989, 43.17670319218162 ], [ -7.519677734374994, 43.181659246869117 ], [ -7.536059570312489, 43.17694733280662 ], [ -7.592871093749977, 43.14325592655662 ], [ -7.607470703124989, 43.127069403119116 ], [ -7.623388671874977, 43.08661530155662 ], [ -7.617041015624977, 43.05548737186912 ], [ -7.5947265625, 43.028583074994117 ], [ -7.548583984375, 42.98981354374412 ], [ -7.5341796875, 42.978143621869116 ], [ -7.52197265625, 42.96466705936912 ], [ -7.515185546874989, 42.94867584843162 ], [ -7.516943359374977, 42.929706121869117 ], [ -7.521337890624977, 42.919061590619116 ], [ -7.568652343749989, 42.84406159061912 ], [ -7.574462890625, 42.83917877811912 ], [ -7.586962890624989, 42.83063385624412 ], [ -7.598095703124983, 42.82074616093162 ], [ -7.636474609375, 42.774188543744117 ], [ -7.644384765624977, 42.76203034061912 ], [ -7.653564453125, 42.750848699994116 ], [ -7.665869140624977, 42.742206121869117 ], [ -7.67919921875, 42.735858465619117 ], [ -7.6806640625, 42.73187897343162 ], [ -7.682177734374989, 42.71613190311912 ], [ -7.684912109374977, 42.71088287968162 ], [ -7.68994140625, 42.706805731244117 ], [ -7.698046874999989, 42.70270416874412 ], [ -7.718847656249977, 42.695331121869117 ], [ -7.723437499999989, 42.691034246869116 ], [ -7.724658203124989, 42.686151434369116 ], [ -7.724902343749989, 42.665790106244117 ], [ -7.720385742187489, 42.65473053593162 ], [ -7.712744140624977, 42.64557526249412 ], [ -7.706640624999977, 42.63629791874412 ], [ -7.70654296875, 42.62482330936912 ], [ -7.705078125, 42.61469147343162 ], [ -7.714160156249989, 42.60114166874412 ], [ -7.718505859375, 42.587665106244117 ], [ -7.716650390624977, 42.57416412968162 ], [ -7.70703125, 42.56085846561912 ], [ -7.703369140625, 42.55914948124412 ], [ -7.69970703125, 42.55890534061912 ], [ -7.6962890625, 42.55756256718162 ], [ -7.693603515625, 42.55267975468162 ], [ -7.693359375, 42.54755280155662 ], [ -7.695117187499989, 42.54364655155662 ], [ -7.700292968749977, 42.53607819218162 ], [ -7.703222656249977, 42.526629949994117 ], [ -7.705908203124977, 42.50751373905662 ], [ -7.708544921874989, 42.49799225468162 ], [ -7.712695312499989, 42.49091217655662 ], [ -7.830224609374994, 42.37213776249412 ], [ -7.852465820312489, 42.358661199994117 ], [ -7.879565429687489, 42.351092840619117 ], [ -7.909765624999977, 42.34735748905662 ], [ -8.008105468749989, 42.35004303593162 ], [ -8.027758789062489, 42.346454168744117 ], [ -8.045996093749977, 42.33930084843162 ], [ -8.05419921875, 42.333368231244116 ], [ -8.071875, 42.312372137494116 ], [ -8.08251953125, 42.30487702030662 ], [ -8.120849609375, 42.28681061405662 ], [ -8.140917968749989, 42.26947662968162 ], [ -8.1708984375, 42.225116278119117 ], [ -8.189062499999977, 42.206073309369117 ], [ -8.183154296874989, 42.20184967655662 ], [ -8.168896484374983, 42.19440338749412 ], [ -8.1640625, 42.189227606244117 ], [ -8.162939453124977, 42.175409246869116 ], [ -8.173022460937489, 42.166766668744117 ], [ -8.188037109374989, 42.162127996869117 ] ] } },
{ "type": "Feature", "properties": { "dissolve": "1134River", "scalerank": 9, "featurecla": "River", "name": "Minho", "name_alt": null, "rivernum": 1134, "note": null, "min_zoom": 7.1, "name_en": "Minho", "min_label": 8.1, "ne_id": 1159111655, "label": "Minho", "wikidataid": "Q14554", "name_ar": "نهر مينيو", "name_bn": "মিনিউ নদী", "name_de": "Miño", "name_es": "Miño", "name_fr": "Minho", "name_el": "Μίνχο", "name_hi": "मिन्हो", "name_hu": "Miño", "name_id": "Minho", "name_it": "Miño", "name_ja": "ミーニョ川", "name_ko": "미뉴강", "name_nl": "Miño", "name_pl": "Miño", "name_pt": "Minho", "name_ru": "Миньо", "name_sv": "Miño", "name_tr": "Minho", "name_vi": "Sông Minho", "name_zh": "米尼奧河", "name_fa": "رود مینیو", "name_he": "כף מינה הוק", "name_uk": "Міню", "name_ur": "منہو", "name_zht": "米尼奧河" }, "geometry": { "type": "LineString", "coordinates": [ [ -8.750781249999989, 41.969012762494117 ], [ -8.740234375, 41.975360418744117 ], [ -8.717626953124977, 41.984002996869116 ], [ -8.69189453125, 41.98981354374412 ], [ -8.671435546874989, 42.00006744999412 ], [ -8.663867187499989, 42.010126043744116 ], [ -8.653173828124977, 42.03168366093162 ], [ -8.64453125, 42.04169342655662 ], [ -8.627539062499977, 42.051288153119117 ], [ -8.610107421875, 42.05390045780662 ], [ -8.573486328125, 42.054706121869117 ], [ -8.555029296874977, 42.060321356244117 ], [ -8.520605468749977, 42.077997137494116 ], [ -8.501806640624977, 42.08331940311912 ], [ -8.347412109375, 42.10199616093162 ], [ -8.33056640625, 42.108661199994117 ], [ -8.304931640625, 42.12604401249412 ], [ -8.295996093749977, 42.13031647343162 ], [ -8.288427734374977, 42.13165924686912 ], [ -8.271337890624977, 42.13226959843162 ], [ -8.252978515624989, 42.137811590619116 ], [ -8.219335937499977, 42.15582916874412 ], [ -8.201757812499977, 42.16034577030662 ], [ -8.188037109374989, 42.162127996869117 ] ] } },
{ "type": "Feature", "properties": { "dissolve": "892River", "scalerank": 8, "featurecla": "River", "name": "Esla", "name_alt": null, "rivernum": 892, "note": null, "min_zoom": 7.0, "name_en": "Esla", "min_label": 8.0, "ne_id": 1159128421, "label": "Esla", "wikidataid": "Q14764", "name_ar": "إسلا", "name_bn": "এসলা", "name_de": "Esla", "name_es": "Esla", "name_fr": "Esla", "name_el": "Έσλα", "name_hi": "एसला", "name_hu": "Esla", "name_id": "Esla", "name_it": "Esla", "name_ja": "エルサ川", "name_ko": "에슬라", "name_nl": "Esla", "name_pl": "Esla", "name_pt": "Esla", "name_ru": "Эсла", "name_sv": "Eslafloden", "name_tr": "Esla", "name_vi": "Sông Esla", "name_zh": "埃斯拉河", "name_fa": "اسلا", "name_he": "אסלה", "name_uk": "Есла", "name_ur": "ایسلا", "name_zht": "埃斯拉河" }, "geometry": { "type": "LineString", "coordinates": [ [ -5.077099609374983, 42.95575592655662 ], [ -5.094970703125, 42.94806549686912 ], [ -5.115576171874977, 42.932489324994116 ], [ -5.134326171874989, 42.91400787968162 ], [ -5.146337890624977, 42.897479559369117 ], [ -5.15185546875, 42.882831121869117 ], [ -5.149267578124977, 42.876581121869116 ], [ -5.142431640624977, 42.871356512494117 ], [ -5.135058593749989, 42.85968659061912 ], [ -5.128662109375, 42.82648346561912 ], [ -5.131445312499977, 42.79230377811912 ], [ -5.140966796874977, 42.758661199994116 ], [ -5.154223632812489, 42.72687409061912 ], [ -5.184912109374977, 42.67816803593162 ], [ -5.221289062499977, 42.63483307499412 ], [ -5.277685546874977, 42.593377996869116 ], [ -5.338476562499977, 42.54218170780662 ], [ -5.379003906249977, 42.51996491093162 ], [ -5.470507812499989, 42.488153387494116 ], [ -5.520605468749977, 42.459588934369116 ], [ -5.551928710937489, 42.41608307499412 ], [ -5.563085937499977, 42.364374090619116 ], [ -5.552734375, 42.31110260624412 ], [ -5.54541015625, 42.301044012494117 ], [ -5.536865234375, 42.29364655155662 ], [ -5.531420898437489, 42.284784246869116 ], [ -5.533203125, 42.270526434369117 ], [ -5.573535156249989, 42.15509674686912 ], [ -5.597949218749989, 42.021014715619117 ], [ -5.611499023437489, 41.99616119999412 ], [ -5.632080078125, 41.97394440311912 ], [ -5.774462890624989, 41.86981842655662 ], [ -5.780688476562489, 41.86212799686912 ], [ -5.784838867187489, 41.85285065311912 ], [ -5.793066406249977, 41.822284246869117 ], [ -5.797216796874977, 41.81549713749412 ], [ -5.813037109374989, 41.79755280155662 ], [ -5.8173828125, 41.790057684369117 ], [ -5.820239257812489, 41.782245184369117 ], [ -5.8212890625, 41.77411530155662 ], [ -5.820019531249983, 41.76557037968162 ], [ -5.815527343749977, 41.757342840619117 ], [ -5.802539062499989, 41.746600653119117 ], [ -5.796875, 41.74054596561912 ], [ -5.793554687499977, 41.72565338749412 ], [ -5.802832031249977, 41.71625397343162 ], [ -5.832861328124977, 41.704852606244117 ], [ -5.858569335937489, 41.69098541874412 ], [ -5.870703124999977, 41.682391668744117 ], [ -5.881396484374989, 41.672967840619116 ], [ -5.891650390624989, 41.65985748905662 ], [ -5.908251953124989, 41.63080475468162 ], [ -5.91845703125, 41.61762116093162 ], [ -5.931982421874977, 41.60932037968162 ], [ -5.962988281249977, 41.59747955936912 ], [ -5.972338867187489, 41.58612702030662 ], [ -5.973730468749977, 41.57623932499412 ], [ -5.968994140625, 41.54633209843162 ], [ -5.970019531249989, 41.53607819218162 ], [ -5.973559570312489, 41.52875397343162 ], [ -5.978125, 41.52204010624412 ], [ -5.982519531249977, 41.51349518436912 ], [ -6.009033203125, 41.50958893436912 ], [ -6.024658203125, 41.50385162968162 ], [ -6.035253906249977, 41.490838934369116 ] ] } },
{ "type": "Feature", "properties": { "dissolve": "395Lake Centerline", "scalerank": 7, "featurecla": "Lake Centerline", "name": "Guadiana", "name_alt": null, "rivernum": 395, "note": null, "min_zoom": 6.0, "name_en": "Guadiana", "min_label": 7.0, "ne_id": 1159118945, "label": "Guadiana", "wikidataid": "Q14305", "name_ar": "نهر يانة", "name_bn": "গুয়াদিয়ানা", "name_de": "Guadiana", "name_es": "Guadiana", "name_fr": "Guadiana", "name_el": "Γουαδιάνα", "name_hi": "गुआडियाना", "name_hu": "Guadiana", "name_id": "Guadiana", "name_it": "Guadiana", "name_ja": "グアディアナ川", "name_ko": "과디아나강", "name_nl": "Guadiana", "name_pl": "Gwadiana", "name_pt": "Guadiana", "name_ru": "Гвадиана", "name_sv": "Guadiana", "name_tr": "Guadiana", "name_vi": "Guadiana", "name_zh": "瓜地亞納河", "name_fa": "رود گوادیانا", "name_he": "גוודיאנה", "name_uk": "Гвадіана", "name_ur": "گواڈیانا", "name_zht": "瓜地亞納河" }, "geometry": { "type": "LineString", "coordinates": [ [ -4.769775390625, 39.248553778119117 ], [ -4.787353515625, 39.25726959843162 ], [ -4.816992187499977, 39.269647528119116 ], [ -4.83984375, 39.28485748905662 ], [ -4.861669921874977, 39.313104559369116 ], [ -4.873779296875, 39.33808014530662 ], [ -4.906347656249977, 39.36029694218162 ], [ -4.9521484375, 39.381219793744116 ], [ -4.974658203124989, 39.39008209843162 ], [ -4.9951171875, 39.392694403119116 ], [ -5.015625, 39.388788153119116 ], [ -5.02197265625, 39.37982819218162 ], [ -5.018115234374989, 39.365252996869117 ], [ -5.018896484374977, 39.36041901249412 ], [ -5.022143554687489, 39.34088776249412 ], [ -5.035498046874977, 39.31928131718162 ], [ -5.055346679687489, 39.29987213749412 ], [ -5.078955078124977, 39.279559637494117 ], [ -5.080517578124983, 39.27863190311912 ], [ -5.098339843749983, 39.26825592655662 ], [ -5.126074218749977, 39.255975653119116 ], [ -5.15478515625, 39.24030182499412 ], [ -5.169531249999977, 39.22370026249412 ], [ -5.177978515625, 39.202752996869116 ], [ -5.180712890624989, 39.18646881718162 ], [ -5.1806640625, 39.15912506718162 ] ] } },
{ "type": "Feature", "properties": { "dissolve": "395River", "scalerank": 7, "featurecla": "River", "name": "Guadiana", "name_alt": null, "rivernum": 395, "note": null, "min_zoom": 6.0, "name_en": "Guadiana", "min_label": 7.0, "ne_id": 1159118963, "label": "Guadiana", "wikidataid": "Q14305", "name_ar": "نهر يانة", "name_bn": "গুয়াদিয়ানা", "name_de": "Guadiana", "name_es": "Guadiana", "name_fr": "Guadiana", "name_el": "Γουαδιάνα", "name_hi": "गुआडियाना", "name_hu": "Guadiana", "name_id": "Guadiana", "name_it": "Guadiana", "name_ja": "グアディアナ川", "name_ko": "과디아나강", "name_nl": "Guadiana", "name_pl": "Gwadiana", "name_pt": "Guadiana", "name_ru": "Гвадиана", "name_sv": "Guadiana", "name_tr": "Guadiana", "name_vi": "Sông Guadiana", "name_zh": "瓜地亞納河", "name_fa": "رود گوادیانا", "name_he": "גוודיאנה", "name_uk": "Гвадіана", "name_ur": "گواڈیانا", "name_zht": "瓜地亞納河" }, "geometry": { "type": "MultiLineString", "coordinates": [ [ [ -4.769677734374994, 39.248553778119117 ], [ -4.734082031249983, 39.23981354374412 ], [ -4.699316406249977, 39.218036199994117 ], [ -4.670581054687489, 39.19086334843162 ], [ -4.653002929687489, 39.16596100468162 ], [ -4.653173828124977, 39.160419012494117 ], [ -4.660449218749989, 39.150995184369116 ], [ -4.659838867187489, 39.146112371869116 ], [ -4.654541015625, 39.14203522343162 ], [ -4.648681640625, 39.140887762494117 ], [ -4.643408203124977, 39.14057037968162 ], [ -4.639404296875, 39.138690496869117 ], [ -4.619726562499977, 39.120477606244116 ], [ -4.615478515625, 39.118182684369117 ], [ -4.596777343749977, 39.11456940311912 ], [ -4.581787109375, 39.10443756718162 ], [ -4.572558593749989, 39.089129949994117 ], [ -4.571093749999989, 39.06976959843162 ], [ -4.563647460937489, 39.07721588749412 ], [ -4.557470703124977, 39.08344147343162 ], [ -4.544482421874989, 39.067157293744117 ], [ -4.489111328124977, 39.02948639530662 ], [ -4.464599609375, 39.01825592655662 ], [ -4.438769531249989, 39.01312897343162 ], [ -4.424365234374989, 39.00568268436912 ], [ -4.433886718749989, 38.98786041874412 ], [ -4.366796874999977, 39.00018952030662 ], [ -4.330664062499977, 39.000604559369116 ], [ -4.306982421874977, 38.991571356244116 ], [ -4.295263671874977, 38.98444244999412 ], [ -4.248925781249994, 38.96393463749412 ], [ -4.242431640625, 38.954120184369117 ], [ -4.226855468749989, 38.94855377811912 ], [ -4.208593749999977, 38.948358465619116 ], [ -4.193701171874977, 38.954364324994117 ], [ -4.152441406249977, 38.940301824994116 ], [ -4.145922851562489, 38.93634674686912 ], [ -4.142504882812489, 38.93036530155662 ], [ -4.126757812499989, 38.91022369999412 ], [ -4.122021484374983, 38.90595123905662 ], [ -4.099023437499994, 38.91010162968162 ], [ -4.058398437499989, 38.92841217655662 ], [ -4.039794921875, 38.932635809369117 ], [ -4.019238281249983, 38.941766668744116 ], [ -4.016406249999989, 38.96271393436912 ], [ -4.022705078125, 38.98590729374412 ], [ -4.036474609374977, 39.021844793744116 ], [ -4.036059570312489, 39.036981512494116 ], [ -4.027197265624977, 39.049676824994116 ], [ -4.009375, 39.06293366093162 ], [ -3.972705078124989, 39.07538483280662 ], [ -3.885107421874977, 39.08014557499412 ], [ -3.84423828125, 39.09088776249412 ], [ -3.795458984374989, 39.12091705936912 ], [ -3.757421874999977, 39.12763092655662 ], [ -3.738037109375, 39.13593170780662 ], [ -3.671093749999983, 39.18451569218162 ], [ -3.632177734374977, 39.19855377811912 ], [ -3.542578124999977, 39.21381256718162 ], [ -3.481787109374977, 39.23798248905662 ], [ -3.470556640624977, 39.23920319218162 ], [ -3.405444335937489, 39.262225653119117 ], [ -3.395751953125, 39.27533600468162 ], [ -3.38623046875, 39.29132721561912 ], [ -3.375341796874977, 39.30487702030662 ], [ -3.361376953124989, 39.31061432499412 ], [ -3.3388671875, 39.312616278119116 ], [ -3.304248046874989, 39.321551824994117 ], [ -3.282519531249989, 39.32367584843162 ], [ -3.164599609374989, 39.31659577030662 ] ], [ [ -5.559375, 39.013934637494117 ], [ -5.471362304687489, 39.01581452030662 ], [ -5.409912109375, 39.030389715619116 ], [ -5.384326171874989, 39.04120514530662 ], [ -5.356347656249994, 39.04901764530662 ], [ -5.3427734375, 39.055926824994117 ], [ -5.322363281249977, 39.08490631718162 ], [ -5.311816406249989, 39.094012762494117 ], [ -5.303417968749983, 39.098407293744117 ], [ -5.262939453125, 39.11029694218162 ], [ -5.231640624999983, 39.124627996869116 ], [ -5.20556640625, 39.14288971561912 ], [ -5.1806640625, 39.15912506718162 ] ], [ [ -5.556884765625, 39.015155340619117 ], [ -5.597753906249977, 39.016229559369116 ], [ -5.617846679687489, 39.018915106244116 ], [ -5.661425781249989, 39.03046295780662 ], [ -5.789257812499983, 39.03546784061912 ], [ -5.860888671874989, 39.025995184369116 ], [ -5.950366210937489, 38.99494049686912 ], [ -6.009033203125, 38.954120184369117 ], [ -6.023486328124989, 38.94684479374412 ], [ -6.064794921874977, 38.94013092655662 ], [ -6.133496093749983, 38.96051666874412 ], [ -6.17431640625, 38.954364324994117 ], [ -6.184326171875, 38.942987371869116 ], [ -6.201757812499977, 38.90680573124412 ], [ -6.212207031249989, 38.89911530155662 ], [ -6.219775390624989, 38.89191315311912 ], [ -6.229541015624989, 38.87592194218162 ], [ -6.243505859374977, 38.85944244999412 ], [ -6.263671875, 38.85065338749412 ], [ -6.302661132812489, 38.860370184369117 ], [ -6.333251953125, 38.88849518436912 ], [ -6.359667968749989, 38.92182037968162 ], [ -6.386572265624977, 38.94684479374412 ], [ -6.424169921874977, 38.95477936405662 ], [ -6.453662109374989, 38.938006903119117 ], [ -6.482421875, 38.911883856244117 ], [ -6.517578125, 38.89166901249412 ], [ -6.536303710937489, 38.887567449994116 ], [ -6.595800781249977, 38.88544342655662 ], [ -6.601416015624977, 38.88324616093162 ], [ -6.619482421874977, 38.873407293744116 ], [ -6.6298828125, 38.87116119999412 ], [ -6.642675781249977, 38.87299225468162 ], [ -6.673999023437489, 38.88544342655662 ], [ -6.728076171874989, 38.89374420780662 ], [ -6.742919921875, 38.89911530155662 ], [ -6.789160156249977, 38.92743561405662 ], [ -6.805615234374983, 38.932635809369117 ], [ -6.879638671875, 38.924920965619116 ], [ -6.920996093749977, 38.91559479374412 ], [ -6.942138671875, 38.90595123905662 ], [ -6.95654296875, 38.91107819218162 ], [ -6.972216796874989, 38.906854559369116 ], [ -6.984716796874977, 38.897821356244116 ], [ -6.989941406249983, 38.88849518436912 ], [ -7.064892578124983, 38.851336981244117 ], [ -7.0771484375, 38.84345123905662 ], [ -7.089208984374977, 38.83356354374412 ], [ -7.10546875, 38.827411199994117 ], [ -7.151660156249989, 38.81952545780662 ], [ -7.161230468749977, 38.813104559369116 ], [ -7.166796874999989, 38.80365631718162 ], [ -7.180346679687489, 38.79108307499412 ], [ -7.197119140624977, 38.78021881718162 ], [ -7.212158203125, 38.77558014530662 ], [ -7.271093749999977, 38.73773834843162 ], [ -7.272802734374977, 38.73395416874412 ], [ -7.281347656249977, 38.72064850468162 ], [ -7.284765624999977, 38.713495184369116 ], [ -7.291552734374989, 38.67938873905662 ], [ -7.293554687499977, 38.656512762494117 ], [ -7.293212890625, 38.64630768436912 ], [ -7.291552734374989, 38.638446356244117 ], [ -7.286669921874989, 38.63214752811912 ], [ -7.280029296875, 38.629169012494117 ], [ -7.274121093749983, 38.62567780155662 ], [ -7.271093749999977, 38.617938543744117 ], [ -7.276464843749977, 38.60407135624412 ], [ -7.318212890624977, 38.55646393436912 ], [ -7.33642578125, 38.506122137494117 ], [ -7.34619140625, 38.494403387494117 ], [ -7.334716796875, 38.48126862186912 ], [ -7.335791015624977, 38.46967194218162 ], [ -7.345458984375, 38.45856354374412 ], [ -7.35986328125, 38.44660065311912 ], [ -7.382983398437489, 38.42621491093162 ], [ -7.392578125, 38.41522858280662 ], [ -7.400195312499989, 38.398797918744116 ], [ -7.400146484375, 38.36847565311912 ], [ -7.403906249999977, 38.36408112186912 ], [ -7.412207031249977, 38.36334869999412 ], [ -7.422607421875, 38.36127350468162 ], [ -7.43125, 38.35822174686912 ], [ -7.434912109374977, 38.35443756718162 ], [ -7.435644531249977, 38.279803778119117 ], [ -7.438818359374977, 38.26178619999412 ], [ -7.446142578124977, 38.24725983280662 ], [ -7.474707031249977, 38.23554108280662 ], [ -7.491381835937489, 38.22186920780662 ], [ -7.504638671875, 38.204852606244117 ], [ -7.51513671875, 38.169794012494116 ], [ -7.528076171875, 38.16327545780662 ], [ -7.585302734374977, 38.16632721561912 ], [ -7.602783203125, 38.163836981244117 ], [ -7.615234375, 38.156366278119116 ], [ -7.6259765625, 38.12811920780662 ], [ -7.656201171874983, 38.10358307499412 ], [ -7.668310546874977, 38.090350653119117 ], [ -7.649584960937489, 38.05927155155662 ], [ -7.65673828125, 38.018817449994117 ], [ -7.681396484375, 37.952508856244116 ], [ -7.674365234374989, 37.93268463749412 ], [ -7.647070312499977, 37.89838287968162 ], [ -7.641040039062489, 37.88117096561912 ], [ -7.634130859374977, 37.80231354374412 ], [ -7.641040039062489, 37.774432684369117 ], [ -7.641943359374977, 37.76557037968162 ], [ -7.641040039062489, 37.737176824994116 ], [ -7.643652343749977, 37.71662018436912 ], [ -7.656298828124989, 37.684833074994117 ], [ -7.660888671875, 37.665155340619116 ], [ -7.660253906249977, 37.643817449994117 ], [ -7.65380859375, 37.62421295780662 ], [ -7.641528320312489, 37.60993073124412 ], [ -7.604785156249989, 37.59931061405662 ], [ -7.591845703124989, 37.587420965619117 ], [ -7.580175781249977, 37.573602606244116 ], [ -7.565283203124977, 37.562762762494117 ], [ -7.5556640625, 37.55902741093162 ], [ -7.546093749999983, 37.55646393436912 ], [ -7.535888671875, 37.55536530155662 ], [ -7.524267578124977, 37.555926824994117 ], [ -7.51904296875, 37.54218170780662 ], [ -7.518261718749983, 37.53546784061912 ], [ -7.51611328125, 37.52960846561912 ], [ -7.506933593749977, 37.51837799686912 ], [ -7.499267578125, 37.51190827030662 ], [ -7.482031249999977, 37.500604559369116 ], [ -7.4765625, 37.49445221561912 ], [ -7.469482421875, 37.47577545780662 ], [ -7.463525390624994, 37.45136139530662 ], [ -7.460693359375, 37.42938873905662 ], [ -7.462890625, 37.41815827030662 ], [ -7.445605468749989, 37.38703034061912 ], [ -7.438085937499977, 37.30756256718162 ], [ -7.428076171874977, 37.27472565311912 ], [ -7.434863281249989, 37.259540106244117 ], [ -7.429980468749989, 37.236932684369116 ], [ -7.414404296874977, 37.19281647343162 ] ] ] } },
{ "type": "Feature", "properties": { "dissolve": "562River", "scalerank": 7, "featurecla": "River", "name": "Zncara", "name_alt": null, "rivernum": 562, "note": null, "min_zoom": 6.0, "name_en": "Záncara", "min_label": 7.0, "ne_id": 1159122689, "label": "Zncara", "wikidataid": "Q16699", "name_ar": "زنكارا", "name_bn": "জঙ্কারা", "name_de": "Záncara", "name_es": "Záncara", "name_fr": "Záncara", "name_el": "Ζνκάρα", "name_hi": "ज़्नकारा", "name_hu": "Zncara", "name_id": "Zncara", "name_it": "Zncara", "name_ja": "ズンキャラ川", "name_ko": "즈카라", "name_nl": "Záncara", "name_pl": "Zncara", "name_pt": "Zncara", "name_ru": "Санкара", "name_sv": "Zncara", "name_tr": "Zncara", "name_vi": "Sông Zncara", "name_zh": "兹卡拉河", "name_fa": "زنکارا", "name_he": "זנקרה", "name_uk": "Цнкара", "name_ur": "زنکارا", "name_zht": "茲卡拉河" }, "geometry": { "type": "LineString", "coordinates": [ [ -2.3857421875, 40.040057684369117 ], [ -2.426562499999989, 40.032098699994116 ], [ -2.462597656249983, 40.015887762494117 ], [ -2.488378906249977, 39.975604559369117 ], [ -2.502294921874977, 39.96198151249412 ], [ -2.513232421874989, 39.923358465619117 ], [ -2.526025390624994, 39.91364166874412 ], [ -2.541918945312489, 39.90778229374412 ], [ -2.556396484375, 39.89899323124412 ], [ -2.564794921874977, 39.885760809369117 ], [ -2.568530273437489, 39.86933014530662 ], [ -2.569384765624989, 39.827655340619117 ], [ -2.577099609374983, 39.816913153119117 ], [ -2.613085937499989, 39.78388092655662 ], [ -2.624609374999977, 39.769305731244117 ], [ -2.628271484374977, 39.752215887494117 ], [ -2.620410156249989, 39.72028229374412 ], [ -2.617773437499977, 39.69733307499412 ], [ -2.610449218749977, 39.683856512494117 ], [ -2.575439453125, 39.657831121869116 ], [ -2.563159179687489, 39.64581940311912 ], [ -2.556445312499989, 39.608758856244116 ], [ -2.577490234374977, 39.54303619999412 ], [ -2.566259765624977, 39.51203034061912 ], [ -2.5654296875, 39.50018952030662 ], [ -2.580517578124983, 39.46356842655662 ], [ -2.583593749999977, 39.447137762494116 ], [ -2.578662109374989, 39.42890045780662 ], [ -2.571923828124994, 39.411981512494116 ], [ -2.569384765624989, 39.39374420780662 ], [ -2.576855468749983, 39.371454168744116 ], [ -2.605761718749989, 39.35419342655662 ], [ -2.634619140624977, 39.341327215619117 ], [ -2.66796875, 39.333270574994117 ], [ -2.749316406249989, 39.32977936405662 ], [ -2.767675781249977, 39.332635809369116 ], [ -2.78173828125, 39.34747955936912 ], [ -2.823828124999977, 39.37885162968162 ], [ -2.851611328124989, 39.36090729374412 ], [ -2.896728515625, 39.35504791874412 ], [ -3.030175781249994, 39.35382721561912 ], [ -3.12548828125, 39.32367584843162 ], [ -3.164599609374989, 39.31659577030662 ] ] } },
{ "type": "Feature", "properties": { "dissolve": "304River", "scalerank": 6, "featurecla": "River", "name": "Duero", "name_alt": null, "rivernum": 304, "note": null, "min_zoom": 5.0, "name_en": "Douro", "min_label": 6.0, "ne_id": 1159116751, "label": "Duero", "wikidataid": "Q14299", "name_ar": "دورو", "name_bn": "দোরু নদী", "name_de": "Douro", "name_es": "Duero", "name_fr": "Douro", "name_el": "Δούρος", "name_hi": "दयोरो", "name_hu": "Duero", "name_id": "Duero", "name_it": "Duero", "name_ja": "ドウロ川", "name_ko": "도루강", "name_nl": "Douro", "name_pl": "Duero", "name_pt": "Douro", "name_ru": "Дуэро", "name_sv": "Duero", "name_tr": "Douro", "name_vi": "Douro", "name_zh": "杜罗河", "name_fa": "دورو", "name_he": "דורו", "name_uk": "Дору", "name_ur": "ڈویرو", "name_zht": "斗羅河" }, "geometry": { "type": "MultiLineString", "coordinates": [ [ [ -2.945117187499989, 41.97540924686912 ], [ -2.926367187499977, 41.952411199994117 ], [ -2.871337890625, 41.94537994999412 ], [ -2.8375, 41.93805573124412 ], [ -2.824902343749983, 41.91950104374412 ], [ -2.790820312499989, 41.904071356244117 ], [ -2.775439453124989, 41.900751043744116 ], [ -2.751953125, 41.90314362186912 ], [ -2.735644531249989, 41.90827057499412 ], [ -2.721972656249989, 41.90778229374412 ], [ -2.70654296875, 41.893329168744117 ], [ -2.677734375, 41.88849518436912 ], [ -2.632666015624977, 41.88739655155662 ], [ -2.595556640624977, 41.88239166874412 ], [ -2.591113281249989, 41.865985418744117 ], [ -2.572021484375, 41.86017487186912 ], [ -2.527441406249977, 41.851922918744116 ], [ -2.507910156249977, 41.84552643436912 ], [ -2.498632812499977, 41.838739324994116 ], [ -2.485449218749977, 41.822870184369116 ], [ -2.480566406249977, 41.81879303593162 ], [ -2.467822265624989, 41.819110418744117 ], [ -2.454199218749977, 41.823016668744117 ], [ -2.443408203124989, 41.82391998905662 ], [ -2.439062499999977, 41.815057684369116 ], [ -2.448168945312489, 41.77789948124412 ], [ -2.450366210937489, 41.75348541874412 ], [ -2.442724609374977, 41.74249909061912 ], [ -2.44775390625, 41.73334381718162 ], [ -2.445898437499977, 41.71539948124412 ], [ -2.434814453125, 41.70258209843162 ], [ -2.412353515625, 41.70892975468162 ], [ -2.382421874999977, 41.68598053593162 ], [ -2.377539062499977, 41.684442449994116 ], [ -2.375781249999989, 41.67206452030662 ], [ -2.370507812499994, 41.66290924686912 ], [ -2.362158203124977, 41.657001043744117 ], [ -2.350878906249989, 41.653680731244116 ], [ -2.35888671875, 41.64203522343162 ], [ -2.363623046874977, 41.637079168744116 ], [ -2.371386718749989, 41.63263580936912 ], [ -2.36572265625, 41.63129303593162 ], [ -2.358154296875, 41.62763092655662 ], [ -2.350878906249989, 41.62641022343162 ], [ -2.355078124999977, 41.61005280155662 ], [ -2.357104492187489, 41.60529205936912 ], [ -2.369726562499977, 41.59943268436912 ], [ -2.415283203125, 41.58759186405662 ], [ -2.453320312499983, 41.58222077030662 ], [ -2.467871093749977, 41.572870184369116 ], [ -2.477636718749977, 41.557879949994117 ], [ -2.487402343749977, 41.53766510624412 ], [ -2.512451171875, 41.50739166874412 ], [ -2.54541015625, 41.49347565311912 ], [ -2.583666992187489, 41.491083074994116 ], [ -2.689379882812489, 41.502948309369117 ], [ -2.69970703125, 41.50629303593162 ], [ -2.711474609374989, 41.516864324994117 ], [ -2.738037109375, 41.51605866093162 ], [ -2.782885742187489, 41.50971100468162 ], [ -2.811621093749977, 41.53339264530662 ], [ -2.830908203124977, 41.53961823124412 ], [ -2.854248046875, 41.52704498905662 ], [ -2.869384765625, 41.51605866093162 ], [ -2.889257812499977, 41.50629303593162 ], [ -2.90966796875, 41.499042059369117 ], [ -2.926318359374989, 41.49542877811912 ], [ -2.969531249999989, 41.49750397343162 ], [ -2.991796874999977, 41.501239324994117 ], [ -3.001318359374977, 41.50629303593162 ], [ -3.004980468749977, 41.53180573124412 ], [ -3.014990234374977, 41.53961823124412 ], [ -3.030126953124977, 41.53693268436912 ], [ -3.068652343749989, 41.52435944218162 ], [ -3.0791015625, 41.52240631718162 ], [ -3.090747070312489, 41.52338287968162 ], [ -3.095751953124989, 41.52741119999412 ], [ -3.099462890624977, 41.53436920780662 ], [ -3.104833984374977, 41.54096100468162 ], [ -3.122656249999977, 41.546991278119116 ], [ -3.136962890625, 41.56110260624412 ], [ -3.148779296874977, 41.564325262494116 ], [ -3.160205078124989, 41.56549713749412 ], [ -3.167163085937489, 41.56867096561912 ], [ -3.18017578125, 41.57794830936912 ], [ -3.22998046875, 41.60175202030662 ], [ -3.244677734374989, 41.60529205936912 ], [ -3.308935546874977, 41.598260809369116 ], [ -3.330322265625, 41.59906647343162 ], [ -3.346044921874977, 41.60455963749412 ], [ -3.380224609374977, 41.62250397343162 ], [ -3.395800781249989, 41.62641022343162 ], [ -3.419238281249989, 41.62787506718162 ], [ -3.43798828125, 41.631854559369117 ], [ -3.492529296874977, 41.65363190311912 ], [ -3.508398437499977, 41.65729401249412 ], [ -3.524218749999989, 41.655389715619116 ], [ -3.542578124999977, 41.646258856244117 ], [ -3.559179687499977, 41.655780340619117 ], [ -3.576757812499977, 41.66229889530662 ], [ -3.595385742187489, 41.666131903119116 ], [ -3.65625, 41.667352606244116 ], [ -3.665820312499989, 41.670038153119116 ], [ -3.677099609374977, 41.68305084843162 ], [ -3.686621093749977, 41.68781159061912 ], [ -3.697998046875, 41.68842194218162 ], [ -3.70703125, 41.685907293744116 ], [ -3.714526367187489, 41.68268463749412 ], [ -3.721362304687489, 41.681024481244116 ], [ -3.747314453125, 41.686786199994117 ], [ -3.781835937499977, 41.68952057499412 ], [ -3.801074218749989, 41.69403717655662 ], [ -3.857324218749994, 41.71527741093162 ], [ -3.874853515624977, 41.71686432499412 ], [ -3.909765624999977, 41.71515534061912 ], [ -3.922949218749977, 41.71295807499412 ], [ -3.928271484374989, 41.707294012494117 ], [ -3.931079101562489, 41.699579168744116 ], [ -3.936767578125, 41.69122955936912 ], [ -4.014746093749977, 41.63043854374412 ], [ -4.032958984375, 41.62641022343162 ], [ -4.111181640624977, 41.63263580936912 ], [ -4.130468749999977, 41.64313385624412 ], [ -4.139086914062489, 41.646258856244117 ], [ -4.150976562499977, 41.648456121869117 ], [ -4.157568359374977, 41.64813873905662 ], [ -4.164501953124983, 41.646991278119117 ], [ -4.255786132812489, 41.65143463749412 ], [ -4.265869140625, 41.654169012494116 ], [ -4.280126953124977, 41.66254303593162 ], [ -4.289892578124977, 41.66510651249412 ], [ -4.302343749999977, 41.66461823124412 ], [ -4.42724609375, 41.64130280155662 ], [ -4.485449218749977, 41.64398834843162 ], [ -4.505957031249977, 41.64069244999412 ], [ -4.543994140624989, 41.62384674686912 ], [ -4.672045898437489, 41.58820221561912 ], [ -4.708251953125, 41.58258698124412 ], [ -4.730761718749989, 41.58234284061912 ], [ -4.793554687499977, 41.58942291874412 ], [ -4.820166015624977, 41.588153387494117 ], [ -4.834179687499983, 41.583270574994117 ], [ -4.859082031249983, 41.55524323124412 ], [ -4.888769531249977, 41.53461334843162 ], [ -4.925537109375, 41.52460358280662 ], [ -5.048193359374977, 41.515497137494116 ], [ -5.073291015624989, 41.50995514530662 ], [ -5.088427734374989, 41.50372955936912 ], [ -5.106127929687489, 41.49091217655662 ], [ -5.123291015625, 41.48456452030662 ], [ -5.166918945312489, 41.48016998905662 ], [ -5.189892578124983, 41.47443268436912 ], [ -5.221728515624989, 41.45612213749412 ], [ -5.238940429687489, 41.45221588749412 ], [ -5.2587890625, 41.44135162968162 ], [ -5.271240234375, 41.43732330936912 ], [ -5.276782226562489, 41.44257233280662 ], [ -5.281542968749989, 41.452997137494116 ], [ -5.292236328125, 41.461932684369117 ], [ -5.310888671874977, 41.47333405155662 ], [ -5.329833984375, 41.49310944218162 ], [ -5.338134765625, 41.49982330936912 ], [ -5.3984375, 41.53143952030662 ], [ -5.413916015624977, 41.54218170780662 ], [ -5.436206054687489, 41.53327057499412 ], [ -5.488037109375, 41.52252838749412 ], [ -5.539355468749989, 41.52033112186912 ], [ -5.552343749999977, 41.52313873905662 ], [ -5.557958984374977, 41.53168366093162 ], [ -5.5625, 41.541620184369116 ], [ -5.573486328125, 41.53986237186912 ], [ -5.598974609374977, 41.528583074994117 ], [ -5.612109374999989, 41.52814362186912 ], [ -5.647314453124977, 41.534784246869116 ], [ -5.741259765624989, 41.53107330936912 ], [ -5.783935546875, 41.521112371869116 ], [ -5.785253906249977, 41.52106354374412 ], [ -5.789501953124983, 41.51996491093162 ], [ -5.796191406249989, 41.516229559369116 ], [ -5.805419921875, 41.508417059369116 ], [ -5.822363281249977, 41.48627350468162 ], [ -5.830175781249977, 41.483172918744117 ], [ -5.83935546875, 41.49335358280662 ], [ -5.847998046874977, 41.508417059369116 ], [ -5.854345703124977, 41.516620184369117 ], [ -5.85986328125, 41.51911041874412 ], [ -5.86572265625, 41.517206121869116 ], [ -5.871826171875, 41.51154205936912 ], [ -5.877124023437489, 41.502948309369117 ], [ -5.885791015624989, 41.48212311405662 ], [ -5.891162109374989, 41.46320221561912 ], [ -5.897143554687489, 41.458368231244116 ], [ -6.011474609375, 41.475360418744117 ], [ -6.01806640625, 41.47785065311912 ], [ -6.026464843749977, 41.485858465619117 ], [ -6.037109375, 41.494012762494116 ], [ -6.0556640625, 41.50031159061912 ], [ -6.105273437499989, 41.55621979374412 ], [ -6.160083007812489, 41.594598699994116 ], [ -6.173999023437489, 41.596307684369116 ], [ -6.192236328124977, 41.586297918744116 ], [ -6.254321289062489, 41.517694403119116 ], [ -6.280126953124977, 41.497186590619116 ], [ -6.286474609374977, 41.487079168744117 ], [ -6.285839843749983, 41.47919342655662 ], [ -6.283129882812489, 41.47247955936912 ], [ -6.283544921874977, 41.46588776249412 ], [ -6.321630859374977, 41.419794012494116 ], [ -6.321704101562489, 41.411249090619116 ], [ -6.352978515624983, 41.40949127811912 ], [ -6.366943359375, 41.40546295780662 ], [ -6.379736328124977, 41.397577215619116 ], [ -6.376806640624977, 41.397088934369116 ], [ -6.376147460937489, 41.390985418744116 ], [ -6.377368164062489, 41.38324616093162 ], [ -6.379736328124977, 41.37775299686912 ], [ -6.383837890624989, 41.37677643436912 ], [ -6.396093749999977, 41.378680731244117 ], [ -6.400244140624977, 41.37775299686912 ], [ -6.431567382812489, 41.339227606244116 ], [ -6.463818359374983, 41.314325262494116 ], [ -6.496435546874977, 41.295184637494117 ], [ -6.555029296874977, 41.275897528119117 ], [ -6.564160156249983, 41.27094147343162 ], [ -6.629565429687489, 41.27020905155662 ], [ -6.647314453124977, 41.26788971561912 ], [ -6.658862304687489, 41.258075262494117 ], [ -6.694384765624989, 41.217645574994116 ], [ -6.701904296875, 41.20270416874412 ], [ -6.707568359374989, 41.19452545780662 ], [ -6.742919921875, 41.17169830936912 ], [ -6.755859375, 41.15900299686912 ], [ -6.759619140624977, 41.15204498905662 ], [ -6.757128906249989, 41.12726471561912 ], [ -6.765429687499989, 41.109149481244117 ], [ -6.804980468749989, 41.06464264530662 ], [ -6.818603515625, 41.054315496869116 ], [ -6.845947265625, 41.052118231244116 ], [ -6.907470703125, 41.05634186405662 ], [ -6.928466796875, 41.04816315311912 ], [ -6.944677734374977, 41.051044012494117 ], [ -6.9873046875, 41.052606512494116 ], [ -7.075488281249989, 41.08661530155662 ], [ -7.086279296874977, 41.097186590619117 ], [ -7.094091796874977, 41.11078522343162 ], [ -7.09912109375, 41.12384674686912 ], [ -7.097900390625, 41.132831121869117 ], [ -7.093603515624977, 41.14191315311912 ], [ -7.092871093749977, 41.14899323124412 ], [ -7.1025390625, 41.15180084843162 ], [ -7.109667968749989, 41.15302155155662 ], [ -7.1162109375, 41.15607330936912 ], [ -7.121923828124977, 41.16010162968162 ], [ -7.12646484375, 41.164178778119116 ], [ -7.121875, 41.17084381718162 ], [ -7.11279296875, 41.192157293744117 ], [ -7.122900390624977, 41.188348699994116 ], [ -7.161230468749977, 41.16791412968162 ], [ -7.170263671874977, 41.15753815311912 ], [ -7.190527343749977, 41.15717194218162 ], [ -7.22265625, 41.164178778119116 ], [ -7.326416015625, 41.15766022343162 ], [ -7.35986328125, 41.16596100468162 ], [ -7.372485351562489, 41.17450592655662 ], [ -7.40234375, 41.207391668744116 ], [ -7.417578124999977, 41.21564362186912 ], [ -7.432470703124977, 41.21588776249412 ], [ -7.55029296875, 41.18268463749412 ], [ -7.596923828125, 41.177752996869117 ], [ -7.638964843749989, 41.18121979374412 ] ], [ [ -8.647900390624983, 41.14911530155662 ], [ -8.565844726562489, 41.14350006718162 ], [ -8.558300781249983, 41.134393621869116 ], [ -8.525, 41.11640045780662 ], [ -8.517431640624977, 41.101922918744116 ], [ -8.50927734375, 41.09076569218162 ], [ -8.439208984375, 41.063251043744117 ], [ -8.429296874999977, 41.06207916874412 ], [ -8.422705078124977, 41.06879303593162 ], [ -8.4150390625, 41.08515045780662 ], [ -8.408203125, 41.08515045780662 ], [ -8.392822265625, 41.06622955936912 ], [ -8.369970703124977, 41.065692449994117 ], [ -8.344921874999983, 41.07294342655662 ], [ -8.299853515624989, 41.08038971561912 ], [ -8.223242187499977, 41.103387762494116 ], [ -8.190380859374983, 41.10907623905662 ], [ -8.090673828124977, 41.10370514530662 ], [ -8.062255859375, 41.10578034061912 ], [ -7.940283203124977, 41.13788483280662 ], [ -7.843505859375, 41.18439362186912 ], [ -7.823583984374977, 41.18634674686912 ], [ -7.809912109374977, 41.181756903119116 ], [ -7.786669921874989, 41.16412994999412 ], [ -7.774169921875, 41.15704987186912 ], [ -7.757177734374977, 41.15314362186912 ], [ -7.738037109375, 41.15253327030662 ], [ -7.719042968749989, 41.15473053593162 ], [ -7.702246093749977, 41.159295965619116 ], [ -7.673437499999977, 41.17426178593162 ], [ -7.658740234374989, 41.180047918744116 ], [ -7.641528320312489, 41.18121979374412 ], [ -7.651220703124977, 41.18121979374412 ] ] ] } },
{ "type": "Feature", "properties": { "dissolve": "155River", "scalerank": 5, "featurecla": "River", "name": "Ebro", "name_alt": null, "rivernum": 155, "note": null, "min_zoom": 4.7, "name_en": "Ebro", "min_label": 5.7, "ne_id": 1159112595, "label": "Ebro", "wikidataid": "Q10965", "name_ar": "أبرة", "name_bn": "এব্রো", "name_de": "Ebro", "name_es": "Ebro", "name_fr": "Èbre", "name_el": "Έβρος", "name_hi": "एब्रो", "name_hu": "Ebro", "name_id": "Ebro", "name_it": "Ebro", "name_ja": "エブロ川", "name_ko": "에브로강", "name_nl": "Ebro", "name_pl": "Ebro", "name_pt": "Ebro", "name_ru": "Эбро", "name_sv": "Ebro", "name_tr": "Ebro", "name_vi": "Ebro", "name_zh": "厄波羅河", "name_fa": "ایبرو", "name_he": "אברו", "name_uk": "Ебро", "name_ur": "ایبرو", "name_zht": "厄波羅河" }, "geometry": { "type": "LineString", "coordinates": [ [ -4.309277343749983, 43.016864324994117 ], [ -4.2763671875, 43.01837799686912 ], [ -4.250048828124989, 43.025018621869116 ], [ -4.227636718749977, 43.026874090619117 ], [ -4.211767578124977, 43.022479559369117 ], [ -4.188818359374977, 43.01117584843162 ], [ -4.176318359374989, 43.008563543744117 ], [ -4.162207031249977, 43.008417059369116 ], [ -4.135498046875, 43.01227448124412 ], [ -4.130175781249989, 43.01239655155662 ], [ -4.118261718749977, 43.01032135624412 ], [ -4.099951171874977, 43.009149481244116 ], [ -4.086035156249977, 43.005145574994117 ], [ -4.073339843749977, 42.99823639530662 ], [ -4.064453125, 42.988885809369116 ], [ -4.058886718749989, 42.97443268436912 ], [ -4.056079101562489, 42.969989324994117 ], [ -4.0439453125, 42.95819733280662 ], [ -4.040332031249989, 42.95392487186912 ], [ -4.037402343749989, 42.94721100468162 ], [ -4.036669921874989, 42.94013092655662 ], [ -4.048583984375, 42.88190338749412 ], [ -4.049707031249994, 42.86713287968162 ], [ -4.045263671874977, 42.84271881718162 ], [ -4.034033203124977, 42.83405182499412 ], [ -4.017919921874977, 42.82904694218162 ], [ -3.998828124999989, 42.815301824994116 ], [ -3.983740234374977, 42.81293366093162 ], [ -3.962597656249983, 42.82135651249412 ], [ -3.932958984374977, 42.839227606244116 ], [ -3.897900390624983, 42.84967682499412 ], [ -3.854248046875, 42.854120184369116 ], [ -3.810595703124989, 42.851092840619117 ], [ -3.775390625, 42.839227606244116 ], [ -3.744433593749989, 42.81232330936912 ], [ -3.72509765625, 42.80499909061912 ], [ -3.703662109374989, 42.815301824994116 ], [ -3.7001953125, 42.82465241093162 ], [ -3.701025390624977, 42.83722565311912 ], [ -3.705004882812489, 42.84821198124412 ], [ -3.710791015624977, 42.85285065311912 ], [ -3.717626953124977, 42.857049871869116 ], [ -3.7099609375, 42.86579010624412 ], [ -3.698291015624989, 42.873163153119116 ], [ -3.693457031249977, 42.87335846561912 ], [ -3.689746093749989, 42.891229559369116 ], [ -3.691015624999977, 42.900897528119117 ], [ -3.6884765625, 42.90704987186912 ], [ -3.673583984375, 42.914325262494117 ], [ -3.66162109375, 42.915545965619117 ], [ -3.599853515625, 42.906756903119117 ], [ -3.587890625, 42.90192291874412 ], [ -3.580126953124989, 42.89240143436912 ], [ -3.577392578125, 42.877069403119116 ], [ -3.57080078125, 42.86383698124412 ], [ -3.555102539062489, 42.85516998905662 ], [ -3.522143554687489, 42.845477606244117 ], [ -3.488720703124983, 42.829217840619116 ], [ -3.453857421875, 42.79828522343162 ], [ -3.427587890624977, 42.794061590619116 ], [ -3.333740234375, 42.804461981244117 ], [ -3.316650390625, 42.80194733280662 ], [ -3.29052734375, 42.79181549686912 ], [ -3.275732421874977, 42.79083893436912 ], [ -3.254492187499977, 42.79315827030662 ], [ -3.239843749999977, 42.79315827030662 ], [ -3.226123046874989, 42.79022858280662 ], [ -3.207446289062489, 42.78400299686912 ], [ -3.185302734375, 42.78876373905662 ], [ -3.119726562499977, 42.76862213749412 ], [ -3.094165039062489, 42.77435944218162 ], [ -3.063647460937489, 42.78522369999412 ], [ -3.031591796874977, 42.77265045780662 ], [ -3.00341796875, 42.75311920780662 ], [ -2.984277343749994, 42.74298737186912 ], [ -2.968847656249977, 42.73761627811912 ], [ -2.943530273437489, 42.714227606244116 ], [ -2.918066406249977, 42.705682684369116 ], [ -2.852636718749977, 42.665301824994117 ], [ -2.841894531249977, 42.65570709843162 ], [ -2.8375, 42.64398834843162 ], [ -2.837695312499989, 42.63434479374412 ], [ -2.836181640625, 42.62140534061912 ], [ -2.830126953124989, 42.61371491093162 ], [ -2.81640625, 42.620135809369117 ], [ -2.812841796874977, 42.610956121869116 ], [ -2.81494140625, 42.60578034061912 ], [ -2.826953124999989, 42.59589264530662 ], [ -2.827001953124977, 42.590106512494117 ], [ -2.8212890625, 42.58417389530662 ], [ -2.813159179687489, 42.580682684369116 ], [ -2.80615234375, 42.582294012494117 ], [ -2.793701171875, 42.58685944218162 ], [ -2.761645507812489, 42.583758856244117 ], [ -2.748144531249977, 42.58539459843162 ], [ -2.750146484374994, 42.58100006718162 ], [ -2.754931640624989, 42.56549713749412 ], [ -2.72021484375, 42.56549713749412 ], [ -2.72021484375, 42.55805084843162 ], [ -2.725830078125, 42.54987213749412 ], [ -2.720654296874983, 42.54340241093162 ], [ -2.709228515625, 42.53912994999412 ], [ -2.6962890625, 42.53754303593162 ], [ -2.684863281249989, 42.53766510624412 ], [ -2.676928710937489, 42.53681061405662 ], [ -2.667626953124994, 42.53302643436912 ], [ -2.632226562499994, 42.512469793744117 ], [ -2.618017578124977, 42.50763580936912 ], [ -2.611572265625, 42.513690496869117 ], [ -2.606298828124977, 42.51679108280662 ], [ -2.59521484375, 42.51740143436912 ], [ -2.585302734374977, 42.51190827030662 ], [ -2.583593749999977, 42.496600653119117 ], [ -2.571533203125, 42.505487371869116 ], [ -2.557910156249989, 42.510760809369117 ], [ -2.541845703124977, 42.51227448124412 ], [ -2.522216796875, 42.510272528119117 ], [ -2.524340820312489, 42.51312897343162 ], [ -2.525488281249977, 42.51422760624412 ], [ -2.526708984374977, 42.515008856244116 ], [ -2.529052734375, 42.517108465619117 ], [ -2.524218749999989, 42.52496979374412 ], [ -2.518164062499977, 42.53095123905662 ], [ -2.510791015624989, 42.53510162968162 ], [ -2.501708984375, 42.53754303593162 ], [ -2.491796874999977, 42.51996491093162 ], [ -2.462207031249989, 42.50714752811912 ], [ -2.427294921874989, 42.499286199994117 ], [ -2.384619140624977, 42.49457428593162 ], [ -2.343457031249983, 42.482928778119117 ], [ -2.278564453125, 42.48981354374412 ], [ -2.26806640625, 42.486835028119117 ], [ -2.238867187499977, 42.47186920780662 ], [ -2.23046875, 42.465594793744117 ], [ -2.218457031249983, 42.45331452030662 ], [ -2.206152343749977, 42.44635651249412 ], [ -2.191601562499983, 42.44281647343162 ], [ -2.172119140625, 42.44135162968162 ], [ -2.105126953124994, 42.445086981244117 ], [ -2.076708984374989, 42.44245026249412 ], [ -2.055419921875, 42.42829010624412 ], [ -2.060351562499989, 42.423456121869116 ], [ -2.064990234374989, 42.417254949994117 ], [ -2.069677734374977, 42.414667059369116 ], [ -2.055761718749977, 42.39899323124412 ], [ -2.032568359374977, 42.39288971561912 ], [ -1.976904296874977, 42.392938543744116 ], [ -1.901464843749977, 42.32526276249412 ], [ -1.863623046874977, 42.304803778119116 ], [ -1.861572265625, 42.299335028119117 ], [ -1.862353515624989, 42.291864324994116 ], [ -1.862109374999989, 42.284051824994116 ], [ -1.857421875, 42.27753327030662 ], [ -1.851416015624977, 42.27606842655662 ], [ -1.835986328124989, 42.278094793744117 ], [ -1.829443359374977, 42.27753327030662 ], [ -1.820166015624977, 42.27277252811912 ], [ -1.795996093749977, 42.25641510624412 ], [ -1.747607421874989, 42.23590729374412 ], [ -1.727148437499977, 42.23139069218162 ], [ -1.691748046874977, 42.21283600468162 ], [ -1.66875, 42.208612371869116 ], [ -1.6552734375, 42.203876043744117 ], [ -1.585058593749977, 42.15265534061912 ], [ -1.579931640624977, 42.141717840619116 ], [ -1.583105468749977, 42.102167059369116 ], [ -1.578222656249977, 42.08893463749412 ], [ -1.566650390625, 42.07684967655662 ], [ -1.542163085937489, 42.05780670780662 ], [ -1.512792968749977, 42.039667059369116 ], [ -1.439990234374989, 42.012811590619116 ], [ -1.411181640624989, 41.996356512494117 ], [ -1.291064453124989, 41.89240143436912 ], [ -1.253613281249983, 41.87470123905662 ], [ -1.250732421875, 41.872821356244117 ], [ -1.244580078124983, 41.87091705936912 ], [ -1.229101562499977, 41.86078522343162 ], [ -1.210546874999977, 41.844501043744117 ], [ -1.192675781249989, 41.83808014530662 ], [ -1.183349609375, 41.836444403119117 ], [ -1.163037109374983, 41.835565496869116 ], [ -1.151708984374977, 41.83185455936912 ], [ -1.14501953125, 41.82465241093162 ], [ -1.142333984375, 41.815545965619116 ], [ -1.138232421874989, 41.80780670780662 ], [ -1.127197265625, 41.80451080936912 ], [ -1.086279296874977, 41.80451080936912 ], [ -1.08251953125, 41.80243561405662 ], [ -1.0830078125, 41.79303619999412 ], [ -1.0791015625, 41.790887762494116 ], [ -1.073535156249989, 41.792254949994117 ], [ -1.066015624999977, 41.79730866093162 ], [ -1.062353515624977, 41.79706452030662 ], [ -1.004980468749977, 41.75592682499412 ], [ -0.990332031249977, 41.749872137494116 ], [ -0.971777343749977, 41.74579498905662 ], [ -0.954687499999977, 41.73554108280662 ], [ -0.925146484374977, 41.70892975468162 ], [ -0.921142578125, 41.70709869999412 ], [ -0.908203125, 41.70331452030662 ], [ -0.904736328124983, 41.70148346561912 ], [ -0.903759765624983, 41.697040106244117 ], [ -0.904541015625, 41.69098541874412 ], [ -0.907177734374983, 41.686786199994117 ], [ -0.911474609374977, 41.68781159061912 ], [ -0.909716796874989, 41.68512604374412 ], [ -0.906420898437489, 41.67706940311912 ], [ -0.904736328124983, 41.674188543744116 ], [ -0.899755859374977, 41.67255280155662 ], [ -0.886181640624983, 41.673456121869116 ], [ -0.880468749999977, 41.670770574994116 ], [ -0.8720703125, 41.66474030155662 ], [ -0.861865234374989, 41.66168854374412 ], [ -0.839453124999977, 41.660516668744116 ], [ -0.834326171874977, 41.65680573124412 ], [ -0.815283203124977, 41.63263580936912 ], [ -0.795996093749977, 41.618670965619117 ], [ -0.7265625, 41.58539459843162 ], [ -0.637792968749977, 41.56122467655662 ], [ -0.624316406249989, 41.561053778119117 ], [ -0.567480468749977, 41.53119537968162 ], [ -0.558349609375, 41.52338287968162 ], [ -0.547460937499977, 41.51691315311912 ], [ -0.531201171874983, 41.488788153119117 ], [ -0.51708984375, 41.48236725468162 ], [ -0.500292968749989, 41.48053619999412 ], [ -0.489062499999989, 41.47455475468162 ], [ -0.486083984375, 41.46393463749412 ], [ -0.49375, 41.448260809369117 ], [ -0.4794921875, 41.449725653119117 ], [ -0.468505859375, 41.448846746869116 ], [ -0.461474609374989, 41.443377996869117 ], [ -0.459033203124989, 41.43121979374412 ], [ -0.458349609374977, 41.41449616093162 ], [ -0.455908203124977, 41.40534088749412 ], [ -0.441943359374989, 41.38996002811912 ], [ -0.419531249999977, 41.37238190311912 ], [ -0.413818359375, 41.365985418744117 ], [ -0.410937499999989, 41.35455963749412 ], [ -0.411718749999977, 41.34223053593162 ], [ -0.410888671875, 41.330829168744117 ], [ -0.403076171875, 41.322040106244117 ], [ -0.394140624999977, 41.32001373905662 ], [ -0.361914062499977, 41.322381903119116 ], [ -0.322363281249977, 41.318231512494116 ], [ -0.28564453125, 41.320917059369116 ], [ -0.273535156249977, 41.31976959843162 ], [ -0.243408203125, 41.311639715619116 ], [ -0.134033203125, 41.30121491093162 ], [ -0.058056640624983, 41.277606512494117 ], [ -0.030322265624989, 41.276385809369117 ], [ -0.003759765624977, 41.27057526249412 ], [ 0.0048828125, 41.27155182499412 ], [ 0.01171875, 41.27789948124412 ], [ 0.013330078125023, 41.28534577030662 ], [ 0.010058593750017, 41.300799871869117 ], [ 0.010546875000017, 41.308124090619117 ], [ 0.015039062500023, 41.316278387494116 ], [ 0.020166015625023, 41.31842682499412 ], [ 0.026269531250023, 41.31647369999412 ], [ 0.041162109375023, 41.30805084843162 ], [ 0.047900390625017, 41.30585358280662 ], [ 0.055273437500006, 41.30670807499412 ], [ 0.0640625, 41.31146881718162 ], [ 0.069531250000011, 41.316669012494117 ], [ 0.078369140625, 41.32855866093162 ], [ 0.082910156250023, 41.33331940311912 ], [ 0.091064453125, 41.33734772343162 ], [ 0.099316406250011, 41.338153387494117 ], [ 0.107861328125011, 41.33795807499412 ], [ 0.116845703125023, 41.33869049686912 ], [ 0.1279296875, 41.34747955936912 ], [ 0.13037109375, 41.36347077030662 ], [ 0.130517578125023, 41.38190338749412 ], [ 0.134765625, 41.398065496869116 ], [ 0.146484375, 41.409442449994117 ], [ 0.161376953125, 41.41449616093162 ], [ 0.228662109375023, 41.41437409061912 ], [ 0.244531250000023, 41.411639715619117 ], [ 0.2607421875, 41.403924871869116 ], [ 0.2880859375, 41.382098699994117 ], [ 0.297998046875023, 41.376092840619116 ], [ 0.30712890625, 41.37299225468162 ], [ 0.3349609375, 41.36884186405662 ], [ 0.3515625, 41.362420965619116 ], [ 0.364892578125023, 41.35248444218162 ], [ 0.373779296875, 41.33881256718162 ], [ 0.377099609375023, 41.32135651249412 ], [ 0.352197265625023, 41.27912018436912 ], [ 0.35400390625, 41.25617096561912 ], [ 0.39501953125, 41.25433991093162 ], [ 0.405517578125, 41.256219793744116 ], [ 0.4169921875, 41.255633856244117 ], [ 0.44873046875, 41.250262762494117 ], [ 0.4560546875, 41.251483465619117 ], [ 0.471826171875023, 41.25897858280662 ], [ 0.482324218750023, 41.262323309369116 ], [ 0.49267578125, 41.26300690311912 ], [ 0.5029296875, 41.261102606244116 ], [ 0.512939453125, 41.25690338749412 ], [ 0.52685546875, 41.253045965619116 ], [ 0.557031250000023, 41.25177643436912 ], [ 0.56884765625, 41.247088934369117 ], [ 0.574609375000023, 41.238299871869117 ], [ 0.576416015625, 41.227069403119117 ], [ 0.57568359375, 41.20465729374412 ], [ 0.582275390625, 41.186297918744117 ], [ 0.598291015625023, 41.17841217655662 ], [ 0.6181640625, 41.174335028119117 ], [ 0.637109375000023, 41.167108465619116 ], [ 0.646240234375, 41.15558502811912 ], [ 0.652734375000023, 41.137225653119117 ], [ 0.656884765625023, 41.11579010624412 ], [ 0.658349609375023, 41.095086981244116 ], [ 0.656982421875, 41.07709381718162 ], [ 0.651757812500023, 41.065057684369116 ], [ 0.641259765625023, 41.055047918744116 ], [ 0.5185546875, 40.97992584843162 ], [ 0.5, 40.95477936405662 ], [ 0.50927734375, 40.92462799686912 ], [ 0.513427734375, 40.903192449994116 ], [ 0.510498046875, 40.89337799686912 ], [ 0.52685546875, 40.88385651249412 ], [ 0.530908203125023, 40.861688543744116 ], [ 0.527978515625023, 40.817010809369116 ], [ 0.534912109375, 40.79621002811912 ], [ 0.549951171875023, 40.771600653119116 ], [ 0.568359375, 40.751092840619116 ], [ 0.5859375, 40.74249909061912 ], [ 0.595849609375023, 40.739276434369117 ], [ 0.61572265625, 40.724872137494117 ], [ 0.630273437500023, 40.721454168744117 ], [ 0.68896484375, 40.728876043744116 ], [ 0.71923828125, 40.726336981244117 ], [ 0.794824218750023, 40.70783112186912 ], [ 0.82373046875, 40.70844147343162 ], [ 0.87158203125, 40.72443268436912 ], [ 0.897216796875, 40.72516510624412 ] ] } },
{ "type": "Feature", "properties": { "dissolve": "165Lake Centerline", "scalerank": 5, "featurecla": "Lake Centerline", "name": "Tajo", "name_alt": null, "rivernum": 165, "note": null, "min_zoom": 4.7, "name_en": "Tagus", "min_label": 5.7, "ne_id": 1159112911, "label": "Tajo", "wikidataid": "Q14294", "name_ar": "نهر تاجة", "name_bn": "তাজো", "name_de": "Tajo", "name_es": "Tajo", "name_fr": "Tage", "name_el": "Τάγος", "name_hi": "तैजो", "name_hu": "Tajo", "name_id": "Tagus", "name_it": "Tago", "name_ja": "タホ川", "name_ko": "타구스강", "name_nl": "Taag", "name_pl": "Tag", "name_pt": "Tejo", "name_ru": "Тахо", "name_sv": "Tajo", "name_tr": "Tejo", "name_vi": "Tagus", "name_zh": "塔霍河", "name_fa": "تاقوس", "name_he": "טחו", "name_uk": "Тахо", "name_ur": "تاجو", "name_zht": "太加斯河" }, "geometry": { "type": "MultiLineString", "coordinates": [ [ [ -2.733642578125, 40.52826569218162 ], [ -2.732714843749989, 40.52838776249412 ], [ -2.721484374999989, 40.536737371869116 ], [ -2.707324218749989, 40.551874090619116 ], [ -2.704760742187489, 40.56574127811912 ], [ -2.7099609375, 40.584491278119117 ], [ -2.70947265625, 40.60138580936912 ], [ -2.679980468749989, 40.634149481244116 ], [ -2.669531249999977, 40.64704010624412 ], [ -2.662768554687489, 40.65973541874412 ], [ -2.65, 40.67438385624412 ], [ -2.61875, 40.70172760624412 ], [ -2.591894531249977, 40.718377996869116 ], [ -2.576855468749983, 40.724383856244117 ] ], [ [ -5.99560546875, 39.85187409061912 ], [ -5.9404296875, 39.83698151249412 ], [ -5.900732421874977, 39.819598699994117 ], [ -5.82470703125, 39.797235418744116 ], [ -5.802587890624977, 39.792254949994117 ], [ -5.730639648437489, 39.798456121869116 ], [ -5.663623046874989, 39.791034246869117 ], [ -5.6279296875, 39.79535553593162 ], [ -5.597827148437489, 39.80341217655662 ], [ -5.572509765625, 39.814471746869117 ], [ -5.54443359375, 39.828241278119116 ], [ -5.505664062499989, 39.83307526249412 ], [ -5.465039062499983, 39.83319733280662 ], [ -5.433935546874977, 39.835711981244117 ], [ -5.391748046874994, 39.834491278119117 ], [ -5.360595703125, 39.82440827030662 ], [ -5.343359374999977, 39.80963776249412 ], [ -5.309375, 39.79755280155662 ], [ -5.276318359374983, 39.791034246869117 ], [ -5.25537109375, 39.79352448124412 ], [ -5.239062499999989, 39.80341217655662 ], [ -5.224218749999977, 39.81012604374412 ], [ -5.216723632812489, 39.812127996869116 ], [ -5.214892578124989, 39.81232330936912 ] ] ] } },
{ "type": "Feature", "properties": { "dissolve": "165River", "scalerank": 5, "featurecla": "River", "name": "Tajo", "name_alt": null, "rivernum": 165, "note": "Version 1.2 edit in N. America and Europe", "min_zoom": 4.7, "name_en": "Tagus", "min_label": 5.7, "ne_id": 1159112927, "label": "Tajo", "wikidataid": "Q14294", "name_ar": "نهر تاجة", "name_bn": "তাজো", "name_de": "Tajo", "name_es": "Tajo", "name_fr": "Tage", "name_el": "Τάγος", "name_hi": "तैजो", "name_hu": "Tajo", "name_id": "Tagus", "name_it": "Tago", "name_ja": "タホ川", "name_ko": "타구스강", "name_nl": "Taag", "name_pl": "Tag", "name_pt": "Tejo", "name_ru": "Тахо", "name_sv": "Tajo", "name_tr": "Tejo", "name_vi": "Tagus", "name_zh": "塔霍河", "name_fa": "تاقوس", "name_he": "טחו", "name_uk": "Тахо", "name_ur": "تاجو", "name_zht": "太加斯河" }, "geometry": { "type": "MultiLineString", "coordinates": [ [ [ -1.66015625, 40.55573151249412 ], [ -1.642187499999977, 40.56659577030662 ], [ -1.6357421875, 40.587518621869116 ], [ -1.634375, 40.61359284061912 ], [ -1.628857421874983, 40.636835028119116 ], [ -1.629003906249977, 40.660028387494116 ], [ -1.6416015625, 40.686151434369116 ], [ -1.658447265625, 40.713495184369116 ], [ -1.669140624999983, 40.73969147343162 ], [ -1.683203124999977, 40.76264069218162 ], [ -1.708349609374977, 40.782098699994116 ], [ -1.742285156249977, 40.79474518436912 ], [ -1.813720703125, 40.806512762494116 ], [ -1.848730468749977, 40.816522528119116 ], [ -1.875292968749989, 40.83026764530662 ], [ -1.890625, 40.844598699994116 ], [ -1.899340820312489, 40.85578034061912 ], [ -1.909765624999977, 40.861590887494117 ], [ -1.924560546875, 40.859393621869117 ], [ -1.965917968749977, 40.840448309369116 ], [ -1.988208007812489, 40.83295319218162 ], [ -2.045996093749977, 40.826044012494116 ], [ -2.1005859375, 40.827655340619117 ], [ -2.119482421874977, 40.826190496869117 ], [ -2.173681640624977, 40.81098053593162 ], [ -2.242431640625, 40.81122467655662 ], [ -2.311279296875, 40.80499909061912 ], [ -2.327978515624977, 40.80158112186912 ], [ -2.340576171875, 40.79413483280662 ], [ -2.350439453124977, 40.78668854374412 ], [ -2.367285156249977, 40.77936432499412 ], [ -2.386474609375, 40.75995514530662 ], [ -2.396093749999977, 40.75250885624412 ], [ -2.404589843749989, 40.749530340619117 ], [ -2.420703124999989, 40.74811432499412 ], [ -2.429541015624977, 40.74628327030662 ], [ -2.4365234375, 40.74286530155662 ], [ -2.45068359375, 40.73261139530662 ], [ -2.485522460937489, 40.72943756718162 ], [ -2.546435546874989, 40.730975653119117 ], [ -2.576855468749983, 40.724383856244117 ] ], [ [ -5.216723632812489, 39.812127996869116 ], [ -5.14990234375, 39.81708405155662 ], [ -5.135424804687489, 39.81391022343162 ], [ -5.113720703124983, 39.799823309369117 ], [ -5.101806640625, 39.796649481244117 ], [ -5.047949218749977, 39.796161199994117 ], [ -5.022412109374983, 39.799920965619116 ], [ -5.002490234374989, 39.81024811405662 ], [ -4.950537109374977, 39.874872137494116 ], [ -4.937304687499989, 39.885370184369116 ], [ -4.926440429687489, 39.89032623905662 ], [ -4.873925781249994, 39.93060944218162 ], [ -4.852636718749977, 39.95453522343162 ], [ -4.844824218749977, 39.961053778119116 ], [ -4.82421875, 39.96735260624412 ], [ -4.802099609374977, 39.96918366093162 ], [ -4.766284179687489, 39.967889715619116 ], [ -4.755126953125, 39.970721746869117 ], [ -4.740283203124989, 39.98395416874412 ], [ -4.728125, 39.988397528119116 ], [ -4.724658203124989, 39.986102606244117 ], [ -4.643652343749977, 39.951044012494116 ], [ -4.629443359374989, 39.94745514530662 ], [ -4.614355468749977, 39.94537994999412 ], [ -4.574267578124989, 39.93366119999412 ], [ -4.50537109375, 39.900506903119116 ], [ -4.492236328124989, 39.88910553593162 ], [ -4.477783203125, 39.87225983280662 ], [ -4.466650390624977, 39.86383698124412 ], [ -4.451904296875, 39.860223699994116 ], [ -4.426513671875, 39.858026434369116 ], [ -4.392431640624977, 39.84772369999412 ], [ -4.359545898437489, 39.83222077030662 ], [ -4.327807617187489, 39.826434637494117 ], [ -4.29736328125, 39.84503815311912 ], [ -4.301684570312489, 39.846795965619116 ], [ -4.305908203125, 39.84992096561912 ], [ -4.310400390624977, 39.85187409061912 ], [ -4.310400390624977, 39.858026434369116 ], [ -4.289892578124977, 39.878534246869116 ], [ -4.27490234375, 39.867792059369116 ], [ -4.268164062499977, 39.861590887494117 ], [ -4.260351562499977, 39.86054108280662 ], [ -4.2080078125, 39.871698309369116 ], [ -4.200878906249983, 39.87702057499412 ], [ -4.188037109374989, 39.89020416874412 ], [ -4.183764648437489, 39.892840887494117 ], [ -4.103271484375, 39.89020416874412 ], [ -4.059741210937489, 39.88214752811912 ], [ -4.036669921874989, 39.86554596561912 ], [ -4.025488281249977, 39.87128327030662 ], [ -4.016894531249989, 39.87433502811912 ], [ -3.982104492187489, 39.88190338749412 ], [ -3.974218749999977, 39.885028387494117 ], [ -3.968359374999977, 39.888446356244117 ], [ -3.853125, 39.937762762494117 ], [ -3.790771484375, 39.952997137494116 ], [ -3.77880859375, 39.953631903119117 ], [ -3.773681640625, 39.95697662968162 ], [ -3.757519531249983, 39.971454168744117 ], [ -3.751757812499989, 39.974725653119116 ], [ -3.733251953124977, 39.97894928593162 ], [ -3.71728515625, 39.989374090619116 ], [ -3.670825195312489, 40.02741119999412 ], [ -3.657812499999977, 40.03339264530662 ], [ -3.542578124999977, 40.04987213749412 ], [ -3.406420898437489, 40.045526434369116 ], [ -3.371923828124977, 40.05731842655662 ], [ -3.353076171874989, 40.04596588749412 ], [ -3.342089843749989, 40.04450104374412 ], [ -3.32958984375, 40.047626043744117 ], [ -3.288427734374977, 40.05304596561912 ], [ -3.227880859374977, 40.077752996869116 ], [ -3.148779296874977, 40.098260809369116 ], [ -3.144140624999977, 40.10321686405662 ], [ -3.131689453124977, 40.13239166874412 ], [ -3.124853515624977, 40.13800690311912 ], [ -3.055615234374983, 40.17658112186912 ], [ -3.037109375, 40.19061920780662 ], [ -3.0224609375, 40.20941803593162 ], [ -3.01708984375, 40.21857330936912 ], [ -3.0048828125, 40.234979559369116 ], [ -2.997167968749977, 40.242450262494117 ], [ -2.965087890625, 40.264178778119117 ], [ -2.9560546875, 40.27301666874412 ], [ -2.951025390624977, 40.28168366093162 ], [ -2.943798828124983, 40.299188543744116 ], [ -2.937597656249977, 40.30731842655662 ], [ -2.928564453124977, 40.31329987186912 ], [ -2.917333984374977, 40.317401434369117 ], [ -2.9052734375, 40.31952545780662 ], [ -2.893969726562489, 40.320184637494116 ], [ -2.894384765624977, 40.34772369999412 ], [ -2.892382812499989, 40.355340887494116 ], [ -2.886279296874989, 40.36225006718162 ], [ -2.878076171874994, 40.36591217655662 ], [ -2.844824218749977, 40.37335846561912 ], [ -2.831298828125, 40.379022528119116 ], [ -2.820166015624977, 40.38837311405662 ], [ -2.811718749999983, 40.40314362186912 ], [ -2.809667968749977, 40.411004949994116 ], [ -2.804736328124989, 40.45563385624412 ], [ -2.802001953125, 40.463006903119116 ], [ -2.796679687499989, 40.47113678593162 ], [ -2.782958984375, 40.48541901249412 ], [ -2.779150390624977, 40.490252996869117 ], [ -2.772265624999989, 40.504901434369117 ], [ -2.767138671874989, 40.521014715619117 ], [ -2.760839843749977, 40.521502996869117 ], [ -2.754565429687489, 40.52289459843162 ], [ -2.748876953124977, 40.525165106244117 ], [ -2.732714843749989, 40.52838776249412 ] ], [ [ -7.11767578125, 39.68170807499412 ], [ -6.986669921874977, 39.694208074994116 ], [ -6.962646484375, 39.701532293744116 ], [ -6.941088867187489, 39.71271393436912 ], [ -6.892626953124989, 39.74603912968162 ], [ -6.881933593749977, 39.75971100468162 ], [ -6.853857421874977, 39.767108465619117 ], [ -6.822607421874977, 39.78204987186912 ], [ -6.79443359375, 39.784686590619117 ], [ -6.736669921874977, 39.782977606244117 ], [ -6.65283203125, 39.79083893436912 ], [ -6.626806640624977, 39.79035065311912 ], [ -6.613427734374994, 39.784295965619116 ], [ -6.574902343749983, 39.76080963749412 ], [ -6.554492187499989, 39.75568268436912 ], [ -6.533203125, 39.75299713749412 ], [ -6.476000976562489, 39.73517487186912 ], [ -6.436328124999989, 39.73419830936912 ], [ -6.16748046875, 39.796649481244117 ], [ -6.056567382812489, 39.84772369999412 ], [ -6.030371093749977, 39.84503815311912 ], [ -6.023486328124989, 39.85187409061912 ], [ -6.016699218749977, 39.84503815311912 ], [ -6.011767578124989, 39.849627996869117 ], [ -6.007080078125, 39.85126373905662 ], [ -5.99560546875, 39.85187409061912 ] ] ] } },
{ "type": "Feature", "properties": { "dissolve": "198River", "scalerank": 5, "featurecla": "River", "name": "Tejo", "name_alt": "Tagus", "rivernum": 198, "note": null, "min_zoom": 4.7, "name_en": "Tagus", "min_label": 5.7, "ne_id": 1159113655, "label": "Tejo", "wikidataid": "Q14294", "name_ar": "نهر تاجة", "name_bn": "তেজো", "name_de": "Tajo", "name_es": "Tajo", "name_fr": "Tage", "name_el": "Τάγος", "name_hi": "तेजो", "name_hu": "Tajo", "name_id": "Tagus", "name_it": "Tago", "name_ja": "タホ川", "name_ko": "타구스강", "name_nl": "Taag", "name_pl": "Tag", "name_pt": "Tejo", "name_ru": "Тахо", "name_sv": "Tajo", "name_tr": "Tejo", "name_vi": "Tagus", "name_zh": "塔霍河", "name_fa": "تاقوس", "name_he": "טחו", "name_uk": "Тахо", "name_ur": "تیجو", "name_zht": "太加斯河" }, "geometry": { "type": "LineString", "coordinates": [ [ -7.11767578125, 39.68170807499412 ], [ -7.183520507812489, 39.67536041874412 ], [ -7.214648437499989, 39.67645905155662 ], [ -7.236328125, 39.68671295780662 ], [ -7.253515624999977, 39.68256256718162 ], [ -7.293310546874977, 39.68353912968162 ], [ -7.312060546874989, 39.68048737186912 ], [ -7.328466796874977, 39.675067449994117 ], [ -7.342089843749989, 39.672137762494117 ], [ -7.566259765624977, 39.68036530155662 ], [ -7.586181640625, 39.674676824994116 ], [ -7.603369140624977, 39.66571686405662 ], [ -7.616503906249989, 39.65570709843162 ], [ -7.639013671874977, 39.64215729374412 ], [ -7.655810546874989, 39.64423248905662 ], [ -7.672705078124977, 39.65119049686912 ], [ -7.695605468749989, 39.65265534061912 ], [ -7.712011718749977, 39.643182684369116 ], [ -7.724560546874983, 39.62677643436912 ], [ -7.733740234374977, 39.61115143436912 ], [ -7.740332031249977, 39.60419342655662 ], [ -7.759863281249977, 39.59833405155662 ], [ -7.775976562499977, 39.58478424686912 ], [ -7.790380859374977, 39.56903717655662 ], [ -7.804858398437489, 39.557001043744116 ], [ -7.826342773437489, 39.54730866093162 ], [ -7.832812499999989, 39.54340241093162 ], [ -7.852343749999989, 39.52521393436912 ], [ -7.856689453125, 39.52228424686912 ], [ -7.869335937499983, 39.51813385624412 ], [ -7.902880859374989, 39.49970123905662 ], [ -7.914721679687489, 39.49494049686912 ], [ -8.000341796874977, 39.49494049686912 ], [ -8.017871093749989, 39.49274323124412 ], [ -8.057861328125, 39.48322174686912 ], [ -8.079199218749977, 39.481317449994116 ], [ -8.099218749999977, 39.483661199994117 ], [ -8.128759765624977, 39.49286530155662 ], [ -8.151220703124977, 39.49494049686912 ], [ -8.161230468749977, 39.49408600468162 ], [ -8.169775390624977, 39.49176666874412 ], [ -8.184741210937489, 39.48468659061912 ], [ -8.200927734375, 39.47760651249412 ], [ -8.210986328124989, 39.475360418744117 ], [ -8.223242187499977, 39.474481512494116 ], [ -8.234375, 39.47528717655662 ], [ -8.247900390624977, 39.479510809369117 ], [ -8.25732421875, 39.481317449994116 ], [ -8.354907226562489, 39.484247137494116 ], [ -8.416357421874977, 39.47138092655662 ], [ -8.439208984375, 39.46246979374412 ], [ -8.449145507812489, 39.450555731244116 ], [ -8.452880859375, 39.43292877811912 ], [ -8.4625, 39.414422918744116 ], [ -8.475927734374977, 39.39765045780662 ], [ -8.49072265625, 39.38507721561912 ], [ -8.613623046874977, 39.31622955936912 ], [ -8.624755859375, 39.30585358280662 ], [ -8.640625, 39.27973053593162 ], [ -8.65185546875, 39.265643621869117 ], [ -8.659912109375, 39.259051824994117 ], [ -8.67529296875, 39.24921295780662 ], [ -8.682543945312489, 39.241717840619117 ], [ -8.686621093749977, 39.23309967655662 ], [ -8.696142578124977, 39.20075104374412 ], [ -8.76513671875, 39.09772369999412 ] ] } }
]
}
