{
"type": "FeatureCollection",
"name": "paises_norte",
"crs": { "type": "name", "properties": { "name": "urn:ogc:def:crs:OGC:1.3:CRS84" } },
"features": [
{ "type": "Feature", "properties": { "ADMIN": "Spain" }, "geometry": { "type": "Polygon", "coordinates": [ [ [ -6.821310180999944, 40.630182597000086 ], [ -6.814282185999929, 40.647184143000104 ], [ -6.814230508999913, 40.659328105 ], [ -6.816245889999948, 40.677156474000029 ], [ -6.824307413999861, 40.710694478000065 ], [ -6.836968139999897, 40.743302308000111 ], [ -6.839138549999888, 40.75751332600008 ], [ -6.839138549999888, 40.776891989000049 ], [ -6.837278197999865, 40.786762187000122 ], [ -6.834539347999936, 40.792239889000101 ], [ -6.833505818999953, 40.797820943000019 ], [ -6.836813109999952, 40.808311260000082 ], [ -6.838053343999889, 40.814925842000079 ], [ -6.836658080999911, 40.840247294000065 ], [ -6.82032832799996, 40.844226380000023 ], [ -6.81619421399995, 40.856835429000071 ], [ -6.821155151999903, 40.870064596000063 ], [ -6.832058877999941, 40.875904033000054 ], [ -6.847045043999913, 40.878901266000057 ], [ -6.855261596999867, 40.88722117200011 ], [ -6.863633178999919, 40.908305156000054 ], [ -6.885182251999879, 40.948922832000065 ], [ -6.899238240999921, 40.966751201000122 ], [ -6.930605834999938, 40.992072652 ], [ -6.940424356999898, 41.003389791000089 ], [ -6.942491414999949, 41.015998840000108 ], [ -6.931794392999961, 41.029124654000057 ], [ -6.927866983999877, 41.04793487600007 ], [ -6.927447856999947, 41.048097584000047 ], [ -6.90683467599996, 41.056099752000094 ], [ -6.845288044999933, 41.051913961000068 ], [ -6.818002888999928, 41.054136048000075 ], [ -6.804360310999925, 41.064419658000062 ], [ -6.764776163999954, 41.10886139000003 ], [ -6.756507934999917, 41.127051494000071 ], [ -6.758988403999894, 41.151752828 ], [ -6.755216023999878, 41.158832500000116 ], [ -6.742245238999942, 41.17144154900005 ], [ -6.706950235999955, 41.194334209000047 ], [ -6.701265828999908, 41.202447408000054 ], [ -6.693772745999894, 41.217381897000038 ], [ -6.658219359999919, 41.257844544000122 ], [ -6.646643839999882, 41.267611390000056 ], [ -6.628918823999868, 41.269936829000088 ], [ -6.563496459999897, 41.270711975000026 ], [ -6.554453083999931, 41.275621237000038 ], [ -6.495852010999897, 41.294948222000087 ], [ -6.463140828999911, 41.31412017800001 ], [ -6.430998086999892, 41.33902821900007 ], [ -6.399578816999849, 41.377475485000033 ], [ -6.395496377999933, 41.37840566000007 ], [ -6.3831973879999, 41.376545309000065 ], [ -6.379166625999915, 41.377475485000033 ], [ -6.376737832999936, 41.383004863000039 ], [ -6.37554927599993, 41.39080800400005 ], [ -6.376169392999884, 41.396854146000081 ], [ -6.379166625999915, 41.397319234000108 ], [ -6.366247517999881, 41.405174053000039 ], [ -6.352346557999908, 41.40925649100005 ], [ -6.321133991999943, 41.411013489000126 ], [ -6.321030639999918, 41.419591777000065 ], [ -6.282945108999854, 41.465635478000067 ], [ -6.282480020999941, 41.47230173800007 ], [ -6.285167194999872, 41.478967998000101 ], [ -6.285890665999943, 41.486874492000041 ], [ -6.279534463999937, 41.497003072 ], [ -6.253644571999899, 41.517518616000061 ], [ -6.205947224999932, 41.570280253000092 ], [ -6.216127481999905, 41.580098775000081 ], [ -6.230080118999894, 41.59490407300008 ], [ -6.272248087999856, 41.628235372000049 ], [ -6.317103230999948, 41.650146180000021 ], [ -6.365937459999913, 41.663607890000051 ], [ -6.447069457999959, 41.676242778000088 ], [ -6.46081538999988, 41.676552836000084 ], [ -6.467740030999948, 41.672056987000062 ], [ -6.474354614999868, 41.665933330000101 ], [ -6.488048868999897, 41.658801982000071 ], [ -6.503035033999964, 41.653091737000111 ], [ -6.513421996999881, 41.650921326000017 ], [ -6.541533976999915, 41.658905335000085 ], [ -6.555279906999942, 41.674899191000023 ], [ -6.560499226999866, 41.694458721000061 ], [ -6.563083048999886, 41.713036397000096 ], [ -6.567682250999923, 41.722441508000045 ], [ -6.574348510999926, 41.731045634000097 ], [ -6.577397419999954, 41.73972727500005 ], [ -6.571506306999964, 41.749209900000025 ], [ -6.564374958999935, 41.75750396800008 ], [ -6.560137491999882, 41.766883240000126 ], [ -6.53574621599995, 41.848583679000015 ], [ -6.524222371999912, 41.867419740000045 ], [ -6.550060587999923, 41.873879293000087 ], [ -6.567888956999894, 41.875868836000038 ], [ -6.575795450999919, 41.882896831000053 ], [ -6.567630574999896, 41.926072490000067 ], [ -6.571661335999892, 41.942608948000057 ], [ -6.585148885999956, 41.954649557000053 ], [ -6.609488484999872, 41.962323507000022 ], [ -6.622821003999917, 41.94095530200012 ], [ -6.656772419999925, 41.933074647000083 ], [ -6.727982543999872, 41.930852559000087 ], [ -6.757903197999894, 41.937570496000021 ], [ -6.794386759999924, 41.979712626000051 ], [ -6.824927530999929, 41.983769226000064 ], [ -6.831232055999919, 41.953951925000055 ], [ -6.854951537999881, 41.942944845000071 ], [ -6.917118285999948, 41.939094950000097 ], [ -6.945126911999893, 41.943358257000071 ], [ -6.96951818799991, 41.957698466000082 ], [ -6.98345618299993, 41.962996166 ], [ -6.992359170999919, 41.966380107000035 ], [ -7.015768594999884, 41.953667705000086 ], [ -7.051270303999928, 41.942014669000017 ], [ -7.082741251999948, 41.95278920500003 ], [ -7.113178670999929, 41.972426250000083 ], [ -7.1453730879999, 41.987489929000063 ], [ -7.159739135999899, 41.985732931000072 ], [ -7.177309122999873, 41.978369039000071 ], [ -7.192605346999926, 41.969609884000093 ], [ -7.19994339999991, 41.963718771000103 ], [ -7.20211381099989, 41.949740295000097 ], [ -7.195654255999955, 41.917365011000115 ], [ -7.19792801899996, 41.90150034600002 ], [ -7.209316117999947, 41.889160873 ], [ -7.218650268999909, 41.879046937000098 ], [ -7.251464802999919, 41.863699036000028 ], [ -7.322468220999895, 41.845405579000058 ], [ -7.340503295999895, 41.843209331000068 ], [ -7.376831827999865, 41.84403615300009 ], [ -7.391921345999975, 41.842046611000043 ], [ -7.405408894999937, 41.835199484000086 ], [ -7.429541788999899, 41.814503073000068 ], [ -7.442719278999959, 41.805950623000044 ], [ -7.446956746999916, 41.821841126000052 ], [ -7.456568562999848, 41.839230245000081 ], [ -7.469384318999914, 41.852536926000099 ], [ -7.483285278999887, 41.856205954000089 ], [ -7.493000447999947, 41.856903586000087 ], [ -7.508141642999959, 41.864939270000079 ], [ -7.515841430999927, 41.864990947000067 ], [ -7.523282836999954, 41.860159201000059 ], [ -7.525246540999888, 41.854164734000037 ], [ -7.526331746999887, 41.847369283 ], [ -7.531551066999924, 41.84016042100005 ], [ -7.546692260999919, 41.832047221000025 ], [ -7.567104451999882, 41.826595358000063 ], [ -7.588395141999854, 41.8242182420001 ], [ -7.606068480999852, 41.825535991000052 ], [ -7.622191528999849, 41.832331442000012 ], [ -7.622811644999899, 41.841736552000057 ], [ -7.607360391999919, 41.873181662000022 ], [ -7.661155557999933, 41.87491282200007 ], [ -7.67867386899988, 41.881346537000027 ], [ -7.706372436999914, 41.896255188000069 ], [ -7.722030395999866, 41.899252421000099 ], [ -7.750142374999911, 41.888374532000043 ], [ -7.812154092999947, 41.877134909000077 ], [ -7.839232543999913, 41.878375143000099 ], [ -7.849722859999872, 41.875765483000109 ], [ -7.854425414999923, 41.870261943000017 ], [ -7.857887735999981, 41.863776551000043 ], [ -7.864812377999954, 41.857885437000064 ], [ -7.896593383999885, 41.857937113000062 ], [ -7.903362995999942, 41.886824240000109 ], [ -7.906101846999888, 41.913851014000059 ], [ -7.92579056799994, 41.908166606000108 ], [ -7.930493122999906, 41.896668600000098 ], [ -7.93535070799993, 41.879951274000049 ], [ -7.94475581899988, 41.866954652000018 ], [ -7.963359334999922, 41.866618755000033 ], [ -7.979430704999913, 41.868608297000051 ], [ -7.993641723999872, 41.863673198000029 ], [ -8.005889037999907, 41.853958029000083 ], [ -8.015707560999942, 41.841891581000098 ], [ -8.048573770999894, 41.816389262000072 ], [ -8.050445716999889, 41.815986438000053 ], [ -8.093480590999889, 41.806725769000039 ], [ -8.179573526999889, 41.810704854000036 ], [ -8.179265100999942, 41.812612525000034 ], [ -8.175387735999948, 41.836594747000063 ], [ -8.177041381999885, 41.849849752000054 ], [ -8.184586140999954, 41.857730408000108 ], [ -8.220397908999871, 41.86819488600004 ], [ -8.231715047999955, 41.886049093000011 ], [ -8.23021643099986, 41.904678447000052 ], [ -8.220707966999953, 41.922713521000063 ], [ -8.182131509999891, 41.965424093000067 ], [ -8.152960163999865, 41.986818136000082 ], [ -8.12391800899988, 42.000899964000027 ], [ -8.108027506999861, 42.010899353000028 ], [ -8.097356322999929, 42.023482565000037 ], [ -8.095082559999923, 42.040923361000083 ], [ -8.103195760999938, 42.055806173000022 ], [ -8.118440307999975, 42.066864929000033 ], [ -8.137612263999898, 42.072911072000082 ], [ -8.158386189999931, 42.071386617000073 ], [ -8.176162882999961, 42.06526296 ], [ -8.19130407699987, 42.062084859000024 ], [ -8.204016479999922, 42.069552104000067 ], [ -8.207375447999937, 42.085778504000061 ], [ -8.204326537999918, 42.128799133000072 ], [ -8.213395751999883, 42.1440178430001 ], [ -8.222361612999919, 42.153629660000021 ], [ -8.252333943999957, 42.137584128000057 ], [ -8.270679076999926, 42.132003072000131 ], [ -8.287835652999888, 42.131434632000079 ], [ -8.295380411999957, 42.1300910450001 ], [ -8.304268757999864, 42.125827739000059 ], [ -8.329951944999948, 42.108438619000125 ], [ -8.346746785999898, 42.101694845000097 ], [ -8.501207641999883, 42.083091330000045 ], [ -8.520017862999879, 42.077716980000091 ], [ -8.554434366999942, 42.060069478000074 ], [ -8.572805337999938, 42.054410909000055 ], [ -8.609418090999981, 42.053661601000059 ], [ -8.626884724999911, 42.051026103000126 ], [ -8.643886271999946, 42.041491802000039 ], [ -8.65256791199991, 42.031440736000022 ], [ -8.663213256999882, 42.009891663000062 ], [ -8.670809691999864, 41.999814758000113 ], [ -8.69127355899991, 41.989608664000045 ], [ -8.717008422999896, 41.983769226000064 ], [ -8.739591023999935, 41.975113424000099 ], [ -8.750803188999953, 41.968980210000041 ], [ -8.76195227799991, 41.95258209800005 ], [ -8.777088995999918, 41.937160549000055 ], [ -8.795399542999917, 41.925685940000051 ], [ -8.815988735999952, 41.921210028000075 ], [ -8.832834438999953, 41.913967190000051 ], [ -8.848784959999932, 41.899481512000079 ], [ -8.864654100999928, 41.888902085000041 ], [ -8.881255662999934, 41.893296617000033 ], [ -8.878732876999948, 41.907131252000056 ], [ -8.898589647999927, 42.101752020000049 ], [ -8.895497199999909, 42.119086005000042 ], [ -8.884592251999948, 42.126044012000079 ], [ -8.844960089999915, 42.126613674000055 ], [ -8.826527472999942, 42.130519924000055 ], [ -8.819081183999913, 42.139715887000079 ], [ -8.823719855999911, 42.147609768000052 ], [ -8.842762824999909, 42.154445705000057 ], [ -8.846994594999956, 42.160834052000041 ], [ -8.84203040299991, 42.164292710000041 ], [ -8.815988735999952, 42.174505927000041 ], [ -8.813465949999909, 42.178697007000039 ], [ -8.811024542999917, 42.18813711100006 ], [ -8.805775519999941, 42.197495835000041 ], [ -8.79523678299995, 42.201727606000077 ], [ -8.790638800999943, 42.20453522300005 ], [ -8.771962042999917, 42.222235419000071 ], [ -8.719553188999953, 42.252346096000053 ], [ -8.706450975999928, 42.256415106000077 ], [ -8.701893683999913, 42.258530992000033 ], [ -8.669911261999914, 42.280910549000055 ], [ -8.652007615999935, 42.286322333000044 ], [ -8.631743943999936, 42.296820380000042 ], [ -8.625152147999927, 42.301947333000044 ], [ -8.621652798999946, 42.310207424000055 ], [ -8.621652798999946, 42.340806382000039 ], [ -8.622710740999935, 42.347479559000078 ], [ -8.626454230999911, 42.348334052000041 ], [ -8.634755011999914, 42.346380927000041 ], [ -8.649891730999911, 42.335598049000055 ], [ -8.660755988999938, 42.316799221000053 ], [ -8.674794074999909, 42.299017645000049 ], [ -8.699574347999942, 42.291164455000057 ], [ -8.719838019999941, 42.287583726000037 ], [ -8.773915167999917, 42.26898834800005 ], [ -8.784982876999948, 42.26007721600007 ], [ -8.795765753999945, 42.258246161000045 ], [ -8.84829667899993, 42.260972398000035 ], [ -8.86750240799995, 42.256415106000077 ], [ -8.863636847999942, 42.26898834800005 ], [ -8.853423631999931, 42.291083075000074 ], [ -8.853260870999918, 42.304836330000057 ], [ -8.846994594999956, 42.304836330000057 ], [ -8.832997199999909, 42.289129950000074 ], [ -8.827219204999949, 42.296698309000078 ], [ -8.826527472999942, 42.329046942000048 ], [ -8.828521287999934, 42.337225653000075 ], [ -8.83071855399993, 42.341620184000078 ], [ -8.827259894999941, 42.344142971000053 ], [ -8.812855597999942, 42.346380927000041 ], [ -8.776926235999952, 42.34015534100007 ], [ -8.771962042999917, 42.342718817000048 ], [ -8.764637824999909, 42.355698960000041 ], [ -8.72687740799995, 42.388739325000074 ], [ -8.709828253999945, 42.400376695000034 ], [ -8.676869269999941, 42.416449286000045 ], [ -8.662505662999934, 42.426906643000052 ], [ -8.655262824999909, 42.441351630000042 ], [ -8.66437740799995, 42.437974351000037 ], [ -8.67251542899993, 42.438421942000048 ], [ -8.682525193999936, 42.441351630000042 ], [ -8.691273566999939, 42.440619208000044 ], [ -8.694488084999932, 42.439642645000049 ], [ -8.696766730999911, 42.437974351000037 ], [ -8.718820766999954, 42.427964585000041 ], [ -8.743641730999911, 42.413234768000052 ], [ -8.757639126999948, 42.407212632000039 ], [ -8.779367641999954, 42.402899481000077 ], [ -8.811024542999917, 42.40070221600007 ], [ -8.843576626999948, 42.403713283000059 ], [ -8.86750240799995, 42.41469961100006 ], [ -8.875721808999913, 42.425970770000049 ], [ -8.880238410999937, 42.445013739000046 ], [ -8.888010219999956, 42.455633856000077 ], [ -8.900949673999946, 42.461004950000074 ], [ -8.935454881999931, 42.465399481000077 ], [ -8.942616339999915, 42.469305731000077 ], [ -8.935047980999911, 42.479071356000077 ], [ -8.916737433999913, 42.487616278000075 ], [ -8.895985480999911, 42.493882554000038 ], [ -8.881255662999934, 42.496568101000037 ], [ -8.869007941999939, 42.493394273000035 ], [ -8.860829230999911, 42.48501211100006 ], [ -8.861154751999948, 42.475572007000039 ], [ -8.874338344999956, 42.469305731000077 ], [ -8.86554928299995, 42.465033270000049 ], [ -8.851551886999914, 42.460760809000078 ], [ -8.836984829999949, 42.458929755000042 ], [ -8.826527472999942, 42.461859442000048 ], [ -8.82249915299991, 42.472357489000046 ], [ -8.825184699999909, 42.484116929000038 ], [ -8.825062628999945, 42.494940497000073 ], [ -8.812855597999942, 42.502752997000073 ], [ -8.825184699999909, 42.53742096600007 ], [ -8.826527472999942, 42.554632880000042 ], [ -8.822987433999913, 42.569525458000044 ], [ -8.813832160999937, 42.581447658000059 ], [ -8.801584438999953, 42.58930084800005 ], [ -8.788400844999956, 42.592189846000053 ], [ -8.775502081999946, 42.604722398000035 ], [ -8.738758917999917, 42.666083075000074 ], [ -8.730946417999917, 42.688421942000048 ], [ -8.737172003999945, 42.688421942000048 ], [ -8.744048631999931, 42.672430731000077 ], [ -8.753895636999914, 42.65688711100006 ], [ -8.767323370999918, 42.64516836100006 ], [ -8.784982876999948, 42.640570380000042 ], [ -8.803822394999941, 42.64594147300005 ], [ -8.815988735999952, 42.65851471600007 ], [ -8.826242641999954, 42.67413971600007 ], [ -8.839507615999935, 42.682440497000073 ], [ -8.854603644999941, 42.66156647300005 ], [ -8.857004360999952, 42.649115302000041 ], [ -8.846994594999956, 42.640570380000042 ], [ -8.868763800999943, 42.61749909100007 ], [ -8.880523240999935, 42.611802476000037 ], [ -8.89484615799995, 42.620103257000039 ], [ -8.889475063999953, 42.630601304000038 ], [ -8.903431769999941, 42.625474351000037 ], [ -8.936390753999945, 42.606431382000039 ], [ -8.922230597999942, 42.593695380000042 ], [ -8.933990037999934, 42.586818752000056 ], [ -8.969878709999932, 42.579169012000079 ], [ -8.972767706999946, 42.573919989000046 ], [ -8.98078365799995, 42.551214911000045 ], [ -8.989165818999936, 42.548895575000074 ], [ -8.997059699999909, 42.543402411000045 ], [ -9.011545376999948, 42.53070709800005 ], [ -9.026356574999909, 42.543117580000057 ], [ -9.028553839999915, 42.561468817000048 ], [ -9.033355272999927, 42.578111070000034 ], [ -9.055816209999932, 42.58539459800005 ], [ -9.070871548999946, 42.596136786000045 ], [ -9.065744594999956, 42.620306708000044 ], [ -9.05142167899993, 42.64594147300005 ], [ -9.038807745999918, 42.661078192000048 ], [ -9.039458787999934, 42.673041083000044 ], [ -9.036284959999932, 42.687933661000045 ], [ -9.030140753999945, 42.707709052000041 ], [ -9.018788214999915, 42.719753322000088 ], [ -9.014027472999942, 42.726833401000079 ], [ -9.006255662999934, 42.73383209800005 ], [ -8.994496222999942, 42.737005927000041 ], [ -8.992014126999948, 42.739081122000073 ], [ -8.96312415299991, 42.751288153000075 ], [ -8.937367316999939, 42.777777411000045 ], [ -8.922230597999942, 42.788112697000088 ], [ -8.898264126999948, 42.792303778000075 ], [ -8.891346808999913, 42.799343166000085 ], [ -8.884917772999927, 42.815008856000077 ], [ -8.887684699999909, 42.831122137000079 ], [ -8.90843665299991, 42.839463609000063 ], [ -8.912587042999917, 42.816595770000049 ], [ -8.928089972999942, 42.802516994000086 ], [ -8.951039191999939, 42.795111395000049 ], [ -8.977365688999953, 42.792303778000075 ], [ -9.028187628999945, 42.797878322000088 ], [ -9.048939581999946, 42.794745184000078 ], [ -9.045643683999913, 42.778021552000041 ], [ -9.06867428299995, 42.759711005000042 ], [ -9.081288214999915, 42.754828192000048 ], [ -9.10024980399993, 42.757513739000046 ], [ -9.113433397999927, 42.766058661000045 ], [ -9.120106574999909, 42.778998114000046 ], [ -9.125477667999917, 42.794989325000074 ], [ -9.13499915299991, 42.812770901000079 ], [ -9.122547980999911, 42.812608140000066 ], [ -9.113189256999931, 42.816351630000042 ], [ -9.106190558999913, 42.823309637000079 ], [ -9.10024980399993, 42.833278713000084 ], [ -9.108387824999909, 42.84483470300006 ], [ -9.122222459999932, 42.851752020000049 ], [ -9.141224738999938, 42.857448635000083 ], [ -9.142323370999918, 42.865301825000074 ], [ -9.147531704999949, 42.878607489000046 ], [ -9.14867102799991, 42.884466864000046 ], [ -9.146636522999927, 42.888373114000046 ], [ -9.137521938999953, 42.896063544000071 ], [ -9.13499915299991, 42.902167059000078 ], [ -9.133697068999936, 42.911200262000079 ], [ -9.134510870999918, 42.917547919000071 ], [ -9.141428188999953, 42.92141347900008 ], [ -9.158599412999934, 42.922634182000081 ], [ -9.167876756999931, 42.926825262000079 ], [ -9.183461066999939, 42.945257880000042 ], [ -9.195871548999946, 42.949326890000066 ], [ -9.195871548999946, 42.943141994000086 ], [ -9.190012173999946, 42.932399807000081 ], [ -9.195790167999917, 42.926581122000073 ], [ -9.205189581999946, 42.924750067000048 ], [ -9.210072394999941, 42.925726630000042 ], [ -9.214344855999911, 42.939032294000071 ], [ -9.224232550999943, 42.940212307000081 ], [ -9.235585089999915, 42.934881903000075 ], [ -9.244252081999946, 42.928778387000079 ], [ -9.251698370999918, 42.92023346600007 ], [ -9.261708136999914, 42.900173244000086 ], [ -9.268422003999945, 42.891302802000041 ], [ -9.273060675999943, 42.893337307000081 ], [ -9.282948370999918, 42.916612046000068 ], [ -9.291981574999909, 42.922634182000081 ], [ -9.291981574999909, 42.928778387000079 ], [ -9.28538977799991, 42.938340562000064 ], [ -9.264759894999941, 42.98033274900007 ], [ -9.26398678299995, 42.986517645000049 ], [ -9.261830206999946, 42.994492906000062 ], [ -9.258656378999945, 43.002386786000045 ], [ -9.254790818999936, 43.008002020000049 ], [ -9.250965949999909, 43.016791083000044 ], [ -9.257313605999911, 43.023260809000078 ], [ -9.27212480399993, 43.031276760000083 ], [ -9.27953040299991, 43.05499909100007 ], [ -9.271107550999943, 43.060492255000042 ], [ -9.257923956999946, 43.060899156000062 ], [ -9.251088019999941, 43.06976959800005 ], [ -9.245716925999943, 43.087998765000066 ], [ -9.233957485999952, 43.096502997000073 ], [ -9.222320115999935, 43.102728583000044 ], [ -9.217600063999953, 43.114447333000044 ], [ -9.202951626999948, 43.105047919000071 ], [ -9.189808722999942, 43.102321682000081 ], [ -9.176828579999949, 43.105576890000066 ], [ -9.162261522999927, 43.114447333000044 ], [ -9.15689042899993, 43.119737046000068 ], [ -9.154204881999931, 43.124701239000046 ], [ -9.150298631999931, 43.129584052000041 ], [ -9.141224738999938, 43.134873765000066 ], [ -9.13312740799995, 43.137966213000084 ], [ -9.125803188999953, 43.139593817000048 ], [ -9.10773678299995, 43.141140041000085 ], [ -9.10773678299995, 43.148504950000074 ], [ -9.124663865999935, 43.142523505000042 ], [ -9.147084113999938, 43.138698635000083 ], [ -9.163319464999915, 43.13975657800006 ], [ -9.162261522999927, 43.148504950000074 ], [ -9.194203253999945, 43.136542059000078 ], [ -9.208363410999937, 43.137884833000044 ], [ -9.217600063999953, 43.155340887000079 ], [ -9.170074022999927, 43.188747463000084 ], [ -9.137928839999915, 43.201524156000062 ], [ -9.100412563999953, 43.189520575000074 ], [ -9.083159959999932, 43.18976471600007 ], [ -9.065174933999913, 43.192328192000048 ], [ -9.052398240999935, 43.196356512000079 ], [ -9.039784308999913, 43.20453522300005 ], [ -9.026966925999943, 43.210150458000044 ], [ -9.016753709999932, 43.223863023000035 ], [ -9.011545376999948, 43.238755601000037 ], [ -9.004058397999927, 43.238755601000037 ], [ -8.985747850999928, 43.22687409100007 ], [ -8.958973761999914, 43.227484442000048 ], [ -8.932525193999936, 43.235296942000048 ], [ -8.915272589999915, 43.245021877000056 ], [ -8.936390753999945, 43.244086005000042 ], [ -8.948150193999936, 43.249945380000042 ], [ -8.96312415299991, 43.272284247000073 ], [ -8.967518683999913, 43.271958726000037 ], [ -8.979807094999956, 43.276922919000071 ], [ -8.988026495999918, 43.283026434000078 ], [ -8.98078365799995, 43.285956122000073 ], [ -8.970855272999927, 43.28656647300005 ], [ -8.930490688999953, 43.299750067000048 ], [ -8.888010219999956, 43.320746161000045 ], [ -8.856597459999932, 43.326890367000033 ], [ -8.849110480999911, 43.334051825000074 ], [ -8.841175910999937, 43.338934637000079 ], [ -8.829986131999931, 43.341213283000059 ], [ -8.817005988999938, 43.335842190000051 ], [ -8.785552537999934, 43.312445380000042 ], [ -8.768544074999909, 43.307074286000045 ], [ -8.750477667999917, 43.304917710000041 ], [ -8.711740688999953, 43.29555898600006 ], [ -8.693104620999918, 43.293402411000045 ], [ -8.665394660999937, 43.301174221000053 ], [ -8.630034959999932, 43.31586334800005 ], [ -8.592518683999913, 43.324204820000034 ], [ -8.558420376999948, 43.313218492000033 ], [ -8.505970831999946, 43.331529039000088 ], [ -8.497547980999911, 43.337795315000051 ], [ -8.494252081999946, 43.346625067000048 ], [ -8.486073370999918, 43.354315497000073 ], [ -8.475982225999928, 43.35968659100007 ], [ -8.45571855399993, 43.363348700000074 ], [ -8.45140540299991, 43.367377020000049 ], [ -8.448963995999918, 43.371975002000056 ], [ -8.443023240999935, 43.37531159100007 ], [ -8.388295050999943, 43.385891018000052 ], [ -8.384673631999931, 43.372707424000055 ], [ -8.375721808999913, 43.362982489000046 ], [ -8.353586391999954, 43.348618882000039 ], [ -8.340809699999909, 43.359930731000077 ], [ -8.337269660999937, 43.369045315000051 ], [ -8.339914516999954, 43.392726955000057 ], [ -8.33071855399993, 43.405666408000059 ], [ -8.310617641999954, 43.403143622000073 ], [ -8.28156490799995, 43.389593817000048 ], [ -8.267201300999943, 43.385931708000044 ], [ -8.260812954999949, 43.377020575000074 ], [ -8.257069464999915, 43.365668036000045 ], [ -8.250559048999946, 43.354885158000059 ], [ -8.227528449999909, 43.338120835000041 ], [ -8.217274542999917, 43.328314520000049 ], [ -8.210194464999915, 43.313218492000033 ], [ -8.202463344999956, 43.329250393000052 ], [ -8.202951626999948, 43.344671942000048 ], [ -8.210194464999915, 43.37531159100007 ], [ -8.20962480399993, 43.390692450000074 ], [ -8.204823370999918, 43.399725653000075 ], [ -8.193959113999938, 43.406805731000077 ], [ -8.175404425999943, 43.41632721600007 ], [ -8.195057745999918, 43.423244533000059 ], [ -8.213286912999934, 43.424953518000052 ], [ -8.247141079999949, 43.423081773000035 ], [ -8.264759894999941, 43.427313544000071 ], [ -8.288726365999935, 43.446234442000048 ], [ -8.305165167999917, 43.451076565000051 ], [ -8.286488410999937, 43.461981512000079 ], [ -8.185617641999954, 43.471502997000073 ], [ -8.178781704999949, 43.47329336100006 ], [ -8.171457485999952, 43.47797272300005 ], [ -8.166981574999909, 43.484564520000049 ], [ -8.168568488999938, 43.492010809000078 ], [ -8.173451300999943, 43.492743231000077 ], [ -8.196522589999915, 43.485174872000073 ], [ -8.257313605999911, 43.477728583000044 ], [ -8.253651495999918, 43.481268622000073 ], [ -8.250884568999936, 43.482855536000045 ], [ -8.243723110999952, 43.485174872000073 ], [ -8.247547980999911, 43.48773834800005 ], [ -8.257313605999911, 43.492010809000078 ], [ -8.269195115999935, 43.478949286000045 ], [ -8.288970506999931, 43.47296784100007 ], [ -8.333119269999941, 43.471502997000073 ], [ -8.325347459999932, 43.486761786000045 ], [ -8.321685350999928, 43.507879950000074 ], [ -8.31663977799991, 43.52289459800005 ], [ -8.305165167999917, 43.519354559000078 ], [ -8.292103644999941, 43.532945054000038 ], [ -8.300160285999937, 43.538234768000052 ], [ -8.308216925999943, 43.54633209800005 ], [ -8.313221808999913, 43.556341864000046 ], [ -8.312652147999927, 43.567124742000033 ], [ -8.308705206999946, 43.567124742000033 ], [ -8.29133053299995, 43.564846096000053 ], [ -8.284657355999911, 43.567124742000033 ], [ -8.260975714999915, 43.564520575000074 ], [ -8.232248501999948, 43.575506903000075 ], [ -8.086659308999913, 43.656480210000041 ], [ -8.082997199999909, 43.645453192000048 ], [ -8.074615037999934, 43.639634507000039 ], [ -8.063547329999949, 43.638861395000049 ], [ -8.051869269999941, 43.642808335000041 ], [ -8.062408006999931, 43.642320054000038 ], [ -8.065541144999941, 43.642808335000041 ], [ -8.065541144999941, 43.64907461100006 ], [ -8.061268683999913, 43.650946356000077 ], [ -8.056467251999948, 43.654242255000042 ], [ -8.051869269999941, 43.656480210000041 ], [ -8.071156378999945, 43.667873440000051 ], [ -8.073963995999918, 43.678534247000073 ], [ -8.069162563999953, 43.689276434000078 ], [ -8.065541144999941, 43.700873114000046 ], [ -8.059315558999913, 43.709418036000045 ], [ -8.044504360999952, 43.712103583000044 ], [ -8.010975714999915, 43.711737372000073 ], [ -7.981190558999913, 43.717840887000079 ], [ -7.952951626999948, 43.730129299000055 ], [ -7.928130662999934, 43.746771552000041 ], [ -7.908558722999942, 43.766343492000033 ], [ -7.880848761999914, 43.763251044000071 ], [ -7.869048631999931, 43.748846747000073 ], [ -7.861480272999927, 43.731187242000033 ], [ -7.846506313999953, 43.717962958000044 ], [ -7.846506313999953, 43.711737372000073 ], [ -7.852284308999913, 43.714178778000075 ], [ -7.862294074999909, 43.71625397300005 ], [ -7.867583787999934, 43.717962958000044 ], [ -7.874623175999943, 43.709418036000045 ], [ -7.879261847999942, 43.700506903000075 ], [ -7.879790818999936, 43.691961981000077 ], [ -7.873768683999913, 43.684475002000056 ], [ -7.884103969999956, 43.678615627000056 ], [ -7.887318488999938, 43.679673570000034 ], [ -7.894886847999942, 43.684475002000056 ], [ -7.901234503999945, 43.679754950000074 ], [ -7.903879360999952, 43.678290106000077 ], [ -7.908558722999942, 43.676988023000035 ], [ -7.908558722999942, 43.670152085000041 ], [ -7.858387824999909, 43.668198960000041 ], [ -7.849232550999943, 43.675604559000078 ], [ -7.867583787999934, 43.697455145000049 ], [ -7.856027798999946, 43.70343659100007 ], [ -7.843861456999946, 43.703802802000041 ], [ -7.819162563999953, 43.697455145000049 ], [ -7.821400519999941, 43.700751044000071 ], [ -7.823963995999918, 43.708075262000079 ], [ -7.826039191999939, 43.711737372000073 ], [ -7.812001105999911, 43.723089911000045 ], [ -7.793853318999936, 43.734116929000038 ], [ -7.773793097999942, 43.742580471000053 ], [ -7.734038865999935, 43.750067450000074 ], [ -7.712757941999939, 43.760687567000048 ], [ -7.695708787999934, 43.774888414000088 ], [ -7.688832160999937, 43.789984442000048 ], [ -7.685536261999914, 43.793443101000037 ], [ -7.678334113999938, 43.79047272300005 ], [ -7.671294725999928, 43.782863674000055 ], [ -7.668324347999942, 43.772528387000079 ], [ -7.672596808999913, 43.766669012000079 ], [ -7.69562740799995, 43.745917059000078 ], [ -7.696156378999945, 43.731512762000079 ], [ -7.691558397999927, 43.727240302000041 ], [ -7.683990037999934, 43.728705145000049 ], [ -7.675160285999937, 43.731634833000044 ], [ -7.673573370999918, 43.734361070000034 ], [ -7.67414303299995, 43.739203192000048 ], [ -7.672474738999938, 43.743841864000046 ], [ -7.664621548999946, 43.745917059000078 ], [ -7.658029751999948, 43.746527411000045 ], [ -7.641021287999934, 43.752671617000033 ], [ -7.637603318999936, 43.739081122000073 ], [ -7.613026495999918, 43.704291083000044 ], [ -7.615956183999913, 43.688544012000079 ], [ -7.607167120999918, 43.691107489000046 ], [ -7.594593878999945, 43.703680731000077 ], [ -7.586415167999917, 43.717962958000044 ], [ -7.574289516999954, 43.714544989000046 ], [ -7.565419074999909, 43.719794012000079 ], [ -7.555775519999941, 43.727606512000079 ], [ -7.541411912999934, 43.731634833000044 ], [ -7.502023891999954, 43.728338934000078 ], [ -7.490142381999931, 43.725327867000033 ], [ -7.407622850999928, 43.691229559000078 ], [ -7.367054816999939, 43.680080471000053 ], [ -7.304107225999928, 43.598578192000048 ], [ -7.256743943999936, 43.581610419000071 ], [ -7.260161912999934, 43.577500718000067 ], [ -7.262277798999946, 43.574286200000074 ], [ -7.265126105999911, 43.571478583000044 ], [ -7.271066860999952, 43.568630276000079 ], [ -7.271066860999952, 43.561143296000068 ], [ -7.257720506999931, 43.556667385000083 ], [ -7.249623175999943, 43.559393622000073 ], [ -7.242014126999948, 43.564805406000062 ], [ -7.230091925999943, 43.568630276000079 ], [ -7.215443488999938, 43.56867096600007 ], [ -7.194894985999952, 43.563503322000088 ], [ -7.156971808999913, 43.559271552000041 ], [ -7.095855272999927, 43.560980536000045 ], [ -7.079335089999915, 43.568630276000079 ], [ -7.061594204999949, 43.561590887000079 ], [ -7.044300910999937, 43.559393622000073 ], [ -7.032338019999941, 43.553005276000079 ], [ -7.030873175999943, 43.533229885000083 ], [ -7.03774980399993, 43.522243557000081 ], [ -7.048410610999952, 43.510443427000041 ], [ -7.053618943999936, 43.496527411000045 ], [ -7.044585740999935, 43.479193427000041 ], [ -7.043853318999936, 43.479193427000041 ], [ -7.038319464999915, 43.479193427000041 ], [ -7.032704230999911, 43.495469468000067 ], [ -7.02953040299991, 43.512152411000045 ], [ -7.02375240799995, 43.525824286000045 ], [ -7.010365363999938, 43.533229885000083 ], [ -7.001372850999928, 43.556667385000083 ], [ -6.943959113999938, 43.565985419000071 ], [ -6.84593665299991, 43.568630276000079 ], [ -6.83071855399993, 43.565130927000041 ], [ -6.770822719999956, 43.568630276000079 ], [ -6.729644334999932, 43.559759833000044 ], [ -6.703724738999938, 43.557562567000048 ], [ -6.64867102799991, 43.579046942000048 ], [ -6.597727016999954, 43.575222072000088 ], [ -6.546620245999918, 43.561835028000075 ], [ -6.510121222999942, 43.547471421000068 ], [ -6.499663865999935, 43.553086656000062 ], [ -6.488270636999914, 43.555121161000045 ], [ -6.462961391999954, 43.554958401000079 ], [ -6.464751756999931, 43.55967845300006 ], [ -6.467274542999917, 43.570868231000077 ], [ -6.469105597999942, 43.575384833000044 ], [ -6.45531165299991, 43.57335032800006 ], [ -6.431792772999927, 43.563421942000048 ], [ -6.417632615999935, 43.561143296000068 ], [ -6.366118943999936, 43.568630276000079 ], [ -6.314605272999927, 43.568630276000079 ], [ -6.300038214999915, 43.57062409100007 ], [ -6.273915167999917, 43.57961660400008 ], [ -6.249989386999914, 43.584051825000074 ], [ -6.243885870999918, 43.58930084800005 ], [ -6.236398891999954, 43.594305731000077 ], [ -6.222767706999946, 43.595892645000049 ], [ -6.190988735999952, 43.578558661000045 ], [ -6.17804928299995, 43.575384833000044 ], [ -6.100412563999953, 43.569199937000064 ], [ -6.084950324999909, 43.575384833000044 ], [ -6.069162563999953, 43.569688218000067 ], [ -6.054188605999911, 43.574571031000062 ], [ -6.039214647999927, 43.58311595300006 ], [ -6.023508266999954, 43.588446356000077 ], [ -5.907378709999932, 43.588446356000077 ], [ -5.902170376999948, 43.59752024900007 ], [ -5.90884355399993, 43.60492584800005 ], [ -5.913075324999909, 43.612860419000071 ], [ -5.90062415299991, 43.623236395000049 ], [ -5.90257727799991, 43.62649160400008 ], [ -5.905344204999949, 43.633815822000088 ], [ -5.907378709999932, 43.636826890000066 ], [ -5.875152147999927, 43.636786200000074 ], [ -5.86351477799991, 43.641424872000073 ], [ -5.859038865999935, 43.653631903000075 ], [ -5.85220292899993, 43.662949937000064 ], [ -5.836333787999934, 43.662217515000066 ], [ -5.803822394999941, 43.650498765000066 ], [ -5.782338019999941, 43.63703034100007 ], [ -5.727406378999945, 43.589544989000046 ], [ -5.708851691999939, 43.568630276000079 ], [ -5.701975063999953, 43.568630276000079 ], [ -5.696766730999911, 43.582831122000073 ], [ -5.689198370999918, 43.578558661000045 ], [ -5.677479620999918, 43.561143296000068 ], [ -5.625599738999938, 43.554958401000079 ], [ -5.424224412999934, 43.561143296000068 ], [ -5.393869594999956, 43.555243231000077 ], [ -5.390736456999946, 43.54132721600007 ], [ -5.403553839999915, 43.525417385000083 ], [ -5.420806443999936, 43.513373114000046 ], [ -5.413929816999939, 43.506537177000041 ], [ -5.403675910999937, 43.511094468000067 ], [ -5.382639126999948, 43.516384182000081 ], [ -5.372425910999937, 43.520209052000041 ], [ -5.365101691999939, 43.526719468000067 ], [ -5.362212693999936, 43.533392645000049 ], [ -5.356800910999937, 43.53860097900008 ], [ -5.341949022999927, 43.540635484000063 ], [ -5.299875454999949, 43.537665106000077 ], [ -5.284006313999953, 43.533474026000079 ], [ -5.211903449999909, 43.49835846600007 ], [ -5.177886522999927, 43.48936595300006 ], [ -5.091664191999939, 43.486273505000042 ], [ -5.067697719999956, 43.481390692000048 ], [ -5.057036912999934, 43.46861399900007 ], [ -5.045033331999946, 43.474310614000046 ], [ -4.975168423999946, 43.458766994000086 ], [ -4.96711178299995, 43.460882880000042 ], [ -4.952544725999928, 43.470078843000067 ], [ -4.941029425999943, 43.471747137000079 ], [ -4.930246548999946, 43.469509182000081 ], [ -4.907622850999928, 43.460638739000046 ], [ -4.836537238999938, 43.449774481000077 ], [ -4.754994269999941, 43.421657619000086 ], [ -4.734934048999946, 43.41710032800006 ], [ -4.512318488999938, 43.402736721000053 ], [ -4.508168097999942, 43.402451890000066 ], [ -4.481678839999915, 43.383612372000073 ], [ -4.460804816999939, 43.398708401000079 ], [ -4.432525193999936, 43.402614651000079 ], [ -4.404896613999938, 43.396999416000085 ], [ -4.385568813999953, 43.383612372000073 ], [ -4.379261847999942, 43.383612372000073 ], [ -4.368763800999943, 43.396185614000046 ], [ -4.359364386999914, 43.399684963000084 ], [ -4.31281490799995, 43.395778713000084 ], [ -4.188588019999941, 43.40538157800006 ], [ -4.160959438999953, 43.421169338000084 ], [ -4.097727016999954, 43.435614325000074 ], [ -4.073963995999918, 43.438259182000081 ], [ -4.029204881999931, 43.438259182000081 ], [ -4.023426886999914, 43.44094472900008 ], [ -4.022572394999941, 43.445746161000045 ], [ -4.020904100999928, 43.450384833000044 ], [ -4.012766079999949, 43.452500718000067 ], [ -4.005686001999948, 43.450791734000063 ], [ -3.981434699999909, 43.438259182000081 ], [ -3.976470506999931, 43.442938544000071 ], [ -3.971994594999956, 43.444159247000073 ], [ -3.967152472999942, 43.444199937000064 ], [ -3.961008266999954, 43.445095119000086 ], [ -3.965443488999938, 43.446844794000071 ], [ -3.974598761999914, 43.452500718000067 ], [ -3.974598761999914, 43.458766994000086 ], [ -3.940052863999938, 43.477118231000077 ], [ -3.922718878999945, 43.482611395000049 ], [ -3.906320766999954, 43.479193427000041 ], [ -3.893788214999915, 43.484890041000085 ], [ -3.89085852799991, 43.483710028000075 ], [ -3.885853644999941, 43.479193427000041 ], [ -3.856800910999937, 43.492377020000049 ], [ -3.826730923999946, 43.497015692000048 ], [ -3.797027147999927, 43.492743231000077 ], [ -3.769154425999943, 43.479193427000041 ], [ -3.812652147999927, 43.464870510000083 ], [ -3.830962693999936, 43.456000067000048 ], [ -3.844309048999946, 43.445095119000086 ], [ -3.833851691999939, 43.435899156000062 ], [ -3.829253709999932, 43.43313222900008 ], [ -3.823841925999943, 43.43077220300006 ], [ -3.827259894999941, 43.430039781000062 ], [ -3.829986131999931, 43.430121161000045 ], [ -3.831532355999911, 43.429063218000067 ], [ -3.831288214999915, 43.424587307000081 ], [ -3.820220506999931, 43.424261786000045 ], [ -3.81118730399993, 43.425482489000046 ], [ -3.796498175999943, 43.43077220300006 ], [ -3.789540167999917, 43.43585846600007 ], [ -3.776193813999953, 43.449652411000045 ], [ -3.772287563999953, 43.452500718000067 ], [ -3.763498501999948, 43.450262762000079 ], [ -3.75413977799991, 43.440497137000079 ], [ -3.744984503999945, 43.438259182000081 ], [ -3.740712042999917, 43.442328192000048 ], [ -3.743031378999945, 43.451361395000049 ], [ -3.748890753999945, 43.460720119000086 ], [ -3.755523240999935, 43.465521552000041 ], [ -3.755523240999935, 43.471747137000079 ], [ -3.741525844999956, 43.47024160400008 ], [ -3.735747850999928, 43.468817450000074 ], [ -3.728871222999942, 43.465521552000041 ], [ -3.727162238999938, 43.470526434000078 ], [ -3.725819464999915, 43.470526434000078 ], [ -3.721424933999913, 43.471747137000079 ], [ -3.728871222999942, 43.479193427000041 ], [ -3.717925584999932, 43.48273346600007 ], [ -3.688384568999936, 43.48423899900007 ], [ -3.676991339999915, 43.489447333000044 ], [ -3.667062954999949, 43.496649481000077 ], [ -3.656076626999948, 43.500677802000041 ], [ -3.579416469999956, 43.518255927000041 ], [ -3.554351365999935, 43.516913153000075 ], [ -3.556263800999943, 43.499701239000046 ], [ -3.539051886999914, 43.498968817000048 ], [ -3.52562415299991, 43.49164459800005 ], [ -3.514719204999949, 43.483221747000073 ], [ -3.505360480999911, 43.479193427000041 ], [ -3.436634894999941, 43.470485744000086 ], [ -3.431507941999939, 43.466864325000074 ], [ -3.428293423999946, 43.461737372000073 ], [ -3.427154100999928, 43.455633856000077 ], [ -3.428618943999936, 43.446844794000071 ], [ -3.432606574999909, 43.445420640000066 ], [ -3.438872850999928, 43.446559963000084 ], [ -3.447010870999918, 43.445095119000086 ], [ -3.451161261999914, 43.447699286000045 ], [ -3.460601365999935, 43.452215887000079 ], [ -3.470041469999956, 43.454169012000079 ], [ -3.474354620999918, 43.448797919000071 ], [ -3.477772589999915, 43.443060614000046 ], [ -3.485829230999911, 43.437567450000074 ], [ -3.501698370999918, 43.43077220300006 ], [ -3.481800910999937, 43.42804596600007 ], [ -3.470448370999918, 43.416774807000081 ], [ -3.461089647999927, 43.412461656000062 ], [ -3.447010870999918, 43.43077220300006 ], [ -3.43618730399993, 43.419012762000079 ], [ -3.422230597999942, 43.418076890000066 ], [ -3.392486131999931, 43.424587307000081 ], [ -3.378041144999941, 43.422552802000041 ], [ -3.33031165299991, 43.410345770000049 ], [ -3.268950975999928, 43.404120184000078 ], [ -3.223540818999936, 43.391628322000088 ], [ -3.210519985999952, 43.389837958000044 ], [ -3.200021938999953, 43.385524807000081 ], [ -3.176909959999932, 43.366237697000088 ], [ -3.150868292999917, 43.360215562000064 ], [ -3.13149980399993, 43.35578034100007 ], [ -3.112375454999949, 43.354071356000077 ], [ -3.089507615999935, 43.366888739000046 ], [ -3.057850714999915, 43.352362372000073 ], [ -3.008168097999942, 43.320908921000068 ], [ -3.008168097999942, 43.32843659100007 ], [ -3.020008917999917, 43.352565822000088 ], [ -3.023426886999914, 43.364935614000046 ], [ -3.029286261999914, 43.372137762000079 ], [ -3.029286261999914, 43.376166083000044 ], [ -3.024322068999936, 43.380926825000074 ], [ -3.010975714999915, 43.384141343000067 ], [ -2.999419725999928, 43.394354559000078 ], [ -2.955922003999945, 43.413845119000086 ], [ -2.939930792999917, 43.41710032800006 ], [ -2.939930792999917, 43.424587307000081 ], [ -2.946685350999928, 43.424587307000081 ], [ -2.946685350999928, 43.43077220300006 ], [ -2.930083787999934, 43.437933661000045 ], [ -2.905262824999909, 43.439886786000045 ], [ -2.854237433999913, 43.438259182000081 ], [ -2.806996222999942, 43.441677151000079 ], [ -2.785959438999953, 43.447862046000068 ], [ -2.768625454999949, 43.452500718000067 ], [ -2.755848761999914, 43.450262762000079 ], [ -2.734934048999946, 43.438788153000075 ], [ -2.715199347999942, 43.424505927000041 ], [ -2.706532355999911, 43.413682359000063 ], [ -2.694935675999943, 43.388617255000042 ], [ -2.691029425999943, 43.367539781000062 ], [ -2.687001105999911, 43.371446031000062 ], [ -2.679269985999952, 43.389837958000044 ], [ -2.678456183999913, 43.394639390000066 ], [ -2.678781704999949, 43.400580145000049 ], [ -2.677805141999954, 43.406195380000042 ], [ -2.672963019999941, 43.410345770000049 ], [ -2.661203579999949, 43.411932684000078 ], [ -2.649322068999936, 43.409531968000067 ], [ -2.638091600999928, 43.405951239000046 ], [ -2.606922980999911, 43.40188222900008 ], [ -2.548898891999954, 43.383612372000073 ], [ -2.506011522999927, 43.377142645000049 ], [ -2.483509894999941, 43.37063222900008 ], [ -2.464426235999952, 43.349229234000063 ], [ -2.36742102799991, 43.315700588000084 ], [ -2.327056443999936, 43.306830145000049 ], [ -2.284657355999911, 43.303493557000081 ], [ -2.241118943999936, 43.307237046000068 ], [ -2.207875128999945, 43.31399160400008 ], [ -2.196278449999909, 43.31476471600007 ], [ -2.190419074999909, 43.311590887000079 ], [ -2.183461066999939, 43.304510809000078 ], [ -2.17446855399993, 43.297430731000077 ], [ -2.162220831999946, 43.294256903000075 ], [ -2.159575975999928, 43.295355536000045 ], [ -2.156320766999954, 43.297674872000073 ], [ -2.151519334999932, 43.299994208000044 ], [ -2.14484615799995, 43.30109284100007 ], [ -2.140044725999928, 43.298895575000074 ], [ -2.137806769999941, 43.294216213000084 ], [ -2.134836391999954, 43.289577541000085 ], [ -2.127797003999945, 43.28742096600007 ], [ -2.098866339999915, 43.30414459800005 ], [ -2.086415167999917, 43.307237046000068 ], [ -2.065541144999941, 43.309597072000088 ], [ -1.994618292999917, 43.32843659100007 ], [ -1.971791144999941, 43.339219468000067 ], [ -1.960357225999928, 43.343085028000075 ], [ -1.94562740799995, 43.342637437000064 ], [ -1.933705206999946, 43.335638739000046 ], [ -1.926584438999953, 43.325873114000046 ], [ -1.918690558999913, 43.320990302000041 ], [ -1.904652472999942, 43.32843659100007 ], [ -1.910227016999954, 43.331366278000075 ], [ -1.918853318999936, 43.338568427000041 ], [ -1.925689256999931, 43.342637437000064 ], [ -1.884917772999927, 43.356024481000077 ], [ -1.847401495999918, 43.380926825000074 ], [ -1.811268683999913, 43.395086981000077 ], [ -1.8, 43.389141540309957 ], [ -1.8, 40.6 ], [ -6.842876056072127, 40.6 ], [ -6.821310180999944, 40.630182597000086 ] ] ] } },
{ "type": "Feature", "properties": { "ADMIN": "Portugal" }, "geometry": { "type": "Polygon", "coordinates": [ [ [ -8.753000454999949, 40.640814520000049 ], [ -8.750355597999942, 40.643947658000059 ], [ -8.744618292999917, 40.646918036000045 ], [ -8.743967251999948, 40.625799872000073 ], [ -8.744618292999917, 40.619045315000051 ], [ -8.724680141999954, 40.644517320000034 ], [ -8.710275844999956, 40.653469143000052 ], [ -8.696156378999945, 40.646918036000045 ], [ -8.690012173999946, 40.646918036000045 ], [ -8.690012173999946, 40.653143622000073 ], [ -8.692372199999909, 40.65570709800005 ], [ -8.696400519999941, 40.661322333000044 ], [ -8.698801235999952, 40.667954820000034 ], [ -8.696156378999945, 40.673651434000078 ], [ -8.686390753999945, 40.677923895000049 ], [ -8.680775519999941, 40.674994208000044 ], [ -8.676869269999941, 40.669663804000038 ], [ -8.671986456999946, 40.666815497000073 ], [ -8.662098761999914, 40.669867255000042 ], [ -8.653635219999956, 40.67719147300005 ], [ -8.641590949999909, 40.694159247000073 ], [ -8.657460089999915, 40.701402085000041 ], [ -8.66633053299995, 40.71320221600007 ], [ -8.663644985999952, 40.72406647300005 ], [ -8.644927537999934, 40.728908596000053 ], [ -8.621815558999913, 40.730658270000049 ], [ -8.603871222999942, 40.73578522300005 ], [ -8.588368292999917, 40.744208075000074 ], [ -8.572661912999934, 40.755560614000046 ], [ -8.589507615999935, 40.754706122000073 ], [ -8.614735480999911, 40.744940497000073 ], [ -8.635975714999915, 40.741603908000059 ], [ -8.639881964999915, 40.740057684000078 ], [ -8.645375128999945, 40.739732164000088 ], [ -8.668446417999917, 40.747463283000059 ], [ -8.675689256999931, 40.755560614000046 ], [ -8.683705206999946, 40.783107815000051 ], [ -8.645578579999949, 40.82367584800005 ], [ -8.655262824999909, 40.844916083000044 ], [ -8.656971808999913, 40.828558661000045 ], [ -8.663197394999941, 40.814927476000037 ], [ -8.670521613999938, 40.81118398600006 ], [ -8.675689256999931, 40.824448960000041 ], [ -8.689808722999942, 40.804103908000059 ], [ -8.700550910999937, 40.77798086100006 ], [ -8.707386847999942, 40.75031159100007 ], [ -8.709828253999945, 40.725165106000077 ], [ -8.714263475999928, 40.709051825000074 ], [ -8.725087042999917, 40.685980536000045 ], [ -8.738433397999927, 40.664496161000045 ], [ -8.750803188999953, 40.653143622000073 ], [ -8.655100063999953, 40.993801174000055 ], [ -8.655262824999909, 41.030503648000035 ], [ -8.667103644999941, 41.097560940000051 ], [ -8.666127081999946, 41.132757880000042 ], [ -8.648345506999931, 41.146633205000057 ], [ -8.648345506999931, 41.152777411000045 ], [ -8.68578040299991, 41.159491278000075 ], [ -8.705189581999946, 41.186916408000059 ], [ -8.718373175999943, 41.221502997000073 ], [ -8.737172003999945, 41.249660549000055 ], [ -8.732289191999939, 41.262925523000035 ], [ -8.73460852799991, 41.27407461100006 ], [ -8.740061001999948, 41.284979559000078 ], [ -8.744618292999917, 41.297430731000077 ], [ -8.74445553299995, 41.328111070000034 ], [ -8.749134894999941, 41.337795315000051 ], [ -8.756132205999961, 41.34054 ], [ -8.760324673999946, 41.350897528000075 ], [ -8.764027472999942, 41.361314195000034 ], [ -8.778146938999953, 41.379339911000045 ], [ -8.783802863999938, 41.393866278000075 ], [ -8.783773362999909, 41.406108551000045 ], [ -8.785563586999956, 41.434878223000055 ], [ -8.774849231999951, 41.46833848600005 ], [ -8.786469626999917, 41.491067096000052 ], [ -8.788260342999934, 41.511798431000045 ], [ -8.792733322999936, 41.525838223000051 ], [ -8.79542022399994, 41.542552774000058 ], [ -8.808338995999918, 41.572943427000041 ], [ -8.812855597999942, 41.595404364000046 ], [ -8.819488084999932, 41.611883856000077 ], [ -8.820449, 41.630096826000056 ], [ -8.828603353999938, 41.648157496000067 ], [ -8.830511327999943, 41.671585564000054 ], [ -8.827056443999936, 41.682806708000044 ], [ -8.804676886999914, 41.689276434000078 ], [ -8.743275519999941, 41.696966864000046 ], [ -8.725941535999937, 41.703111070000034 ], [ -8.710031704999949, 41.711859442000048 ], [ -8.696156378999945, 41.721991278000075 ], [ -8.80687415299991, 41.696966864000046 ], [ -8.829986131999931, 41.694647528000075 ], [ -8.842884894999941, 41.695786851000037 ], [ -8.861112562999949, 41.70436810700005 ], [ -8.880306243999939, 41.736861603000079 ], [ -8.880317002999959, 41.765532692000079 ], [ -8.872038936999957, 41.810568662000037 ], [ -8.878895636999914, 41.839016018000052 ], [ -8.874745245999918, 41.849554755000042 ], [ -8.86750240799995, 41.859116929000038 ], [ -8.796620245999918, 41.903306382000039 ], [ -8.762766079999949, 41.93195221600007 ], [ -8.750803188999953, 41.968980210000041 ], [ -8.739591023999935, 41.975113424000099 ], [ -8.717008422999896, 41.983769226000064 ], [ -8.69127355899991, 41.989608664000045 ], [ -8.670809691999864, 41.999814758000113 ], [ -8.663213256999882, 42.009891663000062 ], [ -8.65256791199991, 42.031440736000022 ], [ -8.643886271999946, 42.041491802000039 ], [ -8.626884724999911, 42.051026103000126 ], [ -8.609418090999981, 42.053661601000059 ], [ -8.572805337999938, 42.054410909000055 ], [ -8.554434366999942, 42.060069478000074 ], [ -8.520017862999879, 42.077716980000091 ], [ -8.501207641999883, 42.083091330000045 ], [ -8.346746785999898, 42.101694845000097 ], [ -8.329951944999948, 42.108438619000125 ], [ -8.304268757999864, 42.125827739000059 ], [ -8.295380411999957, 42.1300910450001 ], [ -8.287835652999888, 42.131434632000079 ], [ -8.270679076999926, 42.132003072000131 ], [ -8.252333943999957, 42.137584128000057 ], [ -8.222361612999919, 42.153629660000021 ], [ -8.213395751999883, 42.1440178430001 ], [ -8.204326537999918, 42.128799133000072 ], [ -8.207375447999937, 42.085778504000061 ], [ -8.204016479999922, 42.069552104000067 ], [ -8.19130407699987, 42.062084859000024 ], [ -8.176162882999961, 42.06526296 ], [ -8.158386189999931, 42.071386617000073 ], [ -8.137612263999898, 42.072911072000082 ], [ -8.118440307999975, 42.066864929000033 ], [ -8.103195760999938, 42.055806173000022 ], [ -8.095082559999923, 42.040923361000083 ], [ -8.097356322999929, 42.023482565000037 ], [ -8.108027506999861, 42.010899353000028 ], [ -8.12391800899988, 42.000899964000027 ], [ -8.152960163999865, 41.986818136000082 ], [ -8.182131509999891, 41.965424093000067 ], [ -8.220707966999953, 41.922713521000063 ], [ -8.23021643099986, 41.904678447000052 ], [ -8.231715047999955, 41.886049093000011 ], [ -8.220397908999871, 41.86819488600004 ], [ -8.184586140999954, 41.857730408000108 ], [ -8.177041381999885, 41.849849752000054 ], [ -8.175387735999948, 41.836594747000063 ], [ -8.179265100999942, 41.812612525000034 ], [ -8.179573526999889, 41.810704854000036 ], [ -8.093480590999889, 41.806725769000039 ], [ -8.050445716999889, 41.815986438000053 ], [ -8.048573770999894, 41.816389262000072 ], [ -8.015707560999942, 41.841891581000098 ], [ -8.005889037999907, 41.853958029000083 ], [ -7.993641723999872, 41.863673198000029 ], [ -7.979430704999913, 41.868608297000051 ], [ -7.963359334999922, 41.866618755000033 ], [ -7.94475581899988, 41.866954652000018 ], [ -7.93535070799993, 41.879951274000049 ], [ -7.930493122999906, 41.896668600000098 ], [ -7.92579056799994, 41.908166606000108 ], [ -7.906101846999888, 41.913851014000059 ], [ -7.903362995999942, 41.886824240000109 ], [ -7.896593383999885, 41.857937113000062 ], [ -7.864812377999954, 41.857885437000064 ], [ -7.857887735999981, 41.863776551000043 ], [ -7.854425414999923, 41.870261943000017 ], [ -7.849722859999872, 41.875765483000109 ], [ -7.839232543999913, 41.878375143000099 ], [ -7.812154092999947, 41.877134909000077 ], [ -7.750142374999911, 41.888374532000043 ], [ -7.722030395999866, 41.899252421000099 ], [ -7.706372436999914, 41.896255188000069 ], [ -7.67867386899988, 41.881346537000027 ], [ -7.661155557999933, 41.87491282200007 ], [ -7.607360391999919, 41.873181662000022 ], [ -7.622811644999899, 41.841736552000057 ], [ -7.622191528999849, 41.832331442000012 ], [ -7.606068480999852, 41.825535991000052 ], [ -7.588395141999854, 41.8242182420001 ], [ -7.567104451999882, 41.826595358000063 ], [ -7.546692260999919, 41.832047221000025 ], [ -7.531551066999924, 41.84016042100005 ], [ -7.526331746999887, 41.847369283 ], [ -7.525246540999888, 41.854164734000037 ], [ -7.523282836999954, 41.860159201000059 ], [ -7.515841430999927, 41.864990947000067 ], [ -7.508141642999959, 41.864939270000079 ], [ -7.493000447999947, 41.856903586000087 ], [ -7.483285278999887, 41.856205954000089 ], [ -7.469384318999914, 41.852536926000099 ], [ -7.456568562999848, 41.839230245000081 ], [ -7.446956746999916, 41.821841126000052 ], [ -7.442719278999959, 41.805950623000044 ], [ -7.429541788999899, 41.814503073000068 ], [ -7.405408894999937, 41.835199484000086 ], [ -7.391921345999975, 41.842046611000043 ], [ -7.376831827999865, 41.84403615300009 ], [ -7.340503295999895, 41.843209331000068 ], [ -7.322468220999895, 41.845405579000058 ], [ -7.251464802999919, 41.863699036000028 ], [ -7.218650268999909, 41.879046937000098 ], [ -7.209316117999947, 41.889160873 ], [ -7.19792801899996, 41.90150034600002 ], [ -7.195654255999955, 41.917365011000115 ], [ -7.20211381099989, 41.949740295000097 ], [ -7.19994339999991, 41.963718771000103 ], [ -7.192605346999926, 41.969609884000093 ], [ -7.177309122999873, 41.978369039000071 ], [ -7.159739135999899, 41.985732931000072 ], [ -7.1453730879999, 41.987489929000063 ], [ -7.113178670999929, 41.972426250000083 ], [ -7.082741251999948, 41.95278920500003 ], [ -7.051270303999928, 41.942014669000017 ], [ -7.015768594999884, 41.953667705000086 ], [ -6.992359170999919, 41.966380107000035 ], [ -6.98345618299993, 41.962996166 ], [ -6.96951818799991, 41.957698466000082 ], [ -6.945126911999893, 41.943358257000071 ], [ -6.917118285999948, 41.939094950000097 ], [ -6.854951537999881, 41.942944845000071 ], [ -6.831232055999919, 41.953951925000055 ], [ -6.824927530999929, 41.983769226000064 ], [ -6.794386759999924, 41.979712626000051 ], [ -6.757903197999894, 41.937570496000021 ], [ -6.727982543999872, 41.930852559000087 ], [ -6.656772419999925, 41.933074647000083 ], [ -6.622821003999917, 41.94095530200012 ], [ -6.609488484999872, 41.962323507000022 ], [ -6.585148885999956, 41.954649557000053 ], [ -6.571661335999892, 41.942608948000057 ], [ -6.567630574999896, 41.926072490000067 ], [ -6.575795450999919, 41.882896831000053 ], [ -6.567888956999894, 41.875868836000038 ], [ -6.550060587999923, 41.873879293000087 ], [ -6.524222371999912, 41.867419740000045 ], [ -6.53574621599995, 41.848583679000015 ], [ -6.560137491999882, 41.766883240000126 ], [ -6.564374958999935, 41.75750396800008 ], [ -6.571506306999964, 41.749209900000025 ], [ -6.577397419999954, 41.73972727500005 ], [ -6.574348510999926, 41.731045634000097 ], [ -6.567682250999923, 41.722441508000045 ], [ -6.563083048999886, 41.713036397000096 ], [ -6.560499226999866, 41.694458721000061 ], [ -6.555279906999942, 41.674899191000023 ], [ -6.541533976999915, 41.658905335000085 ], [ -6.513421996999881, 41.650921326000017 ], [ -6.503035033999964, 41.653091737000111 ], [ -6.488048868999897, 41.658801982000071 ], [ -6.474354614999868, 41.665933330000101 ], [ -6.467740030999948, 41.672056987000062 ], [ -6.46081538999988, 41.676552836000084 ], [ -6.447069457999959, 41.676242778000088 ], [ -6.365937459999913, 41.663607890000051 ], [ -6.317103230999948, 41.650146180000021 ], [ -6.272248087999856, 41.628235372000049 ], [ -6.230080118999894, 41.59490407300008 ], [ -6.216127481999905, 41.580098775000081 ], [ -6.205947224999932, 41.570280253000092 ], [ -6.253644571999899, 41.517518616000061 ], [ -6.279534463999937, 41.497003072 ], [ -6.285890665999943, 41.486874492000041 ], [ -6.285167194999872, 41.478967998000101 ], [ -6.282480020999941, 41.47230173800007 ], [ -6.282945108999854, 41.465635478000067 ], [ -6.321030639999918, 41.419591777000065 ], [ -6.321133991999943, 41.411013489000126 ], [ -6.352346557999908, 41.40925649100005 ], [ -6.366247517999881, 41.405174053000039 ], [ -6.379166625999915, 41.397319234000108 ], [ -6.376169392999884, 41.396854146000081 ], [ -6.37554927599993, 41.39080800400005 ], [ -6.376737832999936, 41.383004863000039 ], [ -6.379166625999915, 41.377475485000033 ], [ -6.3831973879999, 41.376545309000065 ], [ -6.395496377999933, 41.37840566000007 ], [ -6.399578816999849, 41.377475485000033 ], [ -6.430998086999892, 41.33902821900007 ], [ -6.463140828999911, 41.31412017800001 ], [ -6.495852010999897, 41.294948222000087 ], [ -6.554453083999931, 41.275621237000038 ], [ -6.563496459999897, 41.270711975000026 ], [ -6.628918823999868, 41.269936829000088 ], [ -6.646643839999882, 41.267611390000056 ], [ -6.658219359999919, 41.257844544000122 ], [ -6.693772745999894, 41.217381897000038 ], [ -6.701265828999908, 41.202447408000054 ], [ -6.706950235999955, 41.194334209000047 ], [ -6.742245238999942, 41.17144154900005 ], [ -6.755216023999878, 41.158832500000116 ], [ -6.758988403999894, 41.151752828 ], [ -6.756507934999917, 41.127051494000071 ], [ -6.764776163999954, 41.10886139000003 ], [ -6.804360310999925, 41.064419658000062 ], [ -6.818002888999928, 41.054136048000075 ], [ -6.845288044999933, 41.051913961000068 ], [ -6.90683467599996, 41.056099752000094 ], [ -6.927447856999947, 41.048097584000047 ], [ -6.927866983999877, 41.04793487600007 ], [ -6.931794392999961, 41.029124654000057 ], [ -6.942491414999949, 41.015998840000108 ], [ -6.940424356999898, 41.003389791000089 ], [ -6.930605834999938, 40.992072652 ], [ -6.899238240999921, 40.966751201000122 ], [ -6.885182251999879, 40.948922832000065 ], [ -6.863633178999919, 40.908305156000054 ], [ -6.855261596999867, 40.88722117200011 ], [ -6.847045043999913, 40.878901266000057 ], [ -6.832058877999941, 40.875904033000054 ], [ -6.821155151999903, 40.870064596000063 ], [ -6.81619421399995, 40.856835429000071 ], [ -6.82032832799996, 40.844226380000023 ], [ -6.836658080999911, 40.840247294000065 ], [ -6.838053343999889, 40.814925842000079 ], [ -6.836813109999952, 40.808311260000082 ], [ -6.833505818999953, 40.797820943000019 ], [ -6.834539347999936, 40.792239889000101 ], [ -6.837278197999865, 40.786762187000122 ], [ -6.839138549999888, 40.776891989000049 ], [ -6.839138549999888, 40.75751332600008 ], [ -6.836968139999897, 40.743302308000111 ], [ -6.824307413999861, 40.710694478000065 ], [ -6.816245889999948, 40.677156474000029 ], [ -6.814230508999913, 40.659328105 ], [ -6.814282185999929, 40.647184143000104 ], [ -6.821310180999944, 40.630182597000086 ], [ -6.842876056072127, 40.6 ], [ -8.761956865163629, 40.6 ], [ -8.753000454999949, 40.640814520000049 ] ] ] } }
]
}
