{"type":"FeatureCollection","features":[{"type":"Feature","properties":{"id":"baixo-mino","zona":"Baixo Miño","clase":"Más favorable","activa":true,"portugal":false,"lat":41.991550000000004,"lon":-8.726199999999999},"geometry":{"type":"Polygon","coordinates":[[[-8.8996,42.1037],[-8.8918,42.0824],[-8.8976,42.0674],[-8.8832,42.0404],[-8.8888,42.0257],[-8.8835,42.0057],[-8.8771,42.0024],[-8.8874,41.9871],[-8.8885,41.9357],[-8.8749,41.8993],[-8.8821,41.881],[-8.8733,41.8699],[-8.851,41.8771],[-8.8184,41.9113],[-8.7857,41.9174],[-8.7579,41.932],[-8.7482,41.9419],[-8.7459,41.9646],[-8.7352,41.9714],[-8.6773,41.9921],[-8.6613,42.0033],[-8.6589,42.0271],[-8.6399,42.0456],[-8.5953,42.0569],[-8.5812,42.0519],[-8.5552,42.0531],[-8.5528,42.065],[-8.5716,42.0679],[-8.5761,42.0747],[-8.5934,42.0649],[-8.6135,42.073],[-8.608,42.0835],[-8.6357,42.0893],[-8.6318,42.0918],[-8.6394,42.1009],[-8.6364,42.1132],[-8.6671,42.1088],[-8.6809,42.1011],[-8.6767,42.0953],[-8.689,42.0868],[-8.7107,42.0856],[-8.7266,42.0727],[-8.7305,42.0612],[-8.7917,42.0647],[-8.8269,42.0487],[-8.8331,42.0542],[-8.8313,42.0703],[-8.8518,42.078],[-8.8765,42.0745],[-8.8766,42.084],[-8.8839,42.0878],[-8.889,42.102],[-8.8996,42.1037]]]}},{"type":"Feature","properties":{"id":"val-minor","zona":"Val Miñor","clase":"Más favorable","activa":false,"portugal":false,"lat":42.111149999999995,"lon":-8.7926},"geometry":{"type":"MultiPolygon","coordinates":[[[[-8.9007,42.1099],[-8.8766,42.084],[-8.8765,42.0745],[-8.8518,42.078],[-8.8313,42.0703],[-8.8331,42.0542],[-8.8269,42.0487],[-8.7917,42.0647],[-8.7305,42.0612],[-8.7266,42.0727],[-8.7107,42.0856],[-8.6982,42.0836],[-8.6845,42.091],[-8.7039,42.1556],[-8.716,42.1554],[-8.7586,42.1736],[-8.8185,42.1655],[-8.8304,42.1532],[-8.8379,42.1587],[-8.8501,42.1571],[-8.8474,42.1482],[-8.8293,42.1479],[-8.8207,42.1424],[-8.8168,42.1351],[-8.8274,42.1215],[-8.8185,42.1215],[-8.8146,42.1157],[-8.8363,42.1124],[-8.8462,42.1185],[-8.8443,42.1251],[-8.8526,42.1282],[-8.854,42.1224],[-8.8782,42.1113],[-8.8951,42.114],[-8.9007,42.1099]],[[-8.8154,42.1175],[-8.8068,42.1127],[-8.8118,42.1152],[-8.8154,42.1175]]],[[[-8.8665,42.1451],[-8.8629,42.1449],[-8.8626,42.1474],[-8.8665,42.1451]]],[[[-8.8579,42.146],[-8.8529,42.1457],[-8.8549,42.1488],[-8.8579,42.146]]]]}},{"type":"Feature","properties":{"id":"vigo-e-ria","zona":"Vigo e ría","clase":"Favorable","activa":false,"portugal":false,"lat":42.2596,"lon":-8.7035},"geometry":{"type":"MultiPolygon","coordinates":[[[[-8.9187,42.251],[-8.9071,42.2376],[-8.9093,42.219],[-8.9174,42.2137],[-8.9063,42.2124],[-8.9001,42.2157],[-8.906,42.2232],[-8.8951,42.2274],[-8.9004,42.2304],[-8.9021,42.2438],[-8.9187,42.251]]],[[[-8.9132,42.2057],[-8.9126,42.1949],[-8.9063,42.1907],[-8.8893,42.1907],[-8.9086,42.2074],[-8.9132,42.2057]]],[[[-8.9115,42.1796],[-8.9107,42.1776],[-8.9085,42.1782],[-8.9115,42.1796]]],[[[-8.819,42.1682],[-8.8156,42.1644],[-8.7524,42.173],[-8.716,42.1554],[-8.7039,42.1556],[-8.6967,42.1324],[-8.6717,42.1527],[-8.6761,42.17],[-8.6686,42.1797],[-8.6662,42.2058],[-8.6316,42.223],[-8.6269,42.2308],[-8.6107,42.23],[-8.6067,42.2426],[-8.5948,42.2429],[-8.5912,42.2648],[-8.5648,42.2801],[-8.5655,42.3069],[-8.5235,42.3281],[-8.5211,42.3384],[-8.5313,42.3371],[-8.5415,42.3431],[-8.5473,42.3396],[-8.5571,42.3624],[-8.5694,42.3703],[-8.5851,42.3432],[-8.6121,42.3443],[-8.6157,42.3393],[-8.6118,42.3365],[-8.6162,42.3307],[-8.5906,42.3271],[-8.614,42.3299],[-8.6112,42.3265],[-8.6218,42.3088],[-8.614,42.2971],[-8.6213,42.291],[-8.6126,42.2871],[-8.654,42.2885],[-8.669,42.279],[-8.678,42.2618],[-8.7035,42.2596],[-8.7126,42.241],[-8.7337,42.2404],[-8.7415,42.2274],[-8.7493,42.2263],[-8.751,42.2307],[-8.7426,42.2318],[-8.7532,42.2315],[-8.7512,42.2351],[-8.7629,42.2315],[-8.761,42.2257],[-8.7543,42.2257],[-8.7751,42.2226],[-8.7804,42.2032],[-8.7949,42.1974],[-8.8001,42.2038],[-8.8051,42.2001],[-8.7965,42.194],[-8.8132,42.1913],[-8.819,42.1682]]],[[[-8.6907,42.3454],[-8.6873,42.325],[-8.6568,42.2929],[-8.6518,42.2982],[-8.6618,42.3121],[-8.6363,42.3262],[-8.6446,42.3382],[-8.6324,42.3537],[-8.6254,42.3457],[-8.6158,42.35],[-8.6205,42.3722],[-8.6088,42.3929],[-8.6388,42.3932],[-8.6676,42.3776],[-8.6776,42.352],[-8.6907,42.3454]]]]}},{"type":"Feature","properties":{"id":"o-morrazo","zona":"O Morrazo","clase":"Favorable","activa":false,"portugal":false,"lat":42.32875,"lon":-8.80425},"geometry":{"type":"MultiPolygon","coordinates":[[[[-8.9496,42.3676],[-8.9454,42.3549],[-8.9362,42.3565],[-8.9204,42.4018],[-8.9254,42.3949],[-8.9321,42.3982],[-8.9354,42.3876],[-8.9462,42.3807],[-8.9412,42.3682],[-8.9496,42.3676]]],[[[-8.939,42.346],[-8.9382,42.341],[-8.9318,42.3451],[-8.9332,42.349],[-8.939,42.346]]],[[[-8.8743,42.254],[-8.8632,42.2457],[-8.8551,42.2618],[-8.8363,42.2588],[-8.8271,42.2507],[-8.8143,42.2618],[-8.7924,42.2463],[-8.7876,42.2476],[-8.784,42.2626],[-8.7649,42.2582],[-8.7354,42.2729],[-8.7321,42.2865],[-8.7193,42.281],[-8.7171,42.2887],[-8.7113,42.276],[-8.6899,42.2799],[-8.676,42.2907],[-8.6589,42.2918],[-8.6887,42.3306],[-8.6907,42.3454],[-8.6776,42.352],[-8.6676,42.3776],[-8.6717,42.3858],[-8.6925,42.399],[-8.6985,42.3943],[-8.7021,42.3993],[-8.7101,42.3965],[-8.7257,42.3854],[-8.7299,42.3757],[-8.7446,42.3682],[-8.7554,42.3401],[-8.7846,42.3274],[-8.7999,42.3318],[-8.7999,42.339],[-8.8382,42.3396],[-8.8274,42.3329],[-8.8282,42.3226],[-8.8235,42.3138],[-8.8182,42.314],[-8.8235,42.2968],[-8.8229,42.2818],[-8.8168,42.2788],[-8.8213,42.2743],[-8.8304,42.2782],[-8.8382,42.2915],[-8.8471,42.2921],[-8.8538,42.3096],[-8.8587,42.3085],[-8.8629,42.2682],[-8.8743,42.254]],[[-8.7496,42.3129],[-8.742481760113556,42.316360255500356],[-8.7454,42.3142],[-8.7496,42.3129]]],[[[-8.7124,42.4107],[-8.7076,42.4076],[-8.7057,42.4118],[-8.7124,42.4107]]]]}},{"type":"Feature","properties":{"id":"pontevedra-e-sanxenxo","zona":"Pontevedra e Sanxenxo","clase":"Favorable","activa":false,"portugal":false,"lat":42.42805,"lon":-8.75},"geometry":{"type":"MultiPolygon","coordinates":[[[[-8.9451,42.4635],[-8.9293,42.449],[-8.9132,42.4629],[-8.8968,42.4615],[-8.8821,42.4554],[-8.8724,42.4401],[-8.8721,42.4626],[-8.8557,42.4712],[-8.8601,42.4826],[-8.8574,42.4957],[-8.8621,42.4957],[-8.8579,42.4974],[-8.8718,42.4957],[-8.8715,42.501],[-8.8899,42.4963],[-8.8918,42.489],[-8.8857,42.4921],[-8.8832,42.4882],[-8.9082,42.4746],[-8.9368,42.4799],[-8.9404,42.4768],[-8.936,42.4685],[-8.9451,42.4635]]],[[[-8.8821,42.424],[-8.8818,42.4146],[-8.8682,42.4143],[-8.8587,42.3979],[-8.8479,42.3976],[-8.839,42.3838],[-8.8321,42.3896],[-8.8265,42.386],[-8.8185,42.394],[-8.824,42.3982],[-8.8168,42.396],[-8.8149,42.4012],[-8.8054,42.3957],[-8.801,42.4004],[-8.7807,42.3957],[-8.7754,42.3876],[-8.7579,42.3974],[-8.7598,42.4065],[-8.7579,42.4018],[-8.7485,42.4026],[-8.7401,42.4137],[-8.714,42.4212],[-8.7046,42.4343],[-8.6954,42.4371],[-8.6882,42.4368],[-8.6815,42.4212],[-8.6732,42.4207],[-8.6712,42.4263],[-8.661,42.424],[-8.6515,42.434],[-8.6554,42.4235],[-8.6985,42.3993],[-8.6915,42.4004],[-8.6676,42.3776],[-8.6388,42.3932],[-8.6088,42.3929],[-8.6205,42.3722],[-8.6182,42.3488],[-8.5851,42.3432],[-8.5694,42.3703],[-8.595,42.3941],[-8.5812,42.4128],[-8.5594,42.4229],[-8.5549,42.4304],[-8.5803,42.4483],[-8.563,42.4714],[-8.5692,42.4871],[-8.5769,42.4867],[-8.5837,42.5102],[-8.6035,42.5129],[-8.6251,42.5111],[-8.6304,42.5016],[-8.6792,42.4866],[-8.6926,42.4788],[-8.6923,42.4736],[-8.6931,42.4797],[-8.7007,42.4819],[-8.7361,42.4387],[-8.7492,42.4397],[-8.758,42.4199],[-8.7865,42.4176],[-8.8011,42.4373],[-8.8173,42.4342],[-8.8279,42.4571],[-8.834,42.4579],[-8.8354,42.4518],[-8.8371,42.4588],[-8.8482,42.454],[-8.8443,42.4565],[-8.8488,42.4599],[-8.8479,42.456],[-8.869,42.4476],[-8.8712,42.4332],[-8.8807,42.4307],[-8.8738,42.4265],[-8.8821,42.424]]],[[[-8.8612,42.4643],[-8.8557,42.4615],[-8.8568,42.4646],[-8.8612,42.4643]]],[[[-8.8551,42.4551],[-8.851,42.4585],[-8.8546,42.4579],[-8.8551,42.4551]]],[[[-8.8535,42.4835],[-8.844,42.4849],[-8.8415,42.5007],[-8.8535,42.4835]]],[[[-8.8515,42.4674],[-8.8482,42.4651],[-8.8493,42.4674],[-8.8515,42.4674]]],[[[-8.8362,42.4899],[-8.8335,42.4899],[-8.8335,42.4971],[-8.8362,42.4899]]]]}},{"type":"Feature","properties":{"id":"o-salnes","zona":"O Salnés","clase":"Favorable","activa":false,"portugal":false,"lat":42.530550000000005,"lon":-8.80245},"geometry":{"type":"MultiPolygon","coordinates":[[[[-8.9174,42.5451],[-8.9121,42.544],[-8.9171,42.5474],[-8.9174,42.5451]]],[[[-8.9038,42.5399],[-8.9015,42.5371],[-8.8996,42.5435],[-8.9038,42.5399]]],[[[-8.8924,42.5679],[-8.8826,42.5579],[-8.8707,42.5604],[-8.8757,42.5513],[-8.8729,42.5451],[-8.8807,42.5404],[-8.8718,42.5324],[-8.8793,42.5351],[-8.8824,42.5293],[-8.8643,42.5251],[-8.8682,42.5435],[-8.8549,42.5465],[-8.8632,42.5515],[-8.856,42.5657],[-8.8632,42.5685],[-8.8712,42.564],[-8.8758,42.5746],[-8.8924,42.5679]]],[[[-8.8365,42.5529],[-8.8268,42.5418],[-8.8296,42.5196],[-8.8213,42.5185],[-8.8151,42.5249],[-8.8196,42.5076],[-8.8132,42.4979],[-8.8018,42.5048],[-8.7773,42.5021],[-8.7754,42.5139],[-8.7819,42.5239],[-8.7621,42.5211],[-8.756,42.5345],[-8.7383,42.5375],[-8.7373,42.5455],[-8.7099,42.5549],[-8.7045,42.563],[-8.6875,42.5579],[-8.7248,42.5774],[-8.7122,42.6007],[-8.7061,42.6269],[-8.699,42.6318],[-8.7256,42.6264],[-8.7474,42.6435],[-8.7535,42.6415],[-8.7779,42.614],[-8.766,42.6013],[-8.7715,42.5935],[-8.784,42.5976],[-8.7912,42.5857],[-8.7965,42.5863],[-8.7957,42.5801],[-8.8296,42.5754],[-8.8318,42.5621],[-8.819,42.5596],[-8.8257,42.5532],[-8.8337,42.5604],[-8.8365,42.5529]],[[-8.7966,42.5581],[-8.785,42.5631],[-8.7891,42.5606],[-8.7966,42.5581]],[[-8.7784,42.5317],[-8.7702,42.5387],[-8.768,42.5393],[-8.7784,42.5317]],[[-8.7555,42.5477],[-8.746853080568721,42.546631279620854],[-8.7472,42.5464],[-8.7555,42.5477]]],[[[-8.831,42.4849],[-8.8218,42.4585],[-8.8094,42.4609],[-8.8207,42.4585],[-8.8232,42.4529],[-8.8173,42.4342],[-8.8011,42.4373],[-8.7865,42.4176],[-8.758,42.4199],[-8.7488,42.4418],[-8.7644,42.4502],[-8.7619,42.4596],[-8.7724,42.4838],[-8.797579039793781,42.48657580151442],[-8.7991,42.4981],[-8.8047,42.5003],[-8.8118,42.4918],[-8.8251,42.4957],[-8.831,42.4849]]],[[[-8.791,42.6162],[-8.7868,42.6135],[-8.7779,42.6207],[-8.791,42.6162]]]]}},{"type":"Feature","properties":{"id":"barbanza-e-noia","zona":"Barbanza e Noia","clase":"Favorable","activa":false,"portugal":false,"lat":42.65545,"lon":-8.909099999999999},"geometry":{"type":"MultiPolygon","coordinates":[[[[-9.0932,42.636],[-9.0885,42.636],[-9.0926,42.6387],[-9.0932,42.636]]],[[[-9.0926,42.574],[-9.0738,42.5649],[-9.076,42.5715],[-9.0704,42.5743],[-9.0518,42.5749],[-9.0321,42.5515],[-9.0326,42.5438],[-9.0421,42.5351],[-9.0435,42.5182],[-9.0485,42.5171],[-9.0315,42.5207],[-9.0232,42.5165],[-9.0126,42.5235],[-9.0062,42.5135],[-9.0104,42.526],[-8.9982,42.529],[-8.9832,42.5435],[-8.9907,42.5638],[-8.9646,42.5676],[-8.9508,42.5851],[-8.9201,42.5865],[-8.9207,42.594],[-8.9321,42.5965],[-8.9371,42.6071],[-8.9326,42.6093],[-8.9301,42.6046],[-8.931,42.6135],[-8.9024,42.6329],[-8.9018,42.6426],[-8.8951,42.644],[-8.8993,42.6407],[-8.8849,42.6401],[-8.8738,42.6326],[-8.891,42.6135],[-8.8865,42.6101],[-8.8849,42.6149],[-8.8757,42.614],[-8.8568,42.6063],[-8.8618,42.6146],[-8.8582,42.6268],[-8.8396,42.629],[-8.8379,42.6346],[-8.861,42.6468],[-8.8549,42.6504],[-8.851,42.666],[-8.8399,42.6615],[-8.841479174147217,42.68591929982047],[-8.829,42.6662],[-8.8154,42.664],[-8.8249,42.646],[-8.8037,42.6368],[-8.7782,42.6418],[-8.7704,42.6518],[-8.7587,42.6474],[-8.7468,42.6507],[-8.744,42.6654],[-8.7266,42.6771],[-8.7303,42.6844],[-8.725,42.6893],[-8.7426,42.6895],[-8.7553,42.6964],[-8.7526,42.7035],[-8.7624,42.7091],[-8.7744,42.7281],[-8.7653,42.7442],[-8.7764,42.7456],[-8.8017,42.7174],[-8.8225,42.7124],[-8.8623,42.7274],[-8.92321381370826,42.72172151142355],[-8.9254,42.7286],[-8.9185,42.7307],[-8.9285,42.76],[-8.9221,42.7655],[-8.9133,42.7659],[-8.9134,42.77],[-8.9056,42.7586],[-8.9062,42.7496],[-8.8953,42.7471],[-8.89,42.7669],[-8.8728,42.7627],[-8.8706,42.7832],[-8.8489,42.7923],[-8.8491,42.8003],[-8.8312,42.809],[-8.8313,42.8245],[-8.8048,42.8272],[-8.7995,42.8342],[-8.8151,42.8454],[-8.8296,42.8477],[-8.8514,42.8372],[-8.8457,42.8321],[-8.8483,42.826],[-8.8593,42.8202],[-8.8674,42.8282],[-8.8763,42.8274],[-8.8788,42.8163],[-8.896,42.8151],[-8.9015,42.8015],[-8.8951,42.7965],[-8.8999,42.7907],[-8.8912,42.7896],[-8.8915,42.7807],[-8.909,42.7907],[-8.9179,42.789],[-8.9288,42.7837],[-8.9332,42.7775],[-8.9295,42.7743],[-8.9351,42.7785],[-8.9404,42.7738],[-8.9396,42.7668],[-8.9496,42.7621],[-8.9568,42.7454],[-8.9693,42.739],[-8.9757,42.7451],[-8.9896,42.7415],[-8.9946,42.7287],[-9.0088,42.7274],[-9.0132,42.7096],[-9.026,42.709],[-9.0343,42.6954],[-9.0296,42.6924],[-9.0321,42.6776],[-9.0457,42.6629],[-9.0404,42.6413],[-9.0546,42.6237],[-9.0663,42.6199],[-9.0621,42.6179],[-9.0632,42.6071],[-9.0818,42.5951],[-9.081,42.5815],[-9.0918,42.579],[-9.0926,42.574]],[[-8.9649,42.6633],[-8.9623,42.6683],[-8.9587,42.6749],[-8.9649,42.6633]]],[[[-9.0804,42.5196],[-9.0796,42.5165],[-9.0779,42.5165],[-9.0804,42.5196]]],[[[-9.0557,42.5068],[-9.0493,42.5054],[-9.0426,42.5132],[-9.0557,42.5068]]],[[[-9.0221,42.4729],[-9.014,42.4632],[-8.9987,42.469],[-9.0157,42.4876],[-9.0221,42.4729]]],[[[-9.0099,42.4993],[-9.0062,42.4943],[-9.0029,42.4968],[-9.0099,42.4993]]],[[[-9.0068,42.4921],[-9.004,42.4935],[-9.0062,42.4938],[-9.0068,42.4921]]],[[[-9.0035,42.4921],[-9.0018,42.4896],[-9.0015,42.4924],[-9.0035,42.4921]]],[[[-8.8785,42.6026],[-8.8765,42.6007],[-8.8765,42.6029],[-8.8785,42.6026]]]]}},{"type":"Feature","properties":{"id":"golfo-artabro-e-ferrol","zona":"Golfo Ártabro e Ferrol","clase":"Intermedio","activa":false,"portugal":false,"lat":43.4354,"lon":-8.2979},"geometry":{"type":"MultiPolygon","coordinates":[[[[-8.469,43.3582],[-8.4593,43.3497],[-8.4451,43.3476],[-8.4399,43.34],[-8.4538,43.3312],[-8.4559,43.3235],[-8.4374,43.3067],[-8.4149,43.3012],[-8.4223,43.3138],[-8.3796,43.3293],[-8.3868,43.3415],[-8.3787,43.3574],[-8.3918,43.3585],[-8.3874,43.361],[-8.3918,43.364],[-8.4032,43.3621],[-8.3846,43.3688],[-8.3954,43.3796],[-8.3918,43.3857],[-8.3996,43.3904],[-8.4121,43.3818],[-8.4035,43.3735],[-8.4087,43.3688],[-8.4385,43.3824],[-8.4465,43.3732],[-8.4599,43.371],[-8.4571,43.3607],[-8.469,43.3582]]],[[[-8.454,43.3776],[-8.4515,43.376],[-8.4451,43.3826],[-8.454,43.3776]]],[[[-8.3832,43.3404],[-8.3801,43.3315],[-8.366,43.3218],[-8.3519,43.3214],[-8.3522,43.3067],[-8.3264,43.304],[-8.2899,43.3146],[-8.2842,43.2911],[-8.2599,43.2843],[-8.2499,43.2761],[-8.231,43.2825],[-8.2309,43.3012],[-8.219,43.2998],[-8.2107,43.3104],[-8.2143,43.3162],[-8.2065,43.319],[-8.2301,43.3429],[-8.2501,43.3488],[-8.2529,43.3529],[-8.2449,43.3568],[-8.251,43.361],[-8.2454,43.3632],[-8.2599,43.3701],[-8.2643,43.3826],[-8.2954,43.3849],[-8.2971,43.3979],[-8.3068,43.4057],[-8.3496,43.3976],[-8.3443,43.3913],[-8.3549,43.3904],[-8.3501,43.3854],[-8.3562,43.3812],[-8.3376,43.3782],[-8.3454,43.3724],[-8.3399,43.3676],[-8.3476,43.3662],[-8.3526,43.3568],[-8.3474,43.3485],[-8.3626,43.341],[-8.3726,43.3443],[-8.3749,43.3393],[-8.3832,43.3404]]],[[[-8.3813,43.3674],[-8.3774,43.3662],[-8.3796,43.3676],[-8.3813,43.3674]]],[[[-8.3482,43.4632],[-8.339,43.4582],[-8.3174,43.4701],[-8.2999,43.4654],[-8.2985,43.4608],[-8.266,43.4674],[-8.2601,43.4735],[-8.2582,43.4893],[-8.2479,43.4932],[-8.2429,43.4896],[-8.2546,43.4851],[-8.256,43.4787],[-8.251,43.4846],[-8.2493,43.4768],[-8.241,43.4735],[-8.2335,43.4807],[-8.2357,43.4743],[-8.2249,43.4724],[-8.2126,43.4829],[-8.2063,43.4768],[-8.1915,43.481],[-8.1915,43.4857],[-8.2064,43.4907],[-8.2059,43.4997],[-8.191,43.5046],[-8.1965,43.5098],[-8.1922,43.5233],[-8.2207,43.5195],[-8.2204,43.5271],[-8.2361,43.541],[-8.2336,43.5478],[-8.2403,43.5544],[-8.2501,43.5506],[-8.2582,43.559],[-8.2726,43.5549],[-8.2826,43.5621],[-8.2962,43.5563],[-8.3068,43.5685],[-8.3162,43.5693],[-8.3257,43.5604],[-8.324,43.5546],[-8.3151,43.5554],[-8.3124,43.5451],[-8.3037,43.5468],[-8.3057,43.541],[-8.2985,43.541],[-8.2937,43.5335],[-8.3076,43.5232],[-8.3107,43.5276],[-8.3246,43.5246],[-8.3315,43.5074],[-8.3196,43.5024],[-8.3199,43.4932],[-8.3482,43.4632]]],[[[-8.3399,43.511],[-8.3368,43.5101],[-8.3376,43.5113],[-8.3399,43.511]]],[[[-8.3168,43.4449],[-8.2979,43.4354],[-8.281,43.4368],[-8.2579,43.4193],[-8.2446,43.4171],[-8.2385,43.4201],[-8.2446,43.4238],[-8.2382,43.4299],[-8.2224,43.4274],[-8.2165,43.4182],[-8.1966,43.4265],[-8.1958,43.4344],[-8.2129,43.4406],[-8.2223,43.4327],[-8.2329,43.4359],[-8.235,43.4465],[-8.2622,43.4431],[-8.2663,43.4514],[-8.273,43.4501],[-8.2838,43.4601],[-8.3124,43.4557],[-8.3124,43.4504],[-8.3035,43.4465],[-8.3168,43.4449]]],[[[-8.2207,43.3535],[-8.2104,43.3499],[-8.1983,43.3326],[-8.1805,43.3327],[-8.1508,43.3149],[-8.1308,43.3313],[-8.132,43.3479],[-8.1556,43.3368],[-8.1627,43.3421],[-8.1665,43.3507],[-8.1437,43.3616],[-8.1542,43.3774],[-8.1852,43.3757],[-8.1757,43.3917],[-8.1875,43.3942],[-8.1869,43.4001],[-8.1983,43.4004],[-8.2071,43.39],[-8.2185,43.3718],[-8.2054,43.3618],[-8.2207,43.3535]]]]}},{"type":"Feature","properties":{"id":"a-marina","zona":"A Mariña","clase":"Intermedio","activa":false,"portugal":false,"lat":43.6111,"lon":-7.385199999999999},"geometry":{"type":"MultiPolygon","coordinates":[[[[-7.7353,43.6213],[-7.7187,43.6121],[-7.7142,43.6202],[-7.6769,43.6098],[-7.6457,43.611],[-7.6391,43.6063],[-7.6403,43.6005],[-7.6297,43.5949],[-7.5968,43.6047],[-7.6081,43.5872],[-7.6038,43.5823],[-7.5803,43.579],[-7.5722,43.5856],[-7.5701,43.5814],[-7.5525,43.5849],[-7.5411,43.58],[-7.5355,43.586],[-7.531,43.5846],[-7.5366,43.5792],[-7.5322,43.5747],[-7.5168,43.5769],[-7.5187,43.5804],[-7.5057,43.5932],[-7.5041,43.5825],[-7.4688,43.5888],[-7.4356,43.5857],[-7.4121,43.5956],[-7.4027,43.6084],[-7.3593,43.5857],[-7.3839,43.5773],[-7.3977,43.5661],[-7.3917,43.5538],[-7.3805,43.5546],[-7.3635,43.5446],[-7.339,43.5222],[-7.2938,43.5221],[-7.2838,43.4921],[-7.2746,43.4895],[-7.2476,43.4607],[-7.236,43.4636],[-7.2248,43.4737],[-7.2246,43.4804],[-7.215,43.4843],[-7.1984,43.4721],[-7.169,43.4802],[-7.1418,43.4696],[-7.117,43.4726],[-7.0801,43.4616],[-7.0482,43.4774],[-7.054,43.4854],[-7.054,43.5037],[-7.0496,43.5201],[-7.0357,43.5343],[-7.0351,43.5507],[-7.0415,43.5571],[-7.0918,43.5557],[-7.1168,43.5635],[-7.1196,43.5557],[-7.1704,43.556],[-7.1762,43.564],[-7.2374,43.5693],[-7.2454,43.5651],[-7.2426,43.5518],[-7.2607,43.549],[-7.2695,43.5382],[-7.2621,43.551],[-7.2515,43.5554],[-7.2618,43.5588],[-7.246,43.5765],[-7.2949,43.5924],[-7.2932,43.5979],[-7.3049,43.6063],[-7.3085,43.6165],[-7.3374,43.6318],[-7.3349,43.6368],[-7.3504,43.6488],[-7.3465,43.6571],[-7.3574,43.6643],[-7.3554,43.6701],[-7.4037,43.6824],[-7.4076,43.6899],[-7.4343,43.6924],[-7.4387,43.6974],[-7.446,43.6938],[-7.4476,43.6999],[-7.4626,43.7021],[-7.4599,43.7126],[-7.4699,43.7029],[-7.479,43.7088],[-7.4765,43.7151],[-7.4585,43.7165],[-7.4701,43.7204],[-7.4662,43.7235],[-7.4899,43.7274],[-7.4901,43.7329],[-7.5015,43.7246],[-7.5112,43.7262],[-7.5149,43.7199],[-7.5237,43.7365],[-7.5349,43.7299],[-7.5471,43.7337],[-7.5576,43.7301],[-7.5507,43.7257],[-7.5515,43.7168],[-7.5649,43.7104],[-7.5832,43.7126],[-7.5865,43.7085],[-7.5776,43.6915],[-7.6032,43.6824],[-7.5954,43.6796],[-7.5999,43.6785],[-7.594,43.6693],[-7.6024,43.6585],[-7.5968,43.6688],[-7.6118,43.6724],[-7.614,43.6787],[-7.6132,43.6896],[-7.6051,43.6949],[-7.6057,43.7024],[-7.6111,43.6974],[-7.6149,43.7032],[-7.6068,43.7185],[-7.6237,43.7165],[-7.6304,43.7218],[-7.6268,43.7254],[-7.6349,43.7388],[-7.6296,43.7457],[-7.6379,43.7532],[-7.6474,43.7521],[-7.6521,43.7429],[-7.6704,43.7482],[-7.6762,43.739],[-7.6729,43.7357],[-7.6821,43.7299],[-7.6979,43.7332],[-7.6893,43.7107],[-7.7071,43.711],[-7.7014,43.7066],[-7.7072,43.7012],[-7.6984,43.6956],[-7.7024,43.6863],[-7.7191,43.6873],[-7.6908,43.6546],[-7.7012,43.644],[-7.7169,43.6454],[-7.7181,43.6333],[-7.7353,43.6213]]],[[[-7.6346,43.7582],[-7.6285,43.7574],[-7.6293,43.7615],[-7.6346,43.7582]]],[[[-7.4446,43.701],[-7.441,43.6999],[-7.4421,43.7018],[-7.4446,43.701]]],[[[-7.4424,43.7163],[-7.4379,43.7182],[-7.4387,43.719],[-7.4424,43.7163]]],[[[-7.4421,43.7154],[-7.4399,43.714],[-7.4368,43.7146],[-7.4421,43.7154]]],[[[-7.4407,43.6987],[-7.436,43.6971],[-7.4351,43.6999],[-7.4407,43.6987]]]]}},{"type":"Feature","properties":{"id":"asturias-occidente","zona":"Asturias Occidente","clase":"Intermedio","activa":false,"portugal":false,"lat":43.4851,"lon":-6.6432},"geometry":{"type":"MultiPolygon","coordinates":[[[[-7.0558,43.4724],[-7.0025,43.4742],[-7.0108,43.4573],[-7.0034,43.4498],[-6.9915,43.4491],[-6.9903,43.4397],[-6.9954,43.4376],[-6.9756,43.4167],[-6.9724,43.4262],[-6.9571,43.4365],[-6.9469,43.4349],[-6.9521,43.4196],[-6.9692,43.3991],[-6.9561,43.3738],[-6.9302,43.3859],[-6.8986,43.4215],[-6.9088,43.4349],[-6.9084,43.4501],[-6.8959,43.4591],[-6.8789,43.4578],[-6.8917,43.4712],[-6.8894,43.4675],[-6.8725,43.5062],[-6.8862,43.5122],[-6.8766,43.5214],[-6.8842,43.526],[-6.8747,43.5425],[-6.8812,43.5575],[-6.8754,43.564],[-6.8899,43.5713],[-6.9082,43.5679],[-6.9249,43.576],[-6.9307,43.571],[-6.946,43.5751],[-6.949,43.5654],[-6.9546,43.569],[-6.9635,43.561],[-6.9988,43.5554],[-6.994749818934299,43.55293145369891],[-7.0037,43.5582],[-7.0293,43.5574],[-7.0218,43.5485],[-7.0307,43.5424],[-7.0076,43.5293],[-7.0135,43.5246],[-7.0321,43.5282],[-7.0429,43.5032],[-7.0338,43.4976],[-7.0457,43.4901],[-7.0463,43.4774],[-7.0558,43.4724]],[[-6.917,43.4848],[-6.9138,43.486],[-6.9093,43.4859],[-6.917,43.4848]]],[[[-6.9896,43.5579],[-6.9849,43.5618],[-6.9887,43.5624],[-6.9896,43.5579]]],[[[-6.9504,43.5765],[-6.9479,43.5754],[-6.9476,43.5782],[-6.9504,43.5765]]],[[[-6.7361,43.5089],[-6.7352,43.4997],[-6.73,43.5008],[-6.7324,43.4968],[-6.7248,43.4936],[-6.7151,43.4992],[-6.701,43.4931],[-6.6645,43.4929],[-6.6432,43.4851],[-6.6451,43.4624],[-6.6577,43.4443],[-6.6377,43.4396],[-6.6309,43.4246],[-6.6102,43.4358],[-6.5986,43.4548],[-6.5586,43.4599],[-6.5312,43.4389],[-6.5147,43.4335],[-6.5093,43.4384],[-6.4942,43.4322],[-6.4738,43.4419],[-6.4656,43.436],[-6.4532,43.4391],[-6.4493,43.4289],[-6.4333,43.4237],[-6.4293,43.4082],[-6.3949,43.3982],[-6.3906,43.3986],[-6.3847,43.4197],[-6.3528,43.4401],[-6.3557,43.4435],[-6.3366,43.4674],[-6.3435,43.4733],[-6.3271,43.4834],[-6.3061,43.4808],[-6.2877,43.4998],[-6.2697,43.4976],[-6.2655,43.5066],[-6.2726,43.5132],[-6.2645,43.53],[-6.2691,43.5353],[-6.2591,43.5426],[-6.2735,43.5492],[-6.3233,43.531],[-6.3275,43.525],[-6.3491,43.5208],[-6.3524,43.528],[-6.334,43.5448],[-6.3447,43.5543],[-6.3701,43.5518],[-6.3663,43.5593],[-6.3765,43.5557],[-6.4171,43.559],[-6.4299,43.5526],[-6.4701,43.5707],[-6.476,43.5643],[-6.4718,43.5493],[-6.5026,43.5518],[-6.5126,43.5471],[-6.5226,43.551],[-6.5363,43.546],[-6.5418,43.5557],[-6.554,43.5526],[-6.5779,43.5585],[-6.5974,43.5538],[-6.6029,43.5565],[-6.6029,43.5662],[-6.6191,43.5587],[-6.6151,43.566],[-6.6262,43.5751],[-6.6454,43.5665],[-6.6607,43.569],[-6.6776,43.5593],[-6.6971,43.5643],[-6.7143,43.5621],[-6.7251,43.5551],[-6.7235,43.5309],[-6.7317,43.5259],[-6.7359,43.5134],[-6.7217,43.5089],[-6.7361,43.5089]]]]}},{"type":"Feature","properties":{"id":"asturias-centro","zona":"Asturias Centro","clase":"Más húmedo / nublado","activa":false,"portugal":false,"lat":43.55225,"lon":-5.9576},"geometry":{"type":"MultiPolygon","coordinates":[[[[-6.3524,43.528],[-6.3491,43.5208],[-6.3275,43.525],[-6.3233,43.531],[-6.2735,43.5492],[-6.2591,43.5426],[-6.2691,43.5353],[-6.2645,43.53],[-6.2726,43.5132],[-6.2655,43.5066],[-6.2697,43.4976],[-6.2583,43.4916],[-6.2353,43.4957],[-6.2138,43.5225],[-6.1865,43.5051],[-6.1747,43.5201],[-6.1699,43.5152],[-6.1432,43.5202],[-6.134,43.539],[-6.1221,43.5471],[-6.1151,43.5395],[-6.0925,43.5347],[-6.0759,43.5182],[-6.0849,43.5019],[-6.0827,43.4966],[-6.0513,43.4801],[-6.0452,43.4957],[-6.0328,43.496],[-6.0216,43.5093],[-6.0247,43.5164],[-6.0127,43.4983],[-5.9537,43.5206],[-5.9422,43.5338],[-5.9531,43.5366],[-5.9506,43.5699],[-5.9267,43.5816],[-5.9304,43.5921],[-5.9432,43.5932],[-5.9421,43.5865],[-5.9504,43.581],[-5.9662,43.5774],[-5.9757,43.5821],[-5.9826,43.5771],[-5.9882,43.581],[-5.9951,43.5721],[-5.9976,43.5793],[-6.0115,43.5796],[-6.0162,43.5874],[-6.0376,43.5835],[-6.0349,43.5788],[-6.076,43.5651],[-6.0751,43.5524],[-6.0804,43.5465],[-6.0735,43.539],[-6.0857,43.5357],[-6.0926,43.5378],[-6.0763,43.539],[-6.0862,43.5501],[-6.0776,43.5654],[-6.1162,43.5549],[-6.1507,43.5699],[-6.1896,43.5643],[-6.1882,43.5807],[-6.2026,43.5726],[-6.2076,43.586],[-6.2207,43.5788],[-6.2265,43.5899],[-6.2443,43.5971],[-6.2424,43.5893],[-6.2554,43.5782],[-6.2976,43.571],[-6.2954,43.5671],[-6.3035,43.5635],[-6.3393,43.5601],[-6.3447,43.5543],[-6.3342,43.5415],[-6.3524,43.528]]],[[[-6.0343,43.5893],[-6.031,43.589],[-6.0304,43.5907],[-6.0343,43.5893]]],[[[-5.9465,43.5954],[-5.9176,43.5913],[-5.9214,43.5885],[-5.9179,43.5838],[-5.882,43.5743],[-5.8768,43.5693],[-5.8827,43.5574],[-5.8624,43.5555],[-5.847,43.5475],[-5.8627,43.5285],[-5.839,43.5098],[-5.8211,43.504],[-5.8151,43.4974],[-5.8182,43.491],[-5.787,43.476],[-5.7796,43.4633],[-5.7658,43.4613],[-5.7475,43.4478],[-5.7301,43.4499],[-5.7257,43.4574],[-5.7175,43.4511],[-5.6978,43.466],[-5.6824,43.454],[-5.6452,43.4549],[-5.624,43.443],[-5.5854,43.4432],[-5.5848,43.486],[-5.5704,43.5026],[-5.5628,43.5017],[-5.5749,43.5179],[-5.574,43.5257],[-5.5868,43.5327],[-5.5836,43.5383],[-5.5915,43.5479],[-5.6093,43.5499],[-5.6132,43.5568],[-5.6199,43.5579],[-5.6279,43.5504],[-5.639,43.5524],[-5.6479,43.5454],[-5.6454,43.5401],[-5.6579,43.5421],[-5.6646,43.5507],[-5.6701,43.5415],[-5.6924,43.5432],[-5.6835,43.5588],[-5.696,43.5507],[-5.6924,43.5557],[-5.6999,43.5671],[-5.6924,43.5635],[-5.6829,43.5693],[-5.6965,43.5676],[-5.6982,43.5757],[-5.7168,43.5685],[-5.7599,43.5868],[-5.7593,43.5949],[-5.7654,43.594],[-5.7712,43.6021],[-5.7688,43.6071],[-5.791,43.614],[-5.7801,43.6276],[-5.7937,43.6299],[-5.794,43.6368],[-5.8057,43.6351],[-5.8093,43.629],[-5.8107,43.6424],[-5.8288,43.6404],[-5.834,43.6543],[-5.8401,43.6535],[-5.8399,43.6615],[-5.8571,43.6565],[-5.8582,43.6374],[-5.866,43.6315],[-5.886,43.6226],[-5.8996,43.6285],[-5.9151,43.6243],[-5.9113,43.6157],[-5.9174,43.6037],[-5.9251,43.5988],[-5.9418,43.6007],[-5.9465,43.5954]]]]}},{"type":"Feature","properties":{"id":"asturias-oriente","zona":"Asturias Oriente","clase":"Más húmedo / nublado","activa":false,"portugal":false,"lat":43.44945,"lon":-5.0508500000000005},"geometry":{"type":"MultiPolygon","coordinates":[[[[-5.5912,43.5476],[-5.5836,43.5383],[-5.5868,43.5327],[-5.574,43.5257],[-5.5749,43.5179],[-5.5628,43.5017],[-5.5704,43.5026],[-5.5848,43.486],[-5.5854,43.4432],[-5.5647,43.4263],[-5.5116,43.4219],[-5.4996,43.4137],[-5.4477,43.4114],[-5.4368,43.4195],[-5.4351,43.4351],[-5.412,43.4375],[-5.3919,43.4227],[-5.3765,43.4208],[-5.3661,43.4069],[-5.3477,43.4267],[-5.3387,43.4281],[-5.3138,43.414],[-5.2815,43.413],[-5.2644,43.4306],[-5.2294,43.4322],[-5.2209,43.4395],[-5.2006,43.4379],[-5.2156,43.4528],[-5.2148,43.4735],[-5.2254,43.4801],[-5.2238,43.4843],[-5.2507,43.5015],[-5.2624,43.4993],[-5.2701,43.5082],[-5.2651,43.5176],[-5.2949,43.5351],[-5.354,43.5304],[-5.3729,43.5399],[-5.3749,43.5337],[-5.3854,43.5326],[-5.3868,43.526],[-5.379,43.5243],[-5.3821,43.5215],[-5.3912,43.5224],[-5.3932,43.5135],[-5.4157,43.509],[-5.3954,43.5151],[-5.3996,43.5204],[-5.3871,43.5271],[-5.386,43.5376],[-5.3987,43.5443],[-5.396,43.5501],[-5.4115,43.5546],[-5.4651,43.5518],[-5.4935,43.5438],[-5.4985,43.5496],[-5.516,43.5521],[-5.5279,43.5451],[-5.5696,43.5515],[-5.5912,43.5476]],[[-5.3372,43.5056],[-5.3348,43.5082],[-5.3259,43.513],[-5.3372,43.5056]]],[[[-5.1933,43.4386],[-5.1852,43.4407],[-5.1671,43.4327],[-5.1695,43.4259],[-5.1594,43.4166],[-5.1474,43.4262],[-5.1163,43.43],[-5.0854,43.4245],[-5.0683,43.4102],[-5.0549,43.4067],[-5.0304,43.4096],[-5.0256,43.3991],[-5.0094,43.3964],[-5.012,43.3836],[-4.9942,43.3762],[-4.9889,43.3676],[-4.9585,43.366],[-4.927,43.3528],[-4.9155,43.358],[-4.9067,43.3521],[-4.8957,43.3534],[-4.8945,43.3607],[-4.864,43.3579],[-4.8526,43.3647],[-4.8205,43.3549],[-4.7897,43.3531],[-4.7783,43.3621],[-4.7125,43.365],[-4.6745,43.3535],[-4.5367,43.3443],[-4.5343,43.3534],[-4.5387,43.3554],[-4.5307,43.3587],[-4.5344,43.3683],[-4.5208,43.3661],[-4.5213,43.3716],[-4.5105,43.3806],[-4.5122,43.3932],[-4.5346,43.4004],[-4.5565,43.3985],[-4.5582,43.3929],[-4.5812,43.3996],[-4.6538,43.401],[-4.6712,43.4082],[-4.7129,43.4118],[-4.7249,43.4193],[-4.7407,43.4179],[-4.7882,43.436],[-4.8068,43.4338],[-4.814,43.4399],[-4.8262,43.4365],[-4.8393,43.4401],[-4.839,43.4465],[-4.874,43.4421],[-4.9263,43.4626],[-4.9768,43.4621],[-4.9841,43.4537],[-4.9815,43.4599],[-4.9882,43.4618],[-5.036,43.4607],[-5.0515,43.4632],[-5.0563,43.4693],[-5.0724,43.4657],[-5.0821,43.4751],[-5.1157,43.4768],[-5.1235,43.4849],[-5.1679,43.4765],[-5.162,43.4607],[-5.1933,43.4386]]],[[[-4.5768,43.399],[-4.574,43.3974],[-4.5749,43.3999],[-4.5768,43.399]]]]}},{"type":"Feature","properties":{"id":"cantabria-occidental","zona":"Cantabria Occidental","clase":"Más húmedo / nublado","activa":false,"portugal":false,"lat":43.4071,"lon":-4.0955},"geometry":{"type":"MultiPolygon","coordinates":[[[[-4.4471,43.3353],[-4.428,43.3201],[-4.4149,43.3224],[-4.4161,43.3308],[-4.4103,43.3337],[-4.3831,43.3342],[-4.3844,43.3467],[-4.3803,43.3481],[-4.385,43.355],[-4.379,43.366],[-4.3426,43.3652],[-4.35,43.376],[-4.3366,43.3829],[-4.3329,43.3926],[-4.3387,43.3968],[-4.3382,43.4054],[-4.3474,43.4065],[-4.3813,43.3901],[-4.3971,43.3974],[-4.4315,43.3974],[-4.4355,43.3897],[-4.4324,43.3792],[-4.4232,43.3764],[-4.4211,43.3634],[-4.4342,43.3422],[-4.4471,43.3353]]],[[[-4.3213,43.3907],[-4.3089,43.3694],[-4.3167,43.3673],[-4.3199,43.3587],[-4.298,43.3397],[-4.2728,43.3449],[-4.2761,43.3527],[-4.2541,43.3553],[-4.2734,43.3668],[-4.2874,43.3946],[-4.3213,43.3907]]],[[[-4.0982,43.4271],[-4.0894,43.4138],[-4.0955,43.4071],[-4.0463,43.3828],[-4.0148,43.4059],[-4.0338,43.4145],[-4.0251,43.4235],[-4.0351,43.4346],[-4.0443,43.436],[-4.0413,43.4421],[-4.0454,43.4457],[-4.0471,43.4379],[-4.0546,43.4343],[-4.0768,43.431],[-4.0818,43.439],[-4.0982,43.4271]]],[[[-4.0155,43.3945],[-3.992,43.3786],[-3.9928,43.3697],[-4.0078,43.3554],[-4.0135,43.3326],[-4.0056,43.331],[-3.9818,43.3383],[-3.9627,43.33],[-3.9041,43.3418],[-3.9034,43.3497],[-3.8857,43.3701],[-3.8615,43.3817],[-3.8597,43.3872],[-3.8995,43.3836],[-3.9136,43.3748],[-3.9237,43.3778],[-3.9191,43.3962],[-3.9228,43.4475],[-3.9114,43.461],[-3.9165,43.4743],[-3.9326,43.4682],[-3.9454,43.4712],[-3.9582,43.4543],[-3.971,43.4482],[-3.9671,43.4424],[-3.9535,43.4432],[-3.9521,43.4365],[-3.9615,43.4347],[-3.9575,43.4185],[-3.978,43.4095],[-3.9871,43.3993],[-4.0155,43.3945]]],[[[-3.889,43.4483],[-3.8831,43.4387],[-3.8296,43.4344],[-3.814,43.4393],[-3.8262,43.444],[-3.8149,43.444],[-3.8201,43.4487],[-3.8021,43.4613],[-3.7629,43.4679],[-3.7876,43.4765],[-3.7779,43.4851],[-3.7868,43.4865],[-3.784,43.4921],[-3.8104,43.4946],[-3.8318,43.4879],[-3.838,43.4787],[-3.8457,43.484],[-3.8618,43.4757],[-3.8793,43.4804],[-3.8832,43.4762],[-3.87,43.4577],[-3.889,43.4483]]]]}},{"type":"Feature","properties":{"id":"cantabria-oriental","zona":"Cantabria Oriental","clase":"Más húmedo / nublado","activa":false,"portugal":false,"lat":43.406,"lon":-3.4557},"geometry":{"type":"MultiPolygon","coordinates":[[[[-3.7521,43.4357],[-3.7385,43.4326],[-3.7268,43.4431],[-3.718,43.4293],[-3.6966,43.4314],[-3.6752,43.4414],[-3.6699,43.437],[-3.6465,43.4399],[-3.655,43.4481],[-3.6555,43.4567],[-3.637,43.4686],[-3.6544,43.4923],[-3.6868,43.4751],[-3.7015,43.4799],[-3.7235,43.4732],[-3.7265,43.4596],[-3.7471,43.456],[-3.7451,43.4485],[-3.7521,43.4357]]],[[[-3.7315,43.4751],[-3.7287,43.4701],[-3.7276,43.4757],[-3.7315,43.4751]]],[[[-3.5465,43.4899],[-3.5374,43.4785],[-3.5429,43.4734],[-3.5397,43.4689],[-3.5331,43.4715],[-3.5141,43.4604],[-3.5117,43.4656],[-3.4844,43.4642],[-3.4873,43.4575],[-3.4732,43.4528],[-3.4724,43.4624],[-3.4613,43.451],[-3.464,43.4407],[-3.4599,43.4382],[-3.4374,43.4362],[-3.4254,43.4437],[-3.4304,43.4621],[-3.4504,43.4674],[-3.4615,43.4615],[-3.4754,43.4649],[-3.4754,43.4689],[-3.4794,43.466],[-3.4754,43.469],[-3.511,43.4738],[-3.5174,43.4785],[-3.5113,43.4935],[-3.5174,43.4963],[-3.5465,43.4899]]],[[[-3.4557,43.406],[-3.4268,43.3898],[-3.4191,43.3996],[-3.4106,43.4008],[-3.4022,43.3821],[-3.3917,43.392],[-3.3917,43.4061],[-3.3815,43.4157],[-3.4099,43.4157],[-3.4121,43.4196],[-3.4207,43.4154],[-3.4182,43.4113],[-3.431,43.4113],[-3.4518,43.4338],[-3.4557,43.406]]],[[[-3.3365,43.4143],[-3.3246,43.3869],[-3.2991,43.3762],[-3.2885,43.3799],[-3.2933,43.3702],[-3.28,43.3586],[-3.2794,43.3371],[-3.2319,43.3161],[-3.2183,43.2868],[-3.2095,43.2835],[-3.1932,43.2984],[-3.1573,43.3013],[-3.1515,43.3068],[-3.1532,43.3532],[-3.1626,43.3512],[-3.1713,43.3604],[-3.1796,43.358],[-3.2001,43.376],[-3.2121,43.3749],[-3.2171,43.3821],[-3.2085,43.3821],[-3.2268,43.3879],[-3.2204,43.3915],[-3.2229,43.3968],[-3.3065,43.4101],[-3.3157,43.4074],[-3.3151,43.3946],[-3.3199,43.3899],[-3.319,43.3974],[-3.3257,43.4026],[-3.3221,43.4185],[-3.3365,43.4143]]]]}},{"type":"Feature","properties":{"id":"alto-minho","zona":"Alto Minho (PT)","clase":"Más favorable","activa":false,"portugal":true,"lat":41.831649999999996,"lon":-8.6711},"geometry":{"type":"Polygon","coordinates":[[[-8.8807,41.7532],[-8.8446,41.6735],[-8.8425,41.6908],[-8.8296,41.6904],[-8.8398,41.6837],[-8.8261,41.6713],[-8.8273,41.6497],[-8.8193,41.626],[-8.8007,41.6064],[-8.7761,41.616],[-8.7568,41.6144],[-8.7567,41.6215],[-8.7482,41.6249],[-8.7419,41.6191],[-8.7324,41.6217],[-8.725,41.6335],[-8.7063,41.6321],[-8.6968,41.6407],[-8.664,41.6423],[-8.6513,41.6313],[-8.6463,41.6328],[-8.643249541284403,41.657629357798164],[-8.6271,41.6508],[-8.6301,41.6439],[-8.6164,41.644],[-8.6047,41.6349],[-8.5773,41.643],[-8.5628,41.6237],[-8.5407,41.6313],[-8.5427,41.6393],[-8.5363,41.6507],[-8.5473,41.6633],[-8.5332,41.6795],[-8.5217,41.6796],[-8.5137,41.7213],[-8.5184,41.7262],[-8.4935,41.7416],[-8.4873,41.7398],[-8.486,41.7272],[-8.4615,41.7323],[-8.4754,41.7403],[-8.4663,41.7655],[-8.4798,41.7718],[-8.4721,41.7883],[-8.4781,41.7952],[-8.4971,41.7908],[-8.5166,41.7935],[-8.5151,41.8011],[-8.5235,41.8075],[-8.5195,41.8226],[-8.531,41.8302],[-8.5231,41.8549],[-8.5287,41.8607],[-8.5617,41.8703],[-8.5702,41.8701],[-8.576,41.8632],[-8.5984,41.8654],[-8.6221,41.8443],[-8.646,41.8588],[-8.6572997399896,41.85786916276651],[-8.6584,41.8683],[-8.6754,41.8877],[-8.661,41.8857],[-8.6548,41.9037],[-8.6385,41.9091],[-8.6387,41.9317],[-8.6132,41.9486],[-8.5794,41.959],[-8.5555,41.9826],[-8.5361,41.9741],[-8.5293,42.0226],[-8.5448,42.0419],[-8.5468,42.054],[-8.5812,42.0519],[-8.5953,42.0569],[-8.6399,42.0456],[-8.6576,42.0301],[-8.6613,42.0033],[-8.6773,41.9921],[-8.7441,41.9659],[-8.7486,41.9413],[-8.7579,41.932],[-8.7857,41.9174],[-8.8184,41.9113],[-8.851,41.8771],[-8.8733,41.8699],[-8.866,41.8493],[-8.876,41.8371],[-8.8743,41.821],[-8.8601,41.8104],[-8.8749,41.7976],[-8.8696,41.7771],[-8.8807,41.7532]],[[-8.781283802024747,41.915871316085486],[-8.7805,41.9156],[-8.78022,41.91452],[-8.781283802024747,41.915871316085486]],[[-8.760078779927845,41.880806297146606],[-8.7525,41.8812],[-8.7598,41.8806],[-8.760078779927845,41.880806297146606]],[[-8.749394516728625,41.826131319702604],[-8.7478,41.8278],[-8.744,41.8297],[-8.749394516728625,41.826131319702604]],[[-8.701103262347077,41.857043905754416],[-8.6701,41.8468],[-8.7008,41.8567],[-8.701103262347077,41.857043905754416]],[[-8.6997,41.7752],[-8.6995950194657,41.775320955832996],[-8.6912,41.769],[-8.6997,41.7752]],[[-8.685239354502864,41.820680843310775],[-8.684,41.8223],[-8.681621857923497,41.82285956284153],[-8.685239354502864,41.820680843310775]],[[-8.6793,41.8358],[-8.6773,41.8295],[-8.677414318706697,41.82901154734411],[-8.6793,41.8358]],[[-8.6793,41.8358],[-8.6789,41.8409],[-8.678803387059098,41.84096477458538],[-8.6793,41.8358]],[[-8.678513626373626,41.824731565934066],[-8.678129319371727,41.82595654450262],[-8.6784,41.8248],[-8.678513626373626,41.824731565934066]],[[-8.6701,41.8468],[-8.663490062111801,41.84854968944099],[-8.6635,41.8485],[-8.6701,41.8468]],[[-8.6596,41.9317],[-8.6431,41.9292],[-8.64262380952381,41.928961904761906],[-8.6596,41.9317]],[[-8.643526213592233,41.66117281553398],[-8.6432,41.6608],[-8.643212868632707,41.659976407506704],[-8.643526213592233,41.66117281553398]]]}},{"type":"Feature","properties":{"id":"litoral-norte","zona":"Litoral Norte (PT)","clase":"Más favorable","activa":false,"portugal":true,"lat":41.4405,"lon":-8.7003},"geometry":{"type":"Polygon","coordinates":[[[-8.8099,41.6115],[-8.7924,41.5424],[-8.7854,41.5351],[-8.7863,41.5235],[-8.7907,41.5301],[-8.7879,41.4993],[-8.7762,41.4824],[-8.7868,41.4151],[-8.7694,41.3793],[-8.7718,41.3706],[-8.7665,41.3772],[-8.7626,41.375],[-8.7642,41.3692],[-8.7679,41.372],[-8.7551,41.3549],[-8.7554,41.3428],[-8.7393,41.3324],[-8.7399,41.3099],[-8.7265,41.2704],[-8.7055,41.2731],[-8.6988,41.2566],[-8.6658,41.2624],[-8.6576,41.2561],[-8.6506,41.2604],[-8.6527,41.2742],[-8.6314,41.28],[-8.6218,41.2962],[-8.6345,41.3196],[-8.622,41.3425],[-8.6211,41.3359],[-8.6106,41.3411],[-8.625642260553791,41.38414439400817],[-8.5917,41.3939],[-8.5907,41.4001],[-8.6052,41.4127],[-8.6134,41.4082],[-8.6346,41.4187],[-8.6501,41.4197],[-8.6574,41.4363],[-8.6681,41.4446],[-8.6832,41.4492],[-8.7007,41.4421],[-8.7093,41.4535],[-8.7295,41.4536],[-8.7457,41.4686],[-8.7333,41.4914],[-8.7229,41.4947],[-8.7156,41.4859],[-8.7078,41.4868],[-8.701,41.4961],[-8.7152,41.5287],[-8.7325,41.527],[-8.7312,41.5373],[-8.7228,41.5455],[-8.7233,41.5749],[-8.7368,41.5846],[-8.7285,41.6078],[-8.7219,41.6127],[-8.7261,41.6199],[-8.7419,41.6191],[-8.7482,41.6249],[-8.757,41.6212],[-8.7568,41.6144],[-8.7761,41.616],[-8.8007,41.6064],[-8.8099,41.6115]],[[-8.7688,41.4688],[-8.751359181731685,41.466549571836346],[-8.7526,41.4661],[-8.7688,41.4688]],[[-8.7303,41.3846],[-8.7292,41.3863],[-8.7234,41.3893],[-8.7303,41.3846]],[[-8.720410450360786,41.39517944762379],[-8.7204,41.3952],[-8.7144,41.3938],[-8.720410450360786,41.39517944762379]],[[-8.655720882781594,41.41103780970227],[-8.6555,41.4111],[-8.6538,41.4071],[-8.655720882781594,41.41103780970227]],[[-8.6407,41.3944],[-8.6315,41.3898],[-8.631272277227723,41.38944806480648],[-8.6407,41.3944]]]}}]}